precipitationLast6Hours,visibility,barometricPressure,windDirection,relativeHumidity,heatIndex,rawMessage,timestamp,maxTemperatureLast24Hours,elevation,temperature,minTemperatureLast24Hours,precipitationLastHour,precipitationLast3Hours,dewpoint,windChill,windGust,seaLevelPressure,windSpeed,textDescription
,16090,102000,0,54.110084017545,,KNYC 010551Z AUTO 00000KT 10SM CLR 11/02 A3012 RMK AO2 SLP190 T01060017 10144 20100 58000 $,2022-05-01T05:51:00+00:00,,27,10.6,,,,1.7,,,101900,0,Clear
,9660,101800,90,96.074594670841,,KNYC 021033Z AUTO 09003KT 6SM -RA BR BKN015 BKN043 OVC060 11/10 A3006 RMK AO2 RAB0955 P0020 T01060100 $,2022-05-02T10:33:00+00:00,,27,10.6,,0.01,,10,,,,5.4,Light Rain and Fog/Mist
,6440,101930,110,92.842632704448,,KJFK 040451Z 11009KT 4SM -DZ BR OVC005 09/08 A3010 RMK AO2 SLP193 P0000 T00940083 401670094,2022-05-04T04:51:00+00:00,,7,9.4,,0,,8.3,6.999965789968333,,101930,16.56,Light Drizzle and Fog/Mist
,16090,101800,,38.862552721019,,KJFK 302051Z 19013KT 10SM CLR 15/01 A3006 RMK AO2 SLP177 WSHFT 2009 T01500011 55008,2022-04-30T20:51:00+00:00,,7,15,,,,1.1,,,101770,,Clear
,16090,101830,,12.164783155336,,KEWR 301751Z 29013G17KT 10SM CLR 19/M11 A3007 RMK AO2 SLP183 T01941106 10194 20111 58017,2022-04-30T17:51:00+00:00,,9,19.4,,,,-10.6,,,101830,,Clear
,16090,101660,0,59.870523930267,,KNYC 060451Z AUTO 00000KT 10SM CLR 16/08 A3002 RMK AO2 SLP158 T01610083 402330133 $,2022-05-06T04:51:00+00:00,,27,16.1,,,,8.3,,,101580,0,
,16090,101590,0,66.902625351419,,KNYC 060851Z AUTO 00000KT 10SM FEW120 15/09 A3000 RMK AO2 SLP148 T01500089 58003 $,2022-05-06T08:51:00+00:00,,27,15,,,,8.9,,,101480,0,Mostly Clear
,16090,102000,0,33.78852355548,,KNYC 010351Z AUTO 00000KT 10SM CLR 12/M03 A3012 RMK AO2 SLP191 T01221033 $,2022-05-01T03:51:00+00:00,,27,12.2,,,,-3.3,,,101910,0,Clear
,12870,101800,70,89.954432820851,,KNYC 021451Z AUTO 07007KT 8SM BKN012 OVC018 12/11 A3006 RMK AO2 SLP170 60000 T01220106 58009 $,2022-05-02T14:51:00+00:00,,27,12.2,,,0,10.6,,,101700,12.96,Cloudy
,11270,101590,,71.62381165163,,KEWR 020951Z 11013G20KT 7SM -TSRA BKN012CB OVC020 13/08 A3000 RMK AO2 LTG DSNT S AND SW RAB36 TSB42 PRESFR SLP158 FRQ LTGICCG OHD TS OHD MOV E P0001 T01280078,2022-05-02T09:51:00+00:00,,9,12.8,,0,,7.8,,,101580,,Thunderstorms and Rain
,16090,101660,60,17.660864137571,,KTEB 302251Z 06004KT 10SM CLR 18/M07 A3002 RMK AO2 SLP166 T01831067,2022-04-30T22:51:00+00:00,,3,18.3,,,,-6.7,,,101660,7.56,Clear
,16090,101630,190,45.123994330123,,KTEB 052251Z 19010KT 10SM CLR 19/07 A3001 RMK AO2 SLP160 T01940072,2022-05-05T22:51:00+00:00,,3,19.4,,,,7.2,,,101600,18.36,Clear
,16090,101690,110,62.484658407133,,KLGA 020746Z 11005KT 10SM OVC025 13/06 A3003 RMK AO2 $,2022-05-02T07:46:00+00:00,,9,13,,,,6,,,,9.36,Cloudy
,16090,101630,,86.423356721086,,KEWR 041251Z VRB03KT 10SM BKN008 OVC025 12/10 A3001 RMK AO2 RAE49 SLP161 P0000 T01220100,2022-05-04T12:51:00+00:00,,9,12.2,,0,,10,,,101610,5.4,Cloudy
,16090,102130,150,57.627506394469,,KEWR 031851Z 15009KT 10SM FEW025 OVC250 17/08 A3016 RMK AO2 SLP213 T01670083,2022-05-03T18:51:00+00:00,,9,16.7,,,,8.3,,,102130,16.56,Cloudy
,16090,102170,40,74.098802959788,,KJFK 031251Z 04012KT 10SM SCT018 BKN250 13/08 A3017 RMK AO2 SLP216 SCT V BKN T01280083,2022-05-03T12:51:00+00:00,,7,12.8,,,,8.3,,,102160,22.32,Mostly Cloudy
,16090,101630,140,39.255587545653,,KEWR 052151Z 14010KT 10SM FEW060 FEW200 BKN250 21/07 A3001 RMK AO2 SLP161 T02110067,2022-05-05T21:51:00+00:00,,9,21.1,,,,6.7,,,101610,18.36,Mostly Cloudy
,16090,102170,20,68.973277430726,,KJFK 031351Z 02012KT 10SM SCT018 BKN250 14/08 A3017 RMK AO2 SLP217 T01390083,2022-05-03T13:51:00+00:00,,7,13.9,,,,8.3,,,102170,22.32,Mostly Cloudy
,16090,101660,160,46.397398303251,,KLGA 052351Z 16009KT 10SM FEW060 BKN220 BKN260 17/06 A3002 RMK AO2 SLP166 T01720056 10217 20172 51005,2022-05-05T23:51:00+00:00,,9,17.2,,,,5.6,,,101660,16.56,Mostly Cloudy
,16090,101970,90,74.499044679056,,KTEB 032351Z 09006KT 10SM CLR 12/08 A3011 RMK AO2 SLP195 T01220078 10167 20122 58009,2022-05-03T23:51:00+00:00,,3,12.2,,,,7.8,,,101950,11.16,Clear
,16090,102170,,27.777791385552,,KNYC 301251Z AUTO VRB03KT 10SM CLR 10/M08 A3017 RMK AO2 SLP210 T01001078 $,2022-04-30T12:51:00+00:00,,27,10,,,,-7.8,,,102100,5.4,Clear
,16090,,,,,KNYC 010451Z AUTO 00000KT 10SM CLR 12/01 A3012 RMK AO2 SLP192 T01170006 402000067 $,2022-05-01T04:51:00+00:00,,27,,,,,,,,,,Clear
,4830,101660,100,89.181204957654,,KTEB 040851Z 10005KT 3SM BR OVC012 10/08 A3002 RMK AO2 RAE06B31E50 SLP166 P0002 60005 T01000083 56018,2022-05-04T08:51:00+00:00,,3,10,,0,0,8.3,,,101660,9.36,Fog/Mist
,16090,101930,290,21.940965191855,,KTEB 301551Z 29007KT 250V320 10SM CLR 16/M06 A3010 RMK AO2 SLP191 T01561061,2022-04-30T15:51:00+00:00,,3,15.6,,,,-6.1,,,101910,12.96,Clear
,16090,101290,240,75.345564108887,,KJFK 042151Z 24009KT 10SM FEW020 FEW045 BKN120 17/13 A2991 RMK AO2 SLP129 T01720128,2022-05-04T21:51:00+00:00,,7,17.2,,,,12.8,,,101290,16.56,Mostly Cloudy
,16090,102200,20,61.814618307198,,KJFK 031551Z 02008KT 10SM BKN250 16/08 A3018 RMK AO2 SLP219 T01560083,2022-05-03T15:51:00+00:00,,7,15.6,,,,8.3,,,102190,14.76,Mostly Cloudy
,16090,101660,,13.44989358988,,KLGA 292351Z 35017G21KT 10SM FEW070 14/M13 A3002 RMK AO2 SLP166 T01441133 10167 20144 53012,2022-04-29T23:51:00+00:00,,9,14.4,,,,-13.3,,38.88,101660,,Mostly Clear
,16090,101560,190,64.241540272317,,KEWR 060651Z 19004KT 10SM SCT140 BKN180 OVC250 15/08 A2999 RMK AO2 SLP154 T01500083,2022-05-06T06:51:00+00:00,,9,15,,,,8.3,,,101540,7.56,Cloudy
,16090,101930,10,85.795186713907,,KTEB 030458Z 01006KT 10SM BKN012 12/09 A3010 RMK AO2 T01170094,2022-05-03T04:58:00+00:00,,3,11.7,,,,9.4,,,,11.16,Mostly Cloudy
,16090,101490,150,90.036281705393,,KJFK 061451Z 15010KT 10SM -RA BKN012 BKN075 OVC090 13/12 A2997 RMK AO2 RAE00B24 SLP148 P0000 60003 T01330117 56009,2022-05-06T14:51:00+00:00,,7,13.3,,0,0,11.7,,,101480,18.36,Light Rain
,16090,,,,,KNYC 031351Z AUTO 06007KT 10SM BKN021 14/08 A3020 RMK AO2 SLP216 T01440083 $,2022-05-03T13:51:00+00:00,,27,,,,,,,,,,Mostly Cloudy
,16090,101630,360,72.034842210106,,KLGA 050551Z 36009KT 10SM OVC042 15/10 A3001 RMK AO2 SLP161 T01500100 10178 20144 50005,2022-05-05T05:51:00+00:00,,9,15,,,,10,,,101610,16.56,Cloudy
,16090,101490,0,69.194009692531,,KEWR 060951Z 00000KT 10SM SCT060 OVC095 15/09 A2997 RMK AO2 SLP147 T01500094,2022-05-06T09:51:00+00:00,,9,15,,,,9.4,,,101470,0,Cloudy
,8050,101690,,86.313549377715,,KTEB 021032Z 28012KT 5SM TSRA BR SCT023 BKN039 OVC100 11/09 A3003 RMK AO2 WSHFT 1001 LTG DSNT SE RAB0955 TSB0956E11B12 TS FRQ LTG CGICCCCA P0009 T01110089,2022-05-02T10:32:00+00:00,,3,11.1,,0,,8.9,,,,,Thunderstorms and Rain and Fog/Mist
,16090,,,,,KTEB 042058Z 36004KT 10SM SCT021 BKN120 18/12 A2991 RMK AO2 T01780122,2022-05-04T20:58:00+00:00,,3,,,,,,,,,,Mostly Cloudy
,16090,101520,160,61.814618307198,,KEWR 060551Z 16004KT 10SM FEW150 BKN180 OVC250 16/08 A2998 RMK AO2 SLP153 T01560083 10194 20156 58016,2022-05-06T05:51:00+00:00,,9,15.6,,,,8.3,,,101530,7.56,Cloudy
,16090,101660,0,66.902625351419,,KNYC 060751Z AUTO 00000KT 10SM CLR 15/09 A3002 RMK AO2 SLP156 T01500089 $,2022-05-06T07:51:00+00:00,,27,15,,,,8.9,,,101560,0,Clear
,16090,101930,,32.262558109461,20.767966795080557,,2022-05-05T16:51:00+00:00,,27,21.7,,,,4.4,,,101840,7.56,
,3220,101730,70,89.490389141325,,KEWR 021609Z 07005KT 2SM -DZ BR OVC004 14/12 A3004 RMK AO2 P0000 T01390122 $,2022-05-02T16:09:00+00:00,,9,13.9,,0,,12.2,,,,9.36,Light Drizzle and Fog/Mist
,16090,101690,130,59.60087967417,,KLGA 020751Z 13003KT 10SM OVC025 13/06 A3003 RMK AO2 SLP170 T01330056 $,2022-05-02T07:51:00+00:00,,9,13.3,,,,5.6,,,101700,5.4,Cloudy
,8050,101460,,83.831702542696,,KNYC 041851Z AUTO VRB03KT 5SM HZ OVC039 14/12 A2996 RMK AO2 SLP138 T01440117 $,2022-05-04T18:51:00+00:00,,27,14.4,,,,11.7,,,101380,5.4,Haze
0,14480,101760,40,86.590548811883,,KEWR 022351Z 04008KT 9SM BKN006 OVC010 14/12 A3005 RMK AO2 SLP175 60000 T01390117 10144 20139 53011 $,2022-05-02T23:51:00+00:00,,9,13.9,,,,11.7,,,101750,14.76,Cloudy
,16090,102000,210,85.913626837241,,KJFK 010451Z 21005KT 10SM CLR 07/05 A3012 RMK AO2 SLP199 T00720050 401890067,2022-05-01T04:51:00+00:00,,7,7.2,,,,5,5.430357626322222,,101990,9.36,Clear
,16090,101320,250,67.711655156444,,KEWR 042251Z 25006KT 10SM FEW020 FEW070 SCT100 BKN140 19/13 A2992 RMK AO2 SLP130 T01890128,2022-05-04T22:51:00+00:00,,9,18.9,,,,12.8,,,101300,11.16,Mostly Cloudy
,6440,101760,120,86.202442841334,,KTEB 040651Z 12007KT 4SM BR OVC009 10/08 A3005 RMK AO2 SLP175 T01000078,2022-05-04T06:51:00+00:00,,3,10,,,,7.8,,,101750,12.96,Fog/Mist
,16090,102130,50,47.704271987516,,KNYC 011051Z AUTO 05003KT 10SM CLR 10/M01 A3016 RMK AO2 SLP202 T01001006 $,2022-05-01T10:51:00+00:00,,27,10,,,,-0.6,,,102020,5.4,Clear
,16090,102030,0,65.581393779178,,,2022-05-01T08:51:00+00:00,,27,8.9,,,,2.8,,,101950,0,
,16090,101360,250,69.746258773174,,KEWR 041951Z 25007G16KT 10SM FEW018 SCT038 BKN050 18/12 A2993 RMK AO2 SLP134 T01780122,2022-05-04T19:51:00+00:00,,9,17.8,,,,12.2,,,101340,12.96,Mostly Cloudy
,11270,101520,80,86.531884394108,,KTEB 061251Z 08003KT 7SM -RA OVC070 13/11 A2998 RMK AO2 SLP152 P0006 T01330111,2022-05-06T12:51:00+00:00,,3,13.3,,0,,11.1,,,101520,5.4,Light Rain
,16090,101930,30,64.486025639597,,KTEB 051251Z 03006KT 10SM FEW036 16/09 A3010 RMK AO2 SLP194 T01610094,2022-05-05T12:51:00+00:00,,3,16.1,,,,9.4,,,101940,11.16,Mostly Clear
,16090,,,,,KTEB 030224Z 05003KT 10SM OVC012 12/10 A3008 RMK AO2 T01170100,2022-05-03T02:24:00+00:00,,3,,,,,,,,,,Cloudy
,16090,101690,150,66.434122377317,,KLGA 020851Z 15008KT 10SM -RA OVC021 13/07 A3003 RMK AO2 RAB06 SLP169 P0000 60000 T01280067 56004 $,2022-05-02T08:51:00+00:00,,9,12.8,,0,0,6.7,,,101690,14.76,Light Rain
,11270,101730,160,61.697619772929,,KEWR 020751Z 16004KT 7SM RA OVC025 13/06 A3004 RMK AO2 RAB39 SLP172 P0000 T01330061,2022-05-02T07:51:00+00:00,,9,13.3,,0,,6.1,,,101720,7.56,Rain
,6440,101630,,86.313549377715,,KLGA 021951Z 04016KT 4SM BR OVC004 11/09 A3001 RMK AO2 DZE16 SLP162 P0000 T01110089,2022-05-02T19:51:00+00:00,,9,11.1,,0,,8.9,,,101620,,Fog/Mist
,1610,101730,40,89.269748995158,,KLGA 021651Z 04013KT 1SM R04/4000V5000FT -RA BR OVC006 11/09 A3004 RMK AO2 CIG 003V009 SLP170 P0002 T01110094,2022-05-02T16:51:00+00:00,,9,11.1,,0,,9.4,,,101700,24.12,Light Rain and Fog/Mist
,16090,101800,110,59.60087967417,,KNYC 020751Z AUTO 11004KT 10SM OVC023 13/06 A3006 RMK AO2 SLP170 T01330056 $,2022-05-02T07:51:00+00:00,,27,13.3,,,,5.6,,,101700,7.56,Cloudy
,16090,101900,180,25.709266126067,,KLGA 011851Z 18011KT 10SM FEW150 SCT190 BKN250 18/M02 A3009 RMK AO2 SLP188 T01831017,2022-05-01T18:51:00+00:00,,9,18.3,,,,-1.7,,,101880,20.52,Mostly Cloudy
,4830,,,,,KNYC 061251Z AUTO 00000KT 3SM -RA BR FEW026 OVC060 14/13 A3001 RMK AO2 SLP154 P0004 T01390128 $,2022-05-06T12:51:00+00:00,,27,,,0,,,,,,,Light Rain and Fog/Mist
,16090,102170,130,66.902625351419,,KJFK 031851Z 13015KT 10SM SCT034 SCT180 OVC250 15/09 A3017 RMK AO2 SLP215 T01500089,2022-05-03T18:51:00+00:00,,7,15,,,,8.9,,,102150,27.72,Cloudy
,16090,102130,30,58.142820591561,,KEWR 031451Z 03009KT 10SM FEW023 BKN250 17/09 A3016 RMK AO2 SLP214 T01720089 50004,2022-05-03T14:51:00+00:00,,9,17.2,,,,8.9,,,102140,16.56,Mostly Cloudy
,8050,101520,50,93.082849756907,,KNYC 061451Z AUTO 05004KT 5SM -RA BR FEW043 OVC080 14/13 A2998 RMK AO2 SLP143 P0001 60007 T01390128 58009 $,2022-05-06T14:51:00+00:00,,27,13.9,,0,0,12.8,,,101430,7.56,Light Rain and Fog/Mist
,16090,101690,290,9.4091971351941,,KNYC 292251Z AUTO 29008KT 250V330 10SM CLR 16/M17 A3003 RMK AO2 SLP161 T01561167 $,2022-04-29T22:51:00+00:00,,27,15.6,,,,-16.7,,,101610,14.76,Clear
,16090,102070,,77.073390888716,,KLGA 032251Z 05012KT 10SM BKN025 BKN170 OVC250 12/08 A3014 RMK AO2 SLP205 T01220083 $,2022-05-03T22:51:00+00:00,,9,12.2,,,,8.3,,,102050,,Cloudy
,8050,,,,,KJFK 021539Z 09014KT 5SM -DZ BR OVC009 12/11 A3004 RMK AO2 DZB11 P0000 T01220106,2022-05-02T15:39:00+00:00,,7,,,0,,,,,,,Light Drizzle and Fog/Mist
,16090,101800,20,80.418244090481,,KTEB 051051Z 02003KT 10SM CLR 13/10 A3006 RMK AO2 SLP180 T01330100,2022-05-05T10:51:00+00:00,,3,13.3,,,,10,,,101800,5.4,Clear
,16090,101860,170,66.304797658581,,KJFK 020151Z 17012KT 10SM FEW080 BKN100 12/06 A3008 RMK AO2 SLP186 T01220061,2022-05-02T01:51:00+00:00,,7,12.2,,,,6.1,,,101860,22.32,Mostly Cloudy
,16090,101830,,18.800679553469,,KLGA 301751Z VRB03KT 10SM CLR 17/M07 A3007 RMK AO2 SLP182 T01671072 10167 20094 58015,2022-04-30T17:51:00+00:00,,9,16.7,,,,-7.2,,,101820,5.4,Clear
,16090,101730,110,55.493664570432,,KEWR 012351Z 11008KT 10SM FEW070 BKN100 OVC170 14/06 A3004 RMK AO2 SLP173 T01440056 10206 20144 58010,2022-05-01T23:51:00+00:00,,9,14.4,,,,5.6,,,101730,14.76,Cloudy
,16090,102030,340,27.818079045457,,KJFK 300551Z 34012KT 10SM CLR 09/M08 A3013 RMK AO2 SLP203 T00941083 10144 20094 50009,2022-04-30T05:51:00+00:00,,7,9.4,,,,-8.3,6.414479485106667,,102030,22.32,Clear
,16090,101590,0,72.437660318587,,KNYC 050151Z AUTO 00000KT 10SM OVC070 17/12 A3000 RMK AO2 SLP148 T01720122 $,2022-05-05T01:51:00+00:00,,27,17.2,,,,12.2,,,101480,0,Cloudy
,4830,101560,,92.285708289197,,KTEB 041451Z VRB03KT 3SM BR OVC007 11/09 A2999 RMK AO2 RAE25 SLP156 P0001 60003 T01060094 51007,2022-05-04T14:51:00+00:00,,3,10.6,,0,0,9.4,,,101560,5.4,Fog/Mist
,12870,101730,70,85.795186713907,,KTEB 021415Z 07004KT 8SM BR BKN012 OVC023 12/09 A3004 RMK AO2 T01170094,2022-05-02T14:15:00+00:00,,3,11.7,,,,9.4,,,,7.56,Fog/Mist
,16090,101930,0,60.908961322286,,KLGA 010651Z 00000KT 10SM CLR 10/03 A3010 RMK AO2 SLP192 T01000028,2022-05-01T06:51:00+00:00,,9,10,,,,2.8,,,101920,0,Clear
,16090,101930,120,82.880385175758,,KEWR 040351Z 12008KT 10SM OVC008 11/08 A3010 RMK AO2 SLP193 T01110083,2022-05-04T03:51:00+00:00,,9,11.1,,,,8.3,,,101930,14.76,Cloudy
,11270,101900,120,86.202442841334,,KLGA 040451Z 12010KT 7SM -DZ OVC006 10/08 A3009 RMK AO2 SLP189 P0000 T01000078 401610100 $,2022-05-04T04:51:00+00:00,,9,10,,0,,7.8,,,101890,18.36,Light Drizzle
,16090,102030,,50.055164265978,,KNYC 051451Z AUTO VRB05KT 10SM CLR 17/07 A3013 RMK AO2 SLP193 T01720067 50007 $,2022-05-05T14:51:00+00:00,,27,17.2,,,,6.7,,,101930,9.36,Clear
,16090,101490,180,66.775731951175,,KTEB 060651Z 18004KT 10SM CLR 14/08 A2997 RMK AO2 SLP149 T01440083,2022-05-06T06:51:00+00:00,,3,14.4,,,,8.3,,,101490,7.56,Clear
,16090,101930,180,25.709266126067,,KLGA 011751Z 18010KT 10SM FEW160 SCT200 BKN250 18/M02 A3010 RMK AO2 SLP193 T01831017 10189 20106 56015,2022-05-01T17:51:00+00:00,,9,18.3,,,,-1.7,,,101930,18.36,Mostly Cloudy
,16090,101800,0,51.800359971891,,KNYC 060251Z AUTO 00000KT 10SM CLR 17/07 A3006 RMK AO2 SLP169 T01720072 53002 $,2022-05-06T02:51:00+00:00,,27,17.2,,,,7.2,,,101690,0,Clear
,16090,101560,310,72.546120189925,,,2022-05-05T02:51:00+00:00,,9,17.8,,,,12.8,,,101550,11.16,Mostly Cloudy
,16090,101690,350,74.290523029752,,KLGA 050951Z 35009KT 10SM SCT046 BKN250 14/09 A3003 RMK AO2 SLP168 T01390094,2022-05-05T09:51:00+00:00,,9,13.9,,,,9.4,,,101680,16.56,Mostly Cloudy
,16090,102240,80,57.870774670853,,KNYC 031651Z AUTO 08007KT 040V110 10SM CLR 16/08 A3019 RMK AO2 SLP214 T01610078 $,2022-05-03T16:51:00+00:00,,27,16.1,,,,7.8,,,102140,12.96,Clear
,16090,102100,150,40.890358323204,,KJFK 011651Z 15013KT 10SM FEW200 BKN250 16/03 A3015 RMK AO2 SLP209 T01610028,2022-05-01T16:51:00+00:00,,7,16.1,,,,2.8,,,102090,24.12,Mostly Cloudy
,16090,,,,,KNYC 030832Z AUTO 36003KT 10SM BKN013 11/09 A3015 RMK AO2 T01110089 $,2022-05-03T08:32:00+00:00,,27,,,,,,,,,,Mostly Cloudy
,16090,101800,0,,,KNYC 302151Z AUTO 00000KT 10SM CLR 19/M08 A3006 RMK AO2 SLP169 T01891083 $,2022-04-30T21:51:00+00:00,,27,18.9,,,,,,,101690,0,
,16090,101930,340,81.750052187031,,KLGA 030548Z 34004KT 10SM SCT016 BKN022 11/08 A3010 RMK AO2,2022-05-03T05:48:00+00:00,,9,11,,,,8,,,,7.56,Mostly Cloudy
,16090,101930,140,37.394400145295,,KJFK 011951Z 14009KT 10SM FEW140 FEW200 BKN240 16/01 A3010 RMK AO2 SLP193 T01560011,2022-05-01T19:51:00+00:00,,7,15.6,,,,1.1,,,101930,16.56,Mostly Cloudy
,16090,102070,320,31.147584739118,,KLGA 300951Z 32006KT 10SM FEW250 08/M08 A3014 RMK AO2 SLP205 T00831078,2022-04-30T09:51:00+00:00,,9,8.3,,,,-7.8,6.407665852161666,,102050,11.16,Mostly Clear
,16090,101830,350,69.530934577901,,KEWR 051151Z 35013G18KT 10SM SCT022 SCT080 BKN250 17/11 A3007 RMK AO2 SLP183 70003 T01670111 10167 20144 53013,2022-05-05T11:51:00+00:00,,9,16.7,,,,11.1,,,101830,24.12,Mostly Cloudy
,16090,101900,350,45.123994330123,,KJFK 051551Z 35006KT 10SM FEW050 FEW085 BKN250 19/07 A3009 RMK AO2 SLP190 T01940072,2022-05-05T15:51:00+00:00,,7,19.4,,,,7.2,,,101900,11.16,Mostly Cloudy
,16090,102100,290,31.147584739118,,KLGA 301051Z 29008KT 10SM FEW250 08/M08 A3015 RMK AO2 SLP209 T00831078,2022-04-30T10:51:00+00:00,,9,8.3,,,,-7.8,5.864281835073333,,102090,14.76,Mostly Clear
,12870,101860,90,92.934812010123,,KNYC 021316Z AUTO 09004KT 8SM FEW011 OVC021 11/10 A3008 RMK AO2 T01110100 $,2022-05-02T13:16:00+00:00,,27,11.1,,,,10,,,,7.56,Cloudy
,14480,101590,40,83.831702542696,,KEWR 021851Z 04007KT 9SM OVC007 14/12 A3000 RMK AO2 SLP159 T01440117 $,2022-05-02T18:51:00+00:00,,9,14.4,,,,11.7,,,101590,12.96,Cloudy
,16090,102000,30,89.269748995158,,KJFK 030751Z 03004KT 10SM OVC012 11/09 A3012 RMK AO2 SLP199 T01110094,2022-05-03T07:51:00+00:00,,7,11.1,,,,9.4,,,101990,7.56,Cloudy
,16090,101320,,64.859503898911,,KLGA 042351Z VRB03KT 10SM SCT075 BKN090 18/11 A2992 RMK AO2 SLP132 T01780111 10194 20122 53004,2022-05-04T23:51:00+00:00,,9,17.8,,,,11.1,,,101320,5.4,Mostly Cloudy
,16090,102100,140,71.717959085678,,KEWR 032151Z 14007KT 10SM SCT015 BKN140 BKN200 OVC250 13/08 A3015 RMK AO2 SLP209 T01330083,2022-05-03T21:51:00+00:00,,9,13.3,,,,8.3,,,102090,12.96,Cloudy
,16090,102030,340,28.593749077504,,KEWR 300851Z 34005KT 10SM CLR 08/M09 A3013 RMK AO2 SLP204 T00831089 55001,2022-04-30T08:51:00+00:00,,9,8.3,,,,-8.9,6.737267429777778,,102040,9.36,Clear
,16090,101860,110,71.62381165163,,KLGA 020451Z 11005KT 10SM BKN060 OVC100 13/08 A3008 RMK AO2 RAE32 SLP185 P0000 T01280078 401940089 $,2022-05-02T04:51:00+00:00,,9,12.8,,0,,7.8,,,101850,9.36,Cloudy
0,9660,101520,90,85.680481185637,,KLGA 041151Z 09007KT 6SM -RA BR OVC007 11/08 A2998 RMK AO2 RAE1059B15 SLP152 P0000 60009 70009 T01060083 10111 20100 58019,2022-05-04T11:51:00+00:00,,9,10.6,,0,,8.3,,,101520,12.96,Light Rain and Fog/Mist
,4020,101690,330,92.993524010865,,KJFK 022121Z 33009KT 2 1/2SM -DZ BR OVC006 12/11 A3003 RMK AO2 SFC VIS 4 P0000 T01220111,2022-05-02T21:21:00+00:00,,7,12.2,,0,,11.1,,,,16.56,Light Drizzle and Fog/Mist
,16090,102000,,43.16334660497,,KNYC 051551Z AUTO VRB03KT 10SM CLR 19/06 A3012 RMK AO2 SLP190 T01890061 $,2022-05-05T15:51:00+00:00,,27,18.9,,,,6.1,,,101900,5.4,Clear
,16090,101860,50,89.269748995158,,KLGA 030151Z 05006KT 10SM FEW011 OVC023 11/09 A3008 RMK AO2 SLP186 T01110094,2022-05-03T01:51:00+00:00,,9,11.1,,,,9.4,,,101860,11.16,Cloudy
,12870,101730,60,83.220266513554,,KEWR 021413Z 06006KT 8SM OVC009 14/11 A3004 RMK AO2 T01390111 $,2022-05-02T14:13:00+00:00,,9,13.9,,,,11.1,,,,11.16,Cloudy
,16090,101970,330,21.785241404839,,,2022-04-30T14:51:00+00:00,,3,14.4,,,,-7.2,,,101960,18.36,
,16090,102130,,26.402216264444,,KNYC 300551Z AUTO VRB05KT 10SM CLR 09/M09 A3016 RMK AO2 SLP203 T00891094 10144 20089 50006 $,2022-04-30T05:51:00+00:00,,27,8.9,,,,-9.4,7.450127322571666,,102030,9.36,Clear
,16090,101730,10,72.145507882091,,KEWR 050851Z 01009KT 10SM FEW022 FEW033 OVC075 16/11 A3004 RMK AO2 SLP170 T01560106 51006,2022-05-05T08:51:00+00:00,,9,15.6,,,,10.6,,,101700,16.56,Cloudy
,8050,101520,0,83.220266513554,,KNYC 041822Z AUTO 00000KT 5SM HZ SCT012 OVC037 14/11 A2998 RMK AO2 T01390111 $,2022-05-04T18:22:00+00:00,,27,13.9,,,,11.1,,,,0,Haze
,16090,101930,190,54.98026300121,,KNYC 020151Z AUTO 19005KT 10SM FEW100 BKN110 14/05 A3010 RMK AO2 SLP183 T01390050 $,2022-05-02T01:51:00+00:00,,27,13.9,,,,5,,,101830,9.36,Mostly Cloudy
,8050,101590,,89.404510853386,,KNYC 041651Z AUTO VRB03KT 5SM BR OVC008 13/11 A3000 RMK AO2 SLP150 T01280111 $,2022-05-04T16:51:00+00:00,,27,12.8,,,,11.1,,,101500,5.4,Fog/Mist
0,16090,101560,0,86.482711038053,,,2022-05-06T11:51:00+00:00,,7,12.8,,0,,10.6,,,101550,0,Light Rain
,16090,101800,190,22.638646687514,,KLGA 302351Z 19007KT 10SM FEW250 14/M07 A3006 RMK AO2 SLP178 T01441067 10194 20144 53010,2022-04-30T23:51:00+00:00,,9,14.4,,,,-6.7,,,101780,12.96,Mostly Clear
,16090,101520,130,86.423356721086,,KJFK 061051Z 13006KT 10SM -RA FEW027 BKN080 OVC120 12/10 A2998 RMK AO2 RAB26 SLP152 P0000 T01220100,2022-05-06T10:51:00+00:00,,7,12.2,,0,,10,,,101520,11.16,Light Rain
,16090,101860,150,68.973277430726,,KEWR 020251Z 15004KT 10SM -RA SCT075 OVC120 14/08 A3008 RMK AO2 RAB0155 SLP186 P0000 60000 T01390083 51013,2022-05-02T02:51:00+00:00,,9,13.9,,0,0,8.3,,,101860,7.56,Light Rain
,16090,101970,360,53.755806654503,,KJFK 051351Z 36011KT 10SM FEW044 FEW085 FEW250 18/08 A3011 RMK AO2 SLP194 T01780083,2022-05-05T13:51:00+00:00,,7,17.8,,,,8.3,,,101940,20.52,Mostly Clear
,11270,101760,0,92.875368778185,,KNYC 040851Z AUTO 00000KT 7SM OVC006 10/09 A3005 RMK AO2 RAE10 CIG 006V010 SLP169 P0001 60003 T01000089 58017 $,2022-05-04T08:51:00+00:00,,27,10,,0,0,8.9,,,101690,0,Cloudy
,16090,101970,140,68.750377788705,,KLGA 040051Z 14009KT 10SM BKN022 BKN170 OVC250 13/07 A3011 RMK AO2 SLP196 T01280072 $,2022-05-04T00:51:00+00:00,,9,12.8,,,,7.2,,,101960,16.56,Cloudy
,16090,102170,60,59.870523930267,,KJFK 031651Z 06006KT 10SM FEW026 SCT210 BKN250 16/08 A3017 RMK AO2 SLP215 T01610083,2022-05-03T16:51:00+00:00,,7,16.1,,,,8.3,,,102150,11.16,Mostly Cloudy
,4020,101590,330,92.993524010865,,KJFK 041551Z 33005KT 2 1/2SM BR OVC005 12/11 A3000 RMK AO2 SFC VIS 6 RAB1456E29 SLP158 CIG 004V006 P0001 T01220111,2022-05-04T15:51:00+00:00,,7,12.2,,0,,11.1,,,101580,9.36,Fog/Mist
,16090,101360,240,70.302206007068,,KEWR 042351Z 24006KT 10SM FEW050 BKN085 BKN130 18/13 A2993 RMK AO2 SLP133 T01830128 10200 20156 53003,2022-05-04T23:51:00+00:00,,9,18.3,,,,12.8,,,101330,11.16,Mostly Cloudy
,16090,102100,40,69.322490896102,,KLGA 031151Z 04008G17KT 10SM FEW015 SCT250 13/08 A3015 RMK AO2 SLP209 70003 T01330078 10133 20100 53010,2022-05-03T11:51:00+00:00,,9,13.3,,,,7.8,,,102090,14.76,Partly Cloudy
,16090,101930,360,85.795186713907,,,2022-05-03T04:22:00+00:00,,3,11.7,,,,9.4,,,,7.56,Partly Cloudy
0,16090,,,,,KNYC 020551Z AUTO VRB03KT 10SM BKN043 OVC050 13/08 A3009 RMK AO2 SLP180 60000 T01330083 10144 20128 58005 $,2022-05-02T05:51:00+00:00,,27,,,,,,,,,,Cloudy
,16090,102130,60,66.902625351419,,KTEB 031351Z 06006KT 10SM BKN024 15/09 A3016 RMK AO2 SLP213 T01500089,2022-05-03T13:51:00+00:00,,3,15,,,,8.9,,,102130,11.16,Mostly Cloudy
,16090,101760,160,32.200103852806,,KTEB 012251Z 16008KT 10SM CLR 17/00 A3005 RMK AO2 SLP174 T01670000,2022-05-01T22:51:00+00:00,,3,16.7,,,,0,,,101740,14.76,Clear
,16090,101860,,10.715909131291,,KEWR 291551Z 31016G25KT 10SM FEW250 15/M16 A3008 RMK AO2 PK WND 29029/1535 SLP186 T01501156,2022-04-29T15:51:00+00:00,,9,15,,,,-15.6,,46.44,101860,,Mostly Clear
,2410,101800,130,96.688464288609,,KJFK 040714Z 13008KT 1 1/2SM OVC004 09/09 A3006 RMK AO2 SFC VIS 7 DZE13 P0000 T00940089,2022-05-04T07:14:00+00:00,,7,9.4,,0,,8.9,7.2183083629522224,,,14.76,Cloudy
0.01,11270,101800,40,82.880385175758,,KLGA 021151Z 04004KT 7SM -RA BKN012 OVC026 11/08 A3006 RMK AO2 SLP179 CB DSNT SE MOV E P0004 60032 70032 T01110083 10139 20111 53013,2022-05-02T11:51:00+00:00,,9,11.1,,0,,8.3,,,101790,7.56,Light Rain
,16090,101800,,19.816795033813,,KTEB 301751Z 31011KT 10SM CLR 17/M06 A3006 RMK AO2 SLP179 T01721061 10178 20089 58017,2022-04-30T17:51:00+00:00,,3,17.2,,,,-6.1,,,101790,,Clear
,6440,,,,,KTEB 041858Z 00000KT 4SM BR OVC011 14/12 A2993 RMK AO2 T01440117,2022-05-04T18:58:00+00:00,,3,,,,,,,,,,Fog/Mist
,16090,102000,120,79.654510078888,,KEWR 040251Z 12007KT 10SM OVC010 12/08 A3012 RMK AO2 SLP199 T01170083 56000,2022-05-04T02:51:00+00:00,,9,11.7,,,,8.3,,,101990,12.96,Cloudy
,16090,101830,130,26.529857543715,,KEWR 012051Z 13009G15KT 10SM FEW100 BKN180 BKN240 18/M02 A3007 RMK AO2 SLP183 T01781017 55009,2022-05-01T20:51:00+00:00,,9,17.8,,,,-1.7,,,101830,16.56,Mostly Cloudy
,16090,102070,120,76.993951308353,,KNYC 040151Z AUTO 12007KT 10SM OVC019 12/08 A3014 RMK AO2 SLP197 T01170078 $,2022-05-04T01:51:00+00:00,,27,11.7,,,,7.8,,,101970,12.96,Cloudy
,16090,101970,30,86.423356721086,,KNYC 030229Z AUTO 03003KT 10SM BKN013 OVC020 12/10 A3011 RMK AO2 T01220100 $,2022-05-03T02:29:00+00:00,,27,12.2,,,,10,,,,5.4,Cloudy
,16090,101760,190,25.767100762426,,KTEB 302351Z 19007KT 10SM CLR 14/M05 A3005 RMK AO2 SLP175 T01441050 10194 20144 53011,2022-04-30T23:51:00+00:00,,3,14.4,,,,-5,,,101750,12.96,Clear
,16090,101460,200,64.375172704717,,KLGA 061051Z 20003KT 10SM FEW060 SCT080 OVC100 16/09 A2996 RMK AO2 SLP146 T01560089,2022-05-06T10:51:00+00:00,,9,15.6,,,,8.9,,,101460,5.4,Cloudy
,12870,101520,90,85.795186713907,,KEWR 041135Z 09006KT 8SM -RA BKN012 BKN025 OVC100 12/09 A2998 RMK AO2 P0001 T01170094,2022-05-04T11:35:00+00:00,,9,11.7,,0,,9.4,,,,11.16,Light Rain
,4020,101760,50,92.966926628606,,KNYC 022033Z AUTO 05004KT 2 1/2SM BR OVC006 12/11 A3005 RMK AO2 RAB22E31 P0000 T01170106 $,2022-05-02T20:33:00+00:00,,27,11.7,,0,,10.6,,,,7.56,Fog/Mist
,16090,101860,170,23.56623107464,,KLGA 011951Z 17010KT 10SM BKN200 BKN260 18/M03 A3008 RMK AO2 SLP185 T01781033 $,2022-05-01T19:51:00+00:00,,9,17.8,,,,-3.3,,,101850,18.36,Mostly Cloudy
,16090,101930,170,32.631931202086,,,2022-05-01T01:51:00+00:00,,9,13.3,,,,-2.8,,,101920,7.56,
0,8050,101490,130,89.22963410269,,KTEB 041151Z 13005KT 5SM -RA BR OVC006 11/09 A2997 RMK AO2 RAB1057E09B29 SLP149 P0000 60009 70009 T01060089 10106 20100 58017,2022-05-04T11:51:00+00:00,,3,10.6,,0,,8.9,,,101490,9.36,Light Rain and Fog/Mist
,12870,,,,,KNYC 042051Z AUTO VRB04KT 8SM BKN110 17/12 A2994 RMK AO2 SLP129 T01720122 56015 $,2022-05-04T20:51:00+00:00,,27,,,,,,,,,,Mostly Cloudy
,16090,101900,150,66.434122377317,,KJFK 012251Z 15007KT 10SM FEW140 OVC210 13/07 A3009 RMK AO2 SLP187 T01280067,2022-05-01T22:51:00+00:00,,7,12.8,,,,6.7,,,101870,12.96,Cloudy
,12870,101560,60,85.795186713907,,KEWR 041051Z 06005KT 8SM -RA FEW007 SCT013 OVC028 12/09 A2999 RMK AO2 SLP156 P0000 T01170094,2022-05-04T10:51:00+00:00,,9,11.7,,0,,9.4,,,101560,9.36,Light Rain
,16090,101660,10,72.346821714672,,KEWR 050532Z 01007KT 10SM SCT020 BKN032 BKN055 17/12 A3002 RMK AO2 T01670117,2022-05-05T05:32:00+00:00,,9,16.7,,,,11.7,,,,12.96,Mostly Cloudy
,16090,101970,340,22.472375396397,,KTEB 300251Z 34012G19KT 10SM CLR 11/M10 A3011 RMK AO2 SLP194 T01061100 51028,2022-04-30T02:51:00+00:00,,3,10.6,,,,-10,,,101940,22.32,Clear
,16090,101730,190,68.973277430726,,KJFK 052351Z 19012KT 10SM FEW060 BKN230 14/08 A3004 RMK AO2 SLP172 T01390083 10189 20139 50002,2022-05-05T23:51:00+00:00,,7,13.9,,,,8.3,,,101720,22.32,Mostly Cloudy
,16090,101800,20,71.830365829443,,KLGA 051051Z 02006KT 10SM SCT049 SCT250 14/09 A3006 RMK AO2 SLP178 T01390089,2022-05-05T10:51:00+00:00,,9,13.9,,,,8.9,,,101780,11.16,Partly Cloudy
,16090,102070,60,47.87506114616,,KLGA 011151Z 06005KT 10SM FEW190 FEW250 11/00 A3014 RMK AO2 SLP206 T01060000 10106 20089 53011,2022-05-01T11:51:00+00:00,,9,10.6,,,,0,,,102060,9.36,Mostly Clear
,16090,101630,170,35.217081569395,21.395112685423335,KTEB 051951Z 17007KT 10SM CLR 22/06 A3001 RMK AO2 SLP162 T02220061,2022-05-05T19:51:00+00:00,,3,22.2,,,,6.1,,,101620,12.96,Clear
,16090,101590,,9.1309155705867,,KEWR 291951Z 31016G23KT 10SM FEW250 18/M15 A3000 RMK AO2 PK WND 29029/1902 SLP159 T01831150,2022-04-29T19:51:00+00:00,,9,18.3,,,,-15,,42.48,101590,,Mostly Clear
,16090,101860,50,89.317597936371,,KTEB 030151Z 05005KT 10SM OVC007 12/10 A3008 RMK AO2 SLP184 T01170100,2022-05-03T01:51:00+00:00,,3,11.7,,,,10,,,101840,9.36,Cloudy
,16090,102130,110,71.717959085678,,KJFK 032051Z 11015KT 10SM FEW034 BKN180 OVC250 13/08 A3016 RMK AO2 SLP212 T01330083 58004,2022-05-03T20:51:00+00:00,,7,13.3,,,,8.3,,,102120,27.72,Cloudy
,16090,102000,320,32.624489119442,,KLGA 300851Z 32007KT 10SM CLR 08/M07 A3012 RMK AO2 SLP199 T00831072 56001,2022-04-30T08:51:00+00:00,,9,8.3,,,,-7.2,6.120070266766667,,101990,12.96,Clear
,16090,,,,,KNYC 051051Z AUTO VRB03KT 10SM CLR 14/09 A3009 RMK AO2 SLP182 T01390094 $,2022-05-05T10:51:00+00:00,,27,,,,,,,,,,Clear
,16090,102130,140,61.814618307198,,KEWR 031951Z 14009KT 10SM FEW023 BKN170 OVC250 16/08 A3016 RMK AO2 SLP212 T01560083,2022-05-03T19:51:00+00:00,,9,15.6,,,,8.3,,,102120,16.56,Cloudy
,16090,101660,170,32.944736131239,22.545779221204445,KEWR 051951Z 17007KT 10SM FEW060 BKN250 23/06 A3002 RMK AO2 SLP165 T02330061,2022-05-05T19:51:00+00:00,,9,23.3,,,,6.1,,,101650,12.96,Mostly Cloudy
,6440,101560,50,89.22963410269,,KLGA 041351Z 05009KT 4SM -RA BR BKN007 OVC010 11/09 A2999 RMK AO2 DZE05RAB05 SLP155 P0002 T01060089,2022-05-04T13:51:00+00:00,,9,10.6,,0,,8.9,,,101550,16.56,Light Rain and Fog/Mist
,16090,102100,20,77.246795999401,,KEWR 031151Z 02009KT 10SM FEW015 SCT220 13/09 A3015 RMK AO2 SLP210 70002 T01330094 10133 20106 53009,2022-05-03T11:51:00+00:00,,9,13.3,,,,9.4,,,102100,16.56,Partly Cloudy
,16090,101930,190,58.518037708605,,KLGA 010551Z 19006KT 10SM CLR 11/03 A3010 RMK AO2 SLP191 T01060028 10144 20100 50000,2022-05-01T05:51:00+00:00,,9,10.6,,,,2.8,,,101910,11.16,Clear
,16090,,,,,KEWR 020558Z 11005KT 10SM OVC027 14/07 A3006 RMK AO2 T01390067,2022-05-02T05:58:00+00:00,,9,,,,,,,,,,Cloudy
,16090,101970,120,73.905075949333,,KLGA 040251Z 12010KT 10SM OVC015 12/07 A3011 RMK AO2 SLP197 T01170072 55002 $,2022-05-04T02:51:00+00:00,,9,11.7,,,,7.2,,,101970,18.36,Cloudy
,16090,101560,0,83.087914090164,,KJFK 060551Z 00000KT 10SM OVC150 13/10 A2999 RMK AO2 SLP155 T01280100 10139 20122 58017,2022-05-06T05:51:00+00:00,,7,12.8,,,,10,,,101550,0,Cloudy
,16090,101630,330,10.83491163881,,KJFK 291751Z 33022G29KT 10SM FEW250 16/M15 A3001 RMK AO2 PK WND 32032/1704 SLP163 T01561150 10161 20072 58026,2022-04-29T17:51:00+00:00,,7,15.6,,,,-15,,53.64,101630,40.68,Mostly Clear and Windy
,16090,101900,110,45.291906152098,,KEWR 051551Z 11007KT 10SM FEW045 BKN250 20/08 A3009 RMK AO2 SLP188 T02000078,2022-05-05T15:51:00+00:00,,9,20,,,,7.8,,,101880,12.96,Mostly Cloudy
,16090,101800,60,89.269748995158,,KLGA 030017Z 06008KT 10SM OVC008 11/09 A3006 RMK AO2 DZE13 P0000 T01110094,2022-05-03T00:17:00+00:00,,9,11.1,,0,,9.4,,,,14.76,Cloudy
,16090,,,,,KNYC 031320Z AUTO 06007KT 10SM BKN021 14/08 A3020 RMK AO2 T01440083 $,2022-05-03T13:20:00+00:00,,27,,,,,,,,,,Mostly Cloudy
0,4830,101630,70,92.993524010865,,KTEB 021751Z 07006KT 3SM BR OVC007 12/11 A3001 RMK AO2 DZE47 CIG 005V010 SLP162 P0000 60001 T01220111 10128 20106 58009,2022-05-02T17:51:00+00:00,,3,12.2,,0,,11.1,,,101620,11.16,Fog/Mist
,16090,102100,40,33.065502601487,,KLGA 011451Z 04007KT 10SM FEW170 SCT200 BKN250 16/M01 A3015 RMK AO2 SLP208 T01561006 53002,2022-05-01T14:51:00+00:00,,9,15.6,,,,-0.6,,,102080,12.96,Mostly Cloudy
,16090,101800,,77.246795999401,,KNYC 050951Z AUTO VRB03KT 10SM SCT046 13/09 A3006 RMK AO2 SLP171 T01330094 $,2022-05-05T09:51:00+00:00,,27,13.3,,,,9.4,,,101710,5.4,Partly Cloudy
,16090,102070,20,77.168206621341,,KLGA 031051Z 02007KT 340V050 10SM FEW015 FEW150 13/09 A3014 RMK AO2 SLP205 T01280089,2022-05-03T10:51:00+00:00,,9,12.8,,,,8.9,,,102050,12.96,Mostly Clear
,16090,102200,60,55.702676684135,,KNYC 031851Z AUTO 06008KT 10SM CLR 17/08 A3018 RMK AO2 SLP212 T01670078 $,2022-05-03T18:51:00+00:00,,27,16.7,,,,7.8,,,102120,14.76,Clear
,16090,,,,,KNYC 030024Z AUTO VRB03KT 10SM BKN011 OVC018 12/11 A3009 RMK AO2 T01220106 $,2022-05-03T00:24:00+00:00,,27,,,,,,,,,,Cloudy
,11270,101520,60,83.831702542696,,KEWR 061251Z 06004KT 7SM -RA FEW015 SCT029 OVC036 14/12 A2998 RMK AO2 SLP152 P0012 T01440117,2022-05-06T12:51:00+00:00,,9,14.4,,0,,11.7,,,101520,7.56,Light Rain
,16090,102100,110,76.993951308353,,KJFK 032251Z 11010KT 10SM SCT025 SCT170 BKN250 12/08 A3015 RMK AO2 SLP209 T01170078,2022-05-03T22:51:00+00:00,,7,11.7,,,,7.8,,,102090,18.36,Mostly Cloudy
,16090,102100,0,29.581818251743,,KNYC 300751Z AUTO 00000KT 10SM CLR 08/M09 A3015 RMK AO2 SLP202 T00781089 $,2022-04-30T07:51:00+00:00,,27,7.8,,,,-8.9,,,102020,0,Clear
,16090,,,,,KEWR 040332Z 13007KT 10SM OVC009 11/08 A3012 RMK AO2 T01110083,2022-05-04T03:32:00+00:00,,9,,,,,,,,,,Cloudy
,16090,102070,350,29.581818251743,,KEWR 300951Z 35005KT 10SM FEW250 08/M09 A3014 RMK AO2 SLP206 T00781089,2022-04-30T09:51:00+00:00,,9,7.8,,,,-8.9,6.143217519116111,,102060,9.36,Mostly Clear
,16090,101970,340,92.285708289197,,,2022-05-03T04:33:00+00:00,,7,10.6,,,,9.4,,,,9.36,Mostly Cloudy
,16090,102100,,28.77083553879,,KNYC 300651Z AUTO VRB03KT 10SM CLR 09/M08 A3015 RMK AO2 SLP200 T00891083 $,2022-04-30T06:51:00+00:00,,27,8.9,,,,-8.3,8.394346188881666,,102000,5.4,Clear
,16090,101830,70,92.993524010865,,KJFK 021251Z 07005KT 10SM -RA SCT012 BKN023 OVC070 12/11 A3007 RMK AO2 SLP182 P0001 T01220111,2022-05-02T12:51:00+00:00,,7,12.2,,0,,11.1,,,101820,9.36,Light Rain
,16090,102130,320,24.833129339154,,KEWR 301151Z 32008KT 10SM CLR 11/M08 A3016 RMK AO2 SLP212 T01111083 10111 20072 51008,2022-04-30T11:51:00+00:00,,9,11.1,,,,-8.3,,,102120,14.76,Clear
,16090,101830,300,16.433600682517,,KJFK 291551Z 30019G29KT 10SM FEW250 13/M12 A3007 RMK AO2 PK WND 32031/1541 SLP183 T01331117,2022-04-29T15:51:00+00:00,,7,13.3,,,,-11.7,,53.64,101830,35.28,Mostly Clear and Windy
,16090,101520,330,12.059054277702,,KLGA 291951Z 33016G23KT 10SM CLR 16/M13 A2998 RMK AO2 PK WND 31026/1928 SLP153 T01611133,2022-04-29T19:51:00+00:00,,9,16.1,,,,-13.3,,42.48,101530,29.52,Clear
,16090,102070,,,,KNYC 011651Z AUTO VRB03KT 10SM CLR 19/M06 A3014 RMK AO2 SLP198 T01941056 $,2022-05-01T16:51:00+00:00,,27,19.4,,,,,,,101980,5.4,Clear
,16090,101690,90,66.434122377317,,KTEB 020751Z 09003KT 10SM BKN022 OVC027 13/07 A3003 RMK AO2 SLP167 T01280067,2022-05-02T07:51:00+00:00,,3,12.8,,,,6.7,,,101670,5.4,Cloudy
0,3220,101760,70,92.993524010865,,KNYC 021751Z AUTO 07005KT 2SM BR OVC004 12/11 A3005 RMK AO2 SLP166 P0001 60001 T01220111 10128 20111 58004 $,2022-05-02T17:51:00+00:00,,27,12.2,,0,,11.1,,,101660,9.36,Fog/Mist
,16090,101730,190,40.570677165318,,KTEB 020051Z 19005KT 10SM OVC100 15/02 A3004 RMK AO2 SLP171 T01500017,2022-05-02T00:51:00+00:00,,3,15,,,,1.7,,,101710,9.36,Cloudy
,16090,101800,130,86.202442841334,,KLGA 040651Z 13007KT 10SM -DZ BKN006 OVC010 10/08 A3006 RMK AO2 SLP177 P0000 T01000078 $,2022-05-04T06:51:00+00:00,,9,10,,0,,7.8,,,101770,12.96,Light Drizzle
,12870,101560,180,86.531884394108,,KEWR 041551Z 18003KT 8SM OVC007 13/11 A2999 RMK AO2 SLP156 T01330111,2022-05-04T15:51:00+00:00,,9,13.3,,,,11.1,,,101560,5.4,Cloudy
,16090,101660,160,47.009959433284,,KEWR 052351Z 16007KT 10SM FEW060 SCT160 BKN220 BKN260 19/08 A3002 RMK AO2 SLP166 T01940078 10239 20194 50006,2022-05-05T23:51:00+00:00,,9,19.4,,,,7.8,,,101660,12.96,Mostly Cloudy
,16090,101800,330,14.445351477256,,KJFK 300051Z 33015KT 10SM FEW250 13/M13 A3006 RMK AO2 SLP179 T01331133,2022-04-30T00:51:00+00:00,,7,13.3,,,,-13.3,,,101790,27.72,Mostly Clear
,16090,101830,130,52.429827732781,,KJFK 012351Z 13009KT 10SM SCT120 OVC200 13/03 A3007 RMK AO2 SLP181 T01280033 10172 20128 58011,2022-05-01T23:51:00+00:00,,7,12.8,,,,3.3,,,101810,16.56,Cloudy
,2010,,,,,KNYC 021014Z AUTO VRB03G15KT 1 1/4SM +RA BR SCT018 OVC042 11/09 A3005 RMK AO2 RAB0955 P0018 T01060094 $,2022-05-02T10:14:00+00:00,,27,,,0,,,,,,,Heavy Rain and Fog/Mist
,16090,102030,330,25.527897444249,,KEWR 300651Z 33008KT 10SM CLR 09/M09 A3013 RMK AO2 SLP202 T00941094,2022-04-30T06:51:00+00:00,,9,9.4,,,,-9.4,7.2183083629522224,,102020,14.76,Clear
,16090,101970,360,62.603057577541,,KEWR 051251Z 36011KT 10SM FEW025 SCT080 17/10 A3011 RMK AO2 SLP196 T01720100,2022-05-05T12:51:00+00:00,,9,17.2,,,,10,,,101960,20.52,Partly Cloudy
,16090,101830,100,64.545340236686,,KEWR 020451Z 10005KT 10SM BKN060 OVC100 14/08 A3007 RMK AO2 SLP183 T01440078 402060061,2022-05-02T04:51:00+00:00,,9,14.4,,,,7.8,,,101830,9.36,Cloudy
,12870,101760,0,96.107794274811,,KJFK 021128Z 00000KT 8SM -RA BKN011 BKN029 OVC090 12/11 A3005 RMK AO2 PK WND 13026/1053 WSHFT 1039 LTG DSNT S P0010 T01170111,2022-05-02T11:28:00+00:00,,7,11.7,,0,,11.1,,,,0,Light Rain
,11270,101390,70,79.811182429167,,KLGA 041851Z 07004KT 7SM FEW017 OVC040 13/09 A2994 RMK AO2 SLP139 T01280094 $,2022-05-04T18:51:00+00:00,,9,12.8,,,,9.4,,,101390,7.56,Cloudy
,16090,101970,350,92.285708289197,,KJFK 030551Z 35006KT 10SM BKN014 11/09 A3011 RMK AO2 SLP195 T01060094 10111 20100 50007,2022-05-03T05:51:00+00:00,,7,10.6,,,,9.4,,,101950,11.16,Mostly Cloudy
,16090,102100,120,24.459086773046,,KEWR 011451Z 12005KT 10SM FEW200 BKN250 18/M03 A3015 RMK AO2 SLP208 T01781028 53003,2022-05-01T14:51:00+00:00,,9,17.8,,,,-2.8,,,102080,9.36,Mostly Cloudy
,16090,101630,330,11.260304301039,,KLGA 291751Z 33015G24KT 10SM FEW250 15/M15 A3001 RMK AO2 PK WND 32030/1658 SLP163 T01501150 10150 20067 58025,2022-04-29T17:51:00+00:00,,9,15,,,,-15,,44.64,101630,27.72,Mostly Clear
,16090,101930,110,71.717959085678,,KNYC 020451Z AUTO 11003KT 10SM OVC055 13/08 A3010 RMK AO2 RAE0356 SLP185 P0000 T01330083 402060083 $,2022-05-02T04:51:00+00:00,,27,13.3,,0,,8.3,,,101850,5.4,Cloudy
,16090,102100,330,21.737962986369,,KEWR 300451Z 33011KT 10SM CLR 11/M10 A3015 RMK AO2 SLP207 T01111100 401890056,2022-04-30T04:51:00+00:00,,9,11.1,,,,-10,,,102070,20.52,Clear
,16090,101930,10,85.795186713907,,KTEB 030451Z 01005KT 10SM SCT014 12/09 A3010 RMK AO2 SLP191 T01170094 401280106,2022-05-03T04:51:00+00:00,,3,11.7,,,,9.4,,,101910,9.36,Partly Cloudy
,16090,102030,,82.954048467221,,KNYC 030643Z AUTO VRB03KT 10SM OVC013 12/09 A3013 RMK AO2 T01170089 $,2022-05-03T06:43:00+00:00,,27,11.7,,,,8.9,,,,5.4,Cloudy
,3220,,,,,KJFK 021028Z 31016KT 2SM TSRA BR OVC011CB 11/09 A3007 RMK AO2 TWR VIS 3 LTG DSNT S AND SW RAE14B16 TSB15 OCNL LTGICCG OHD AND SW-NW TS OHD AND SW-NW MOV E P0000 T01110094,2022-05-02T10:28:00+00:00,,7,,,0,,,,,,,Thunderstorms and Rain and Fog/Mist
,16090,102030,120,89.181204957654,,KJFK 040251Z 12010KT 10SM OVC008 10/08 A3013 RMK AO2 SLP203 T01000083 58001,2022-05-04T02:51:00+00:00,,7,10,,,,8.3,,,102030,18.36,Cloudy
,16090,102070,140,69.322490896102,,KEWR 032251Z 14010KT 10SM FEW018 BKN150 OVC250 13/08 A3014 RMK AO2 SLP205 T01330078,2022-05-03T22:51:00+00:00,,9,13.3,,,,7.8,,,102050,18.36,Cloudy
,16090,101690,330,8.3087265108935,,KEWR 292351Z 33016G24KT 10SM CLR 16/M18 A3003 RMK AO2 PK WND 33030/2321 SLP170 T01611178 10189 20161 53011,2022-04-29T23:51:00+00:00,,9,16.1,,,,-17.8,,,101700,29.52,Clear
,16090,101930,60,74.00710179304,,KLGA 010751Z 06004KT 10SM CLR 09/05 A3010 RMK AO2 SLP192 T00940050,2022-05-01T07:51:00+00:00,,9,9.4,,,,5,8.41118436073,,101920,7.56,Clear
,16090,102130,60,71.62381165163,,KLGA 031251Z 06010KT 10SM SCT019 SCT250 13/08 A3016 RMK AO2 SLP214 T01280078,2022-05-03T12:51:00+00:00,,9,12.8,,,,7.8,,,102140,18.36,Partly Cloudy
,16090,101900,,56.109021888029,,KTEB 051451Z VRB04KT 10SM SCT036 18/09 A3009 RMK AO2 SLP188 T01830094 50004,2022-05-05T14:51:00+00:00,,3,18.3,,,,9.4,,,101880,7.56,Partly Cloudy
,16090,102070,350,24.174355909253,,KJFK 301351Z 35010KT 10SM CLR 13/M07 A3014 RMK AO2 SLP207 T01281072,2022-04-30T13:51:00+00:00,,7,12.8,,,,-7.2,,,102070,18.36,Clear
,3220,,,,,KEWR 022008Z 36005KT 2SM -DZ BR OVC007 14/12 A3002 RMK AO2 DZB00 P0000 T01390117 $,2022-05-02T20:08:00+00:00,,9,,,0,,,,,,,Light Drizzle and Fog/Mist
,16090,101830,160,66.304797658581,,KJFK 020051Z 16008KT 10SM FEW080 BKN110 12/06 A3007 RMK AO2 SLP181 T01220061,2022-05-02T00:51:00+00:00,,7,12.2,,,,6.1,,,101810,14.76,Mostly Cloudy
,16090,101730,190,79.811182429167,,KJFK 060151Z 19006KT 10SM BKN210 OVC250 13/09 A3004 RMK AO2 SLP171 T01280094,2022-05-06T01:51:00+00:00,,7,12.8,,,,9.4,,,101710,11.16,Cloudy
,16090,101660,360,69.530934577901,,KEWR 050551Z 36012KT 10SM FEW020 BKN033 BKN060 17/11 A3002 RMK AO2 SLP164 T01670111 10183 20167 50009,2022-05-05T05:51:00+00:00,,9,16.7,,,,11.1,,,101640,22.32,Mostly Cloudy
,1610,101630,130,74.499044679056,,KLGA 021023Z 13017KT 1SM R04/4500VP6000FT TSRA BR SCT015CB OVC021 12/08 A3001 RMK AO2 LTG DSNT S RAB08 TSB13 PRESFR FRQ LTGICCG OHD TS OHD MOV E P0020 T01220078 $,2022-05-02T10:23:00+00:00,,9,12.2,,0.01,,7.8,,,,31.68,Thunderstorms and Rain and Fog/Mist
,9660,101460,50,83.703963952178,,KLGA 061351Z 05009KT 6SM -RA FEW020 SCT035 OVC060 13/11 A2996 RMK AO2 SLP146 P0001 T01330106,2022-05-06T13:51:00+00:00,,9,13.3,,0,,10.6,,,101460,16.56,Light Rain
,16090,101760,170,27.865323005657,,KTEB 012051Z 17011KT 10SM CLR 18/M01 A3005 RMK AO2 SLP176 T01831006 56012,2022-05-01T20:51:00+00:00,,3,18.3,,,,-0.6,,,101760,20.52,Clear
,16090,101970,50,54.250951590895,,KEWR 051351Z 05007KT 10SM FEW029 FEW080 18/09 A3011 RMK AO2 SLP194 T01830089,2022-05-05T13:51:00+00:00,,9,18.3,,,,8.9,,,101940,12.96,Mostly Clear
,16090,102130,300,32.293550274726,,KNYC 300951Z AUTO 30003KT 10SM CLR 07/M08 A3016 RMK AO2 SLP206 T00721083 $,2022-04-30T09:51:00+00:00,,27,7.2,,,,-8.3,6.455723814993889,,102060,5.4,Clear
,16090,101800,330,43.644037289993,,,2022-05-05T16:51:00+00:00,,3,20.6,,,,7.8,,,101790,11.16,
,16090,102000,220,79.084822103185,,KJFK 010351Z 22005KT 10SM FEW250 08/04 A3012 RMK AO2 SLP198 T00780044,2022-05-01T03:51:00+00:00,,7,7.8,,,,4.4,6.143217519116111,,101980,9.36,Mostly Clear
,8050,,,,,KNYC 061351Z AUTO 03004KT 5SM -RA BR OVC055 13/12 A2999 RMK AO2 SLP147 P0002 T01330122 $,2022-05-06T13:51:00+00:00,,27,,,0,,,,,,,Light Rain and Fog/Mist
0,8050,101860,0,92.966926628606,,KNYC 022351Z AUTO 00000KT 5SM BR OVC006 12/11 A3008 RMK AO2 CIG 005V009 SLP178 60000 T01170106 10122 20117 53009 $,2022-05-02T23:51:00+00:00,,27,11.7,,,,10.6,,,101780,0,Fog/Mist
,16090,101460,0,71.830365829443,,KTEB 060951Z 00000KT 10SM BKN120 14/09 A2996 RMK AO2 SLP144 T01390089,2022-05-06T09:51:00+00:00,,3,13.9,,,,8.9,,,101440,0,Mostly Cloudy
,16090,102000,210,63.101629529279,,,2022-05-01T01:51:00+00:00,,7,10,,,,3.3,,,101980,18.36,
,12870,101690,30,83.831702542696,,KEWR 022251Z 03006KT 8SM BKN006 OVC010 14/12 A3003 RMK AO2 SLP169 T01440117 $,2022-05-02T22:51:00+00:00,,9,14.4,,,,11.7,,,101690,11.16,Cloudy
,16090,101800,,9.5808701150723,,KEWR 291651Z 32018G30KT 10SM FEW250 16/M16 A3006 RMK AO2 PK WND 33030/1643 SLP179 T01611161,2022-04-29T16:51:00+00:00,,9,16.1,,,,-16.1,,55.44,101790,,Mostly Clear
,16090,101690,220,48.02964410285,,KLGA 060351Z 22006KT 10SM BKN190 BKN250 17/06 A3003 RMK AO2 SLP167 T01720061,2022-05-06T03:51:00+00:00,,9,17.2,,,,6.1,,,101670,11.16,Mostly Cloudy
,16090,101690,350,12.295918960441,,KJFK 292351Z 35016KT 10SM CLR 14/M14 A3003 RMK AO2 PK WND 35026/2323 SLP167 T01441144 10172 20144 53013,2022-04-29T23:51:00+00:00,,7,14.4,,,,-14.4,,,101670,29.52,Clear
,16090,102100,,63.994810864366,,KLGA 032051Z 05013KT 10SM SCT027 BKN170 BKN250 14/07 A3015 RMK AO2 SLP210 T01390072 56005 $,2022-05-03T20:51:00+00:00,,9,13.9,,,,7.2,,,102100,,Mostly Cloudy
,2010,101830,80,92.993524010865,,KNYC 021534Z AUTO 08006KT 1 1/4SM BR OVC008 12/11 A3007 RMK AO2 T01220111 $,2022-05-02T15:34:00+00:00,,27,12.2,,,,11.1,,,,11.16,Fog/Mist
,16090,101800,350,15.541625558016,,KTEB 300051Z 35010G16KT 10SM CLR 13/M13 A3006 RMK AO2 SLP179 T01281128,2022-04-30T00:51:00+00:00,,3,12.8,,,,-12.8,,,101790,18.36,Clear
,8050,101730,110,86.202442841334,,KLGA 040851Z 11006KT 5SM -RA BR BKN006 OVC011 10/08 A3004 RMK AO2 SLP171 P0006 60007 T01000078 58015 $,2022-05-04T08:51:00+00:00,,9,10,,0,0,7.8,,,101710,11.16,Light Rain and Fog/Mist
,16090,102130,180,49.10834796698,,KJFK 011551Z 18009KT 10SM BKN250 15/04 A3016 RMK AO2 SLP211 T01500044,2022-05-01T15:51:00+00:00,,7,15,,,,4.4,,,102110,16.56,Mostly Cloudy
,16090,102170,,82.880385175758,,KNYC 031044Z AUTO VRB04KT 10SM SCT014 11/08 A3017 RMK AO2 T01110083 $,2022-05-03T10:44:00+00:00,,27,11.1,,,,8.3,,,,7.56,Partly Cloudy
,16090,101560,80,31.463624188018,21.957105742687222,KTEB 052051Z 08007G16KT 10SM CLR 23/05 A2999 RMK AO2 PK WND 14027/2016 SLP156 T02280050 58019,2022-05-05T20:51:00+00:00,,3,22.8,,,,5,,,101560,12.96,Clear
,16090,101800,0,77.168206621341,,KTEB 020451Z 00000KT 10SM -RA OVC055 13/09 A3006 RMK AO2 SLP180 P0000 T01280089 402170056,2022-05-02T04:51:00+00:00,,3,12.8,,0,,8.9,,,101800,0,Light Rain
,16090,101690,360,72.237265552403,,KEWR 050751Z 36010KT 10SM FEW020 SCT035 OVC065 16/11 A3003 RMK AO2 SLP168 T01610111,2022-05-05T07:51:00+00:00,,9,16.1,,,,11.1,,,101680,18.36,Cloudy
,16090,,,,,KNYC 010751Z AUTO 00000KT 10SM CLR 09/03 A3012 RMK AO2 SLP192 T00890028 $,2022-05-01T07:51:00+00:00,,27,,,,,,,,,,Clear
,16090,101970,,69.541791158165,,KNYC 051151Z AUTO 10SM CLR 14/09 A3011 RMK AO2 SLP186 70003 T01440089 10150 20133 53016 $,2022-05-05T11:51:00+00:00,,27,14.4,,,,8.9,,,101860,,Clear
,16090,101830,300,37.177742788592,,,2022-05-05T16:51:00+00:00,,9,19.4,,,,4.4,,,101830,11.16,
,16090,101830,360,69.194009692531,,KJFK 051151Z 36014KT 10SM FEW049 FEW085 SCT250 15/09 A3007 RMK AO2 SLP184 70002 T01500094 10150 20128 51015,2022-05-05T11:51:00+00:00,,7,15,,,,9.4,,,101840,25.92,Partly Cloudy
,11270,101630,,79.654510078888,,KTEB 021002Z 28012KT 7SM TSRA OVC022 12/08 A3001 RMK AO2 LTG DSNT S AND SW RAB0955 TSB0956 TS FRQ LTG CGICCCCA P0001 T01170083,2022-05-02T10:02:00+00:00,,3,11.7,,0,,8.3,,,,,Thunderstorms and Rain
,16090,102030,110,89.181204957654,,KJFK 040231Z 11009KT 10SM OVC009 10/08 A3013 RMK AO2 T01000083,2022-05-04T02:31:00+00:00,,7,10,,,,8.3,,,,16.56,Cloudy
,16090,101830,190,48.18654073806,,KJFK 302251Z 19015KT 10SM FEW250 12/01 A3007 RMK AO2 SLP180 T01170011,2022-04-30T22:51:00+00:00,,7,11.7,,,,1.1,,,101800,27.72,Mostly Clear
,16090,101970,40,89.317597936371,,KNYC 030151Z AUTO 04005KT 10SM OVC021 12/10 A3011 RMK AO2 SLP187 T01170100 $,2022-05-03T01:51:00+00:00,,27,11.7,,,,10,,,101870,9.36,Cloudy
,16090,101900,,23.701901759228,,KNYC 302351Z AUTO VRB03KT 10SM CLR 14/M06 A3009 RMK AO2 SLP181 T01441061 10200 20144 53011 $,2022-04-30T23:51:00+00:00,,27,14.4,,,,-6.1,,,101810,5.4,Clear
,16090,101930,170,54.98026300121,,KJFK 012151Z 17009KT 10SM FEW140 SCT200 OVC220 14/05 A3010 RMK AO2 SLP194 T01390050,2022-05-01T21:51:00+00:00,,7,13.9,,,,5,,,101940,16.56,Cloudy
,3220,101730,70,89.954432820851,,KTEB 021551Z 07004KT 2SM R06/3500VP6000FT BR OVC008 12/11 A3004 RMK AO2 SLP172 T01220106,2022-05-02T15:51:00+00:00,,3,12.2,,,,10.6,,,101720,7.56,Fog/Mist
,16090,102100,130,59.870523930267,,KTEB 031851Z 13008G16KT 10SM CLR 16/08 A3015 RMK AO2 SLP208 T01610083,2022-05-03T18:51:00+00:00,,3,16.1,,,,8.3,,,102080,14.76,Clear
,16090,101590,300,8.6023533398105,,KEWR 292151Z 30014G25KT 10SM CLR 18/M16 A3000 RMK AO2 PK WND 31032/2100 SLP160 T01781161,2022-04-29T21:51:00+00:00,,9,17.8,,,,-16.1,,46.44,101600,25.92,Clear
,16090,102000,330,89.269748995158,,KJFK 030451Z 33007KT 10SM BKN011 11/09 A3012 RMK AO2 SLP197 T01110094 401280100,2022-05-03T04:51:00+00:00,,7,11.1,,,,9.4,,,101970,12.96,Mostly Cloudy
,16090,101830,50,89.269748995158,,KLGA 030051Z 05006KT 10SM OVC008 11/09 A3007 RMK AO2 DZE13 SLP182 P0000 T01110094,2022-05-03T00:51:00+00:00,,9,11.1,,0,,9.4,,,101820,11.16,Cloudy
,1610,,,,,KNYC 021551Z AUTO 06006KT 1SM -RA BR OVC006 12/11 A3007 RMK AO2 RAB35 SLP173 P0000 T01220111 $,2022-05-02T15:51:00+00:00,,27,,,0,,,,,,,Light Rain and Fog/Mist
,16090,101630,0,61.814618307198,,KNYC 060651Z AUTO 00000KT 10SM CLR 16/08 A3001 RMK AO2 SLP153 T01560083 $,2022-05-06T06:51:00+00:00,,27,15.6,,,,8.3,,,101530,0,Clear
,16090,101860,150,66.669484989857,,KEWR 020151Z 15004KT 10SM FEW070 BKN110 OVC180 14/08 A3008 RMK AO2 SLP184 T01390078,2022-05-02T01:51:00+00:00,,9,13.9,,,,7.8,,,101840,7.56,Cloudy
,9660,101970,140,82.818647556175,,KLGA 040351Z 14006KT 6SM -DZ OVC008 11/08 A3011 RMK AO2 DZB45 SLP196 P0000 T01060078 $,2022-05-04T03:51:00+00:00,,9,10.6,,0,,7.8,,,101960,11.16,Light Drizzle
0,16090,101800,140,71.62381165163,,KLGA 020551Z 14005KT 10SM BKN060 OVC100 13/08 A3006 RMK AO2 SLP180 60000 T01280078 10161 20122 58004 $,2022-05-02T05:51:00+00:00,,9,12.8,,,,7.8,,,101800,9.36,Cloudy
,16090,101760,180,50.173525935185,,KJFK 051951Z 18009KT 10SM FEW055 FEW210 BKN250 19/08 A3005 RMK AO2 SLP175 T01890083,2022-05-05T19:51:00+00:00,,7,18.9,,,,8.3,,,101750,16.56,Mostly Cloudy
,16090,101590,0,74.8764630203,,,2022-05-06T10:51:00+00:00,,27,14.4,,,,10,,,101480,0,Cloudy
,16090,102170,40,59.604608806527,,KLGA 031751Z 04012KT 10SM FEW023 BKN250 15/07 A3017 RMK AO2 SLP215 T01500072 10156 20122 55003 $,2022-05-03T17:51:00+00:00,,9,15,,,,7.2,,,102150,22.32,Mostly Cloudy
,16090,101860,120,64.545340236686,,,2022-05-02T03:51:00+00:00,,9,14.4,,0,,7.8,,,101840,7.56,
,16090,102000,,85.795186713907,,,2022-05-03T03:51:00+00:00,,27,11.7,,,,9.4,,,101900,5.4,Mostly Clear
,4020,,,,,KEWR 021514Z 07004KT 2 1/2SM -DZ OVC008 14/11 A3004 RMK AO2 RAB07E14DZB14 P0000 T01390111 $,2022-05-02T15:14:00+00:00,,9,,,0,,,,,,,Light Drizzle
,16090,102130,40,68.750377788705,,KLGA 032151Z 04010KT 10SM BKN025 BKN170 OVC250 13/07 A3016 RMK AO2 SLP211 T01280072 $,2022-05-03T21:51:00+00:00,,9,12.8,,,,7.2,,,102110,18.36,Cloudy
,16090,102030,330,25.672111279549,,KLGA 300451Z 33012KT 10SM CLR 11/M08 A3013 RMK AO2 SLP203 T01061083 401670056,2022-04-30T04:51:00+00:00,,9,10.6,,,,-8.3,,,102030,22.32,Clear
0,11270,101860,100,89.22963410269,,KEWR 040551Z 10005KT 7SM -DZ BKN006 OVC012 11/09 A3008 RMK AO2 SLP186 P0000 60000 T01060089 10128 20106 56013,2022-05-04T05:51:00+00:00,,9,10.6,,0,,8.9,,,101860,9.36,Light Drizzle
,16090,101970,40,67.942265381454,,KLGA 010951Z 04003KT 10SM FEW180 FEW250 09/03 A3011 RMK AO2 SLP196 T00890033,2022-05-01T09:51:00+00:00,,9,8.9,,,,3.3,8.394346188881666,,101960,5.4,Mostly Clear
,16090,101730,160,23.852729906084,,KLGA 302251Z 16009KT 10SM FEW250 16/M05 A3004 RMK AO2 SLP172 T01561050,2022-04-30T22:51:00+00:00,,9,15.6,,,,-5,,,101720,16.56,Mostly Clear
,16090,101730,180,83.015085466252,,KJFK 060251Z 18007KT 10SM BKN190 BKN250 12/09 A3004 RMK AO2 SLP173 T01220094 53000,2022-05-06T02:51:00+00:00,,7,12.2,,,,9.4,,,101730,12.96,Mostly Cloudy
,16090,102030,0,26.61507912443,,,2022-05-01T01:51:00+00:00,,27,13.9,,,,-5,,,101920,0,
,16090,101930,360,82.954048467221,,KTEB 030551Z 36004KT 10SM OVC014 12/09 A3010 RMK AO2 SLP192 T01170089 10122 20117 53005,2022-05-03T05:51:00+00:00,,3,11.7,,,,8.9,,,101920,7.56,Cloudy
,16090,,,,,KTEB 020928Z 06003KT 10SM -RA BKN021 OVC028 12/08 A3002 RMK AO2 LTG DSNT W RAB21 P0000 T01170083,2022-05-02T09:28:00+00:00,,3,,,0,,,,,,,Light Rain
,16090,101800,360,77.340598238695,,KJFK 051051Z 36009KT 10SM FEW049 SCT080 SCT250 14/10 A3006 RMK AO2 SLP180 T01390100,2022-05-05T10:51:00+00:00,,7,13.9,,,,10,,,101800,16.56,Partly Cloudy
,16090,101830,20,74.978033950497,,KEWR 051051Z 02010KT 10SM FEW033 BKN042 BKN080 BKN250 15/11 A3007 RMK AO2 SLP181 T01500106,2022-05-05T10:51:00+00:00,,9,15,,,,10.6,,,101810,18.36,Mostly Cloudy
,16090,101930,150,82.880385175758,,,2022-05-02T03:51:00+00:00,,7,11.1,,0,,8.3,,,101920,9.36,
,16090,101930,,24.459086773046,,KNYC 012051Z AUTO VRB05G17KT 10SM CLR 18/M03 A3010 RMK AO2 SLP183 T01781028 56007 $,2022-05-01T20:51:00+00:00,,27,17.8,,,,-2.8,,31.68,101830,9.36,Clear
,16090,101860,20,86.531884394108,,KEWR 030151Z 02009KT 10SM BKN007 OVC017 13/11 A3008 RMK AO2 SLP185 T01330111 $,2022-05-03T01:51:00+00:00,,9,13.3,,,,11.1,,,101850,16.56,Cloudy
,3220,101860,0,96.731932441167,,KNYC 021142Z AUTO 00000KT 2SM -RA BR OVC012 11/11 A3008 RMK AO2 P0000 T01110106 $,2022-05-02T11:42:00+00:00,,27,11.1,,0,,10.6,,,,0,Light Rain and Fog/Mist
,16090,101730,100,76.898108532185,,KJFK 020851Z 10007KT 10SM -RA BKN023 OVC028 11/07 A3004 RMK AO2 RAB17 SLP170 P0002 60002 T01110072 56015,2022-05-02T08:51:00+00:00,,7,11.1,,0,0,7.2,,,101700,12.96,Light Rain
,11270,101690,50,82.880385175758,,KLGA 021051Z 05008KT 7SM -RA BKN015 BKN036 OVC110 11/08 A3003 RMK AO2 WSHFT 1019 LTG DSNT SE RAB08 TSB13E41 SLP170 CB DSNT E-DSNT S MOV E P0027 T01110083,2022-05-02T10:51:00+00:00,,9,11.1,,0.01,,8.3,,,101700,14.76,Light Rain
,16090,101560,50,80.202281999569,,,2022-05-05T03:34:00+00:00,,3,15.6,,0,,12.2,,,,5.4,Light Drizzle
,1610,101730,40,89.269748995158,,KLGA 021638Z 04010KT 1SM R04/3500VP6000FT -RA BR OVC006 11/09 A3004 RMK AO2 CIG 003V009 P0001 T01110094,2022-05-02T16:38:00+00:00,,9,11.1,,0,,9.4,,,,18.36,Light Rain and Fog/Mist
,16090,101660,,72.237265552403,,KEWR 050651Z 36012KT 10SM FEW020 BKN037 BKN060 16/11 A3002 RMK AO2 SLP166 T01610111,2022-05-05T06:51:00+00:00,,9,16.1,,,,11.1,,,101660,,Mostly Cloudy
,16090,102100,340,32.554017247018,,KTEB 301151Z 34006KT 10SM CLR 09/M07 A3015 RMK AO2 SLP210 T00891067 10089 20044 51010,2022-04-30T11:51:00+00:00,,3,8.9,,,,-6.7,7.13022896455,,102100,11.16,Clear
,16090,102030,330,26.402216264444,,KEWR 300751Z 33007KT 10SM CLR 09/M09 A3013 RMK AO2 SLP203 T00891094,2022-04-30T07:51:00+00:00,,9,8.9,,,,-9.4,6.851099974308333,,102030,12.96,Clear
,16090,101630,360,74.978033950497,,KJFK 050651Z 36014KT 10SM SCT038 OVC060 15/11 A3001 RMK AO2 SLP162 T01500106,2022-05-05T06:51:00+00:00,,7,15,,,,10.6,,,101620,25.92,Cloudy
,12870,101800,90,92.285708289197,,KJFK 021015Z COR 09006KT 8SM TS BKN012CB OVC022 11/09 A3006 RMK AO2 LTG DSNT SW-NW RAE14 TSB15 OCNL LTGIC SW-NW TS SW-NW MOV E P0000 T01060094,2022-05-02T10:15:00+00:00,,7,10.6,,0,,9.4,,,,11.16,Thunderstorms
,16090,101490,160,87.749358083507,,KJFK 061445Z 16008KT 10SM -RA BKN012 BKN075 OVC090 14/12 A2997 RMK AO2 RAE00B24 P0000,2022-05-06T14:45:00+00:00,,7,14,,0,,12,,,,14.76,Light Rain
,16090,101930,180,76.993951308353,,KJFK 020251Z 18010KT 10SM FEW060 OVC100 12/08 A3010 RMK AO2 SLP192 T01170078 53010,2022-05-02T02:51:00+00:00,,7,11.7,,,,7.8,,,101920,18.36,Cloudy
,16090,,,,,KNYC 3007851Z AUTO 30005KT 10SM CLR 07/M08 A3015 RMK AO2 SLP202 T00721083 56002 $,2022-04-30T09:01:00+00:00,,27,,,,,,,,,,Clear
,16090,101900,40,38.354294743103,,KLGA 051551Z 04005KT 10SM FEW040 SCT250 19/04 A3009 RMK AO2 SLP187 T01890044,2022-05-05T15:51:00+00:00,,9,18.9,,,,4.4,,,101870,9.36,Partly Cloudy
,16090,101930,360,19.537168947855,,KJFK 301651Z 36012G22KT 10SM CLR 17/M07 A3010 RMK AO2 SLP193 T01671067,2022-04-30T16:51:00+00:00,,7,16.7,,,,-6.7,,40.68,101930,22.32,Clear
,16090,101800,170,29.720474149632,,KTEB 012151Z 17009KT 10SM CLR 17/M01 A3006 RMK AO2 SLP180 T01671011,2022-05-01T21:51:00+00:00,,3,16.7,,,,-1.1,,,101800,16.56,Clear
,16090,101930,360,86.313549377715,,KLGA 030451Z 36004KT 10SM BKN013 11/09 A3010 RMK AO2 SLP193 T01110089 401390100,2022-05-03T04:51:00+00:00,,9,11.1,,,,8.9,,,101930,7.56,Mostly Cloudy
,16090,101830,240,25.229353721412,,KTEB 011851Z 24005KT 10SM CLR 21/00 A3007 RMK AO2 SLP182 T02060000,2022-05-01T18:51:00+00:00,,3,20.6,,,,0,,,101820,9.36,Clear
,16090,101860,180,32.484481613826,,KTEB 010051Z 18006KT 10SM CLR 13/M03 A3008 RMK AO2 SLP184 T01281033,2022-05-01T00:51:00+00:00,,3,12.8,,,,-3.3,,,101840,11.16,Clear
,16090,101900,180,71.62381165163,,,2022-05-02T03:51:00+00:00,,9,12.8,,0,,7.8,,,101870,11.16,
,16090,101460,0,66.579992947826,,KEWR 061051Z 00000KT 10SM BKN060 OVC085 16/09 A2996 RMK AO2 SLP146 T01560094,2022-05-06T10:51:00+00:00,,9,15.6,,,,9.4,,,101460,0,Cloudy
,9660,101690,50,81.750052187031,,KLGA 021049Z 05008KT 6SM -RA BKN015 BKN036 OVC110 11/08 A3003 RMK AO2 WSHFT 1019 LTG DSNT SE RAB08 TSB13E41 CB DSNT E-DSNT S MOV E P0027,2022-05-02T10:49:00+00:00,,9,11,,0.01,,8,,,,14.76,Light Rain
0,14480,101520,70,89.317597936371,,KEWR 041151Z 07005KT 9SM -RA BKN008 BKN025 OVC090 12/10 A2998 RMK AO2 SLP150 P0001 60012 70012 T01170100 10117 20106 56020,2022-05-04T11:51:00+00:00,,9,11.7,,0,,10,,,101500,9.36,Light Rain
,3220,101730,70,93.602371756764,,KTEB 021549Z 07005KT 2SM R06/4500VP6000FT BR OVC008 12/11 A3004 RMK AO2,2022-05-02T15:49:00+00:00,,3,12,,,,11,,,,9.36,Fog/Mist
0,2010,101660,50,89.317597936371,,KLGA 021751Z 05012KT 1 1/4SM -RA BR OVC003 12/10 A3002 RMK AO2 RAE19B48 SLP167 P0001 60003 T01170100 10128 20111 56006,2022-05-02T17:51:00+00:00,,9,11.7,,0,,10,,,101670,22.32,Light Rain and Fog/Mist
,16090,101690,290,10.525162386555,,KEWR 302151Z 29010KT 10SM FEW250 21/M11 A3003 RMK AO2 SLP167 T02111111,2022-04-30T21:51:00+00:00,,9,21.1,,,,-11.1,,,101670,18.36,Mostly Clear
0,11270,101520,90,96.074594670841,,KJFK 041151Z 09008KT 7SM -DZ OVC005 11/10 A2998 RMK AO2 RAE1055B11E23DZB49 SLP153 P0000 60002 70002 T01060100 10106 20094 58021,2022-05-04T11:51:00+00:00,,7,10.6,,0,,10,,,101530,14.76,Light Drizzle
,16090,102070,0,39.074949558917,,KTEB 300951Z 00000KT 10SM CLR 05/M08 A3014 RMK AO2 SLP205 T00501078,2022-04-30T09:51:00+00:00,,3,5,,,,-7.8,,,102050,0,Clear
,3220,101760,,92.966926628606,,KNYC 022051Z AUTO VRB04KT 2SM -RA BR OVC006 12/11 A3005 RMK AO2 RAB22E31B38 SLP169 P0000 60000 T01170106 53002 $,2022-05-02T20:51:00+00:00,,27,11.7,,0,0,10.6,,,101690,7.56,Light Rain and Fog/Mist
,3220,101690,70,89.954432820851,,KTEB 021651Z 07007KT 2SM -DZ BR OVC004 12/11 A3003 RMK AO2 RAB1552E47DZB48 SLP167 P0001 T01220106,2022-05-02T16:51:00+00:00,,3,12.2,,0,,10.6,,,101670,12.96,Light Drizzle and Fog/Mist
,16090,,,,,KNYC 051351Z AUTO VRB05KT 10SM CLR 17/08 A3014 RMK AO2 SLP196 T01670078 $,2022-05-05T13:51:00+00:00,,27,,,,,,,,,,Clear
,16090,101560,340,11.054182937526,,KJFK 292151Z 34016G23KT 10SM FEW250 17/M14 A2999 RMK AO2 PK WND 34032/2110 SLP156 T01671139,2022-04-29T21:51:00+00:00,,7,16.7,,,,-13.9,,42.48,101560,29.52,Mostly Clear
,9660,101660,0,92.934812010123,,KNYC 041451Z AUTO 00000KT 6SM BR OVC005 11/10 A3002 RMK AO2 RAE29 SLP158 P0001 60003 T01110100 51006 $,2022-05-04T14:51:00+00:00,,27,11.1,,0,0,10,,,101580,0,Fog/Mist
,16090,101690,,10.525162386555,,KEWR 302051Z 31012KT 10SM FEW250 21/M11 A3003 RMK AO2 SLP167 T02111111 56016,2022-04-30T20:51:00+00:00,,9,21.1,,,,-11.1,,,101670,,Mostly Clear
,16090,,,,,KJFK 020641Z 10004KT 10SM OVC029 12/08 A3006 RMK AO2 T01170078,2022-05-02T06:41:00+00:00,,7,,,,,,,,,,Cloudy
,4830,101690,0,89.181204957654,,KTEB 040951Z 00000KT 3SM -RA BR OVC012 10/08 A3003 RMK AO2 RAB0852 SLP169 P0004 T01000083,2022-05-04T09:51:00+00:00,,3,10,,0,,8.3,,,101690,0,Light Rain and Fog/Mist
,16090,101900,,20.730629662478,,KTEB 291451Z 33015G27KT 10SM CLR 11/M11 A3009 RMK AO2 PK WND 34028/1428 SLP188 T01111106 58012,2022-04-29T14:51:00+00:00,,3,11.1,,,,-10.6,,50.04,101880,,Clear
,4020,101730,80,96.107794274811,,KJFK 021651Z 08010KT 2 1/2SM -DZ BR OVC007 12/11 A3004 RMK AO2 SLP172 P0000 T01170111,2022-05-02T16:51:00+00:00,,7,11.7,,0,,11.1,,,101720,18.36,Light Drizzle and Fog/Mist
,16090,101760,160,33.956528453416,22.022198242950555,KEWR 051851Z 16004KT 10SM FEW060 BKN250 23/06 A3005 RMK AO2 SLP174 T02280061,2022-05-05T18:51:00+00:00,,9,22.8,,,,6.1,,,101740,7.56,Mostly Cloudy
,16090,101690,90,74.499044679056,,KTEB 020651Z 09005KT 10SM BKN026 OVC032 12/08 A3003 RMK AO2 SLP169 T01220078,2022-05-02T06:51:00+00:00,,3,12.2,,,,7.8,,,101690,9.36,Cloudy
,16090,101830,60,89.22963410269,,KLGA 030324Z 06005KT 10SM FEW015 FEW021 11/09 A3007 RMK AO2 T01060089,2022-05-03T03:24:00+00:00,,9,10.6,,,,8.9,,,,9.36,Mostly Clear
0.01,14480,101800,30,86.423356721086,,KEWR 021151Z 03003KT 9SM OVC012 12/10 A3006 RMK AO2 RAE49 SLP177 P0001 60020 70020 T01220100 10139 20117 53012,2022-05-02T11:51:00+00:00,,9,12.2,,0,,10,,,101770,5.4,Cloudy
,16090,102240,,57.870774670853,,KNYC 031751Z AUTO VRB05KT 10SM CLR 16/08 A3019 RMK AO2 SLP214 T01610078 10167 20122 58002 $,2022-05-03T17:51:00+00:00,,27,16.1,,,,7.8,,,102140,9.36,Clear
,16090,101660,,21.70309544818,,KTEB 302051Z 11011KT 10SM CLR 18/M04 A3002 RMK AO2 SLP164 T01781044 56015,2022-04-30T20:51:00+00:00,,3,17.8,,,,-4.4,,,101640,,Clear
,16090,101930,150,76.993951308353,,KTEB 040251Z 15007KT 10SM OVC019 12/08 A3010 RMK AO2 SLP193 T01170078 56003,2022-05-04T02:51:00+00:00,,3,11.7,,,,7.8,,,101930,12.96,Cloudy
,4830,,,,,KNYC 021826Z AUTO 05008KT 3SM BR OVC004 12/11 A3004 RMK AO2 T01170106 $,2022-05-02T18:26:00+00:00,,27,,,,,,,,,,Fog/Mist
,16090,,,,,KTEB 031224Z 01007KT 10SM FEW022 13/08 A3016 RMK AO2 T01280083,2022-05-03T12:24:00+00:00,,3,,,,,,,,,,Mostly Clear
,16090,101800,100,76.993951308353,,KJFK 020651Z 10004KT 10SM OVC027 12/08 A3006 RMK AO2 SLP177 T01170078,2022-05-02T06:51:00+00:00,,7,11.7,,,,7.8,,,101770,7.56,Cloudy
,16090,101660,110,73.905075949333,,KLGA 020951Z 11009KT 10SM OVC021 12/07 A3002 RMK AO2 LTG DSNT SW RAE0856B14E40 SLP166 P0001 T01170072 $,2022-05-02T09:51:00+00:00,,9,11.7,,0,,7.2,,,101660,16.56,Cloudy
,16090,101630,360,77.511150721711,,KTEB 050451Z 36006KT 10SM -DZ SCT024 OVC032 15/11 A3001 RMK AO2 SLP163 P0000 T01500111 402060100,2022-05-05T04:51:00+00:00,,3,15,,0,,11.1,,,101630,11.16,Light Drizzle
,16090,102130,,66.902625351419,,KTEB 031451Z VRB05KT 10SM FEW024 15/09 A3016 RMK AO2 SLP214 T01500089 51005,2022-05-03T14:51:00+00:00,,3,15,,,,8.9,,,102140,9.36,Mostly Clear
,16090,101660,340,77.603412846276,,KJFK 050451Z 34012KT 10SM OVC023 16/12 A3002 RMK AO2 SLP166 T01560117 401890094,2022-05-05T04:51:00+00:00,,7,15.6,,,,11.7,,,101660,22.32,Cloudy
,16090,102270,,62.095793682011,,KNYC 031551Z AUTO VRB05KT 10SM FEW022 15/08 A3020 RMK AO2 SLP218 T01500078 $,2022-05-03T15:51:00+00:00,,27,15,,,,7.8,,,102180,9.36,Mostly Clear
,16090,101930,340,96.056307711081,,,2022-05-03T03:51:00+00:00,,7,10,,,,9.4,,,101910,7.56,Mostly Clear
,16090,101760,90,89.954432820851,,KJFK 021351Z 09009KT 10SM FEW011 BKN018 OVC039 12/11 A3005 RMK AO2 RAE07 SLP177 P0000 T01220106,2022-05-02T13:51:00+00:00,,7,12.2,,0,,10.6,,,101770,16.56,Cloudy
,16090,101660,180,48.02964410285,,KLGA 060051Z 18006KT 10SM FEW150 BKN220 BKN260 17/06 A3002 RMK AO2 SLP164 T01720061,2022-05-06T00:51:00+00:00,,9,17.2,,,,6.1,,,101640,11.16,Mostly Cloudy
,16090,101900,,24.002317370366,,KTEB 011751Z COR 10SM CLR 19/M02 A3009 RMK AO2 SLP187 T01941017 10206 20100 58016,2022-05-01T17:51:00+00:00,,3,19.4,,,,-1.7,,,101870,,Clear
,9660,101560,50,89.22963410269,,KLGA 041451Z 05008KT 6SM BR BKN006 OVC010 11/09 A2999 RMK AO2 RAE47 SLP156 P0001 60003 T01060089 51004 $,2022-05-04T14:51:00+00:00,,9,10.6,,0,0,8.9,,,101560,14.76,Fog/Mist
,16090,102070,50,77.073390888716,,KNYC 032351Z AUTO 05004KT 10SM OVC023 12/08 A3014 RMK AO2 SLP199 T01220083 10167 20122 58011 $,2022-05-03T23:51:00+00:00,,27,12.2,,,,8.3,,,101990,7.56,Cloudy
,16090,101630,170,49.875731701621,,KTEB 060051Z 17007KT 10SM CLR 18/07 A3001 RMK AO2 SLP161 T01780072,2022-05-06T00:51:00+00:00,,3,17.8,,,,7.2,,,101610,12.96,Clear
,9660,,,,,KNYC 021251Z AUTO 07006KT 6SM BR OVC010 11/10 A3009 RMK AO2 RAE1159 SLP179 P0000 T01110100 $,2022-05-02T12:51:00+00:00,,27,,,0,,,,,,,Fog/Mist
,16090,101460,10,74.769652314474,,KTEB 050151Z 01003KT 10SM BKN075 17/12 A2996 RMK AO2 SLP146 T01670122,2022-05-05T01:51:00+00:00,,3,16.7,,,,12.2,,,101460,5.4,Mostly Cloudy
,12870,101730,90,89.269748995158,,KEWR 040951Z 09003KT 8SM -RA BKN006 OVC022 11/09 A3004 RMK AO2 SLP170 P0004 T01110094,2022-05-04T09:51:00+00:00,,9,11.1,,0,,9.4,,,101700,5.4,Light Rain
,16090,101830,,37.838980834288,20.913573388451113,,2022-05-05T16:51:00+00:00,,9,21.7,,,,6.7,,,101820,9.36,
,16090,102070,20,82.880385175758,,KJFK 031051Z 02009KT 10SM FEW009 FEW250 11/08 A3014 RMK AO2 SLP206 T01110083,2022-05-03T10:51:00+00:00,,7,11.1,,,,8.3,,,102060,16.56,Mostly Clear
,16090,101900,160,28.955043338648,,KLGA 010251Z 16005KT 10SM FEW250 13/M04 A3009 RMK AO2 SLP190 T01331044 50013,2022-05-01T02:51:00+00:00,,9,13.3,,,,-4.4,,,101900,9.36,Mostly Clear
,16090,102200,60,68.750377788705,,KLGA 031451Z 06011KT 10SM BKN021 BKN250 13/07 A3018 RMK AO2 SLP218 T01280072 51008 $,2022-05-03T14:51:00+00:00,,9,12.8,,,,7.2,,,102180,20.52,Mostly Cloudy
,3220,101730,70,90.036281705393,,KEWR 021551Z 07005KT 2SM -DZ BR BKN007 OVC011 13/12 A3004 RMK AO2 TWR VIS 2 1/2 RAB07E14DZB14 SLP173 P0001 T01330117 $,2022-05-02T15:51:00+00:00,,9,13.3,,0,,11.7,,,101730,9.36,Light Drizzle and Fog/Mist
,16090,101930,30,86.313549377715,,KLGA 030651Z 03003KT 10SM OVC015 11/09 A3010 RMK AO2 SLP192 T01110089,2022-05-03T06:51:00+00:00,,9,11.1,,,,8.9,,,101920,5.4,Cloudy
,16090,101590,,13.60748784289,,KLGA 291851Z 31018G22KT 10SM CLR 16/M12 A3000 RMK AO2 PK WND 32028/1809 SLP158 T01561122,2022-04-29T18:51:00+00:00,,9,15.6,,,,-12.2,,40.68,101580,,Clear
0,12870,101630,90,92.285708289197,,KNYC 041151Z AUTO 09006KT 8SM OVC008 11/09 A3001 RMK AO2 RAE45 SLP153 P0000 60005 70005 T01060094 10106 20100 58016 $,2022-05-04T11:51:00+00:00,,27,10.6,,0,,9.4,,,101530,11.16,Cloudy
,2410,101730,40,89.269748995158,,KLGA 021551Z 04012KT 1 1/2SM -RA BR OVC010 11/09 A3004 RMK AO2 RAB00E07B47 SLP173 P0000 T01110094,2022-05-02T15:51:00+00:00,,9,11.1,,0,,9.4,,,101730,22.32,Light Rain and Fog/Mist
,16090,101420,30,86.590548811883,,KTEB 061451Z 03004KT 10SM -RA OVC080 14/12 A2995 RMK AO2 SLP141 P0002 60010 T01390117 58010,2022-05-06T14:51:00+00:00,,3,13.9,,0,0,11.7,,,101410,7.56,Light Rain
,16090,101690,190,60.134185623228,,KJFK 052051Z 19011KT 10SM FEW060 BKN250 17/09 A3003 RMK AO2 SLP170 T01720094 58013,2022-05-05T20:51:00+00:00,,7,17.2,,,,9.4,,,101700,20.52,Mostly Cloudy
,16090,,,,,KNYC 300851Z AUTO 30005KT 10SM CLR 07/M08 A3015 RMK AO2 SLP202 T00721083 56002 $,2022-04-30T08:51:00+00:00,,27,,,,,,,,,,Clear
,16090,101760,60,83.220266513554,,KEWR 021351Z 06005KT 10SM OVC011 14/11 A3005 RMK AO2 SLP174 T01390111 $,2022-05-02T13:51:00+00:00,,9,13.9,,,,11.1,,,101740,9.36,Cloudy
,16090,101760,130,40.570677165318,,KLGA 020051Z 13011KT 10SM BKN110 OVC150 15/02 A3005 RMK AO2 SLP174 T01500017 $,2022-05-02T00:51:00+00:00,,9,15,,,,1.7,,,101740,20.52,Cloudy
,8050,101560,80,92.875368778185,,KTEB 041051Z 08003KT 5SM BR BKN008 BKN014 OVC020 10/09 A2999 RMK AO2 RAE45 SLP156 P0000 T01000089,2022-05-04T10:51:00+00:00,,3,10,,0,,8.9,,,101560,5.4,Fog/Mist
,16090,102130,,64.375172704717,,KTEB 031551Z VRB05KT 10SM FEW026 16/09 A3016 RMK AO2 SLP213 T01560089,2022-05-03T15:51:00+00:00,,3,15.6,,,,8.9,,,102130,9.36,Mostly Clear
,16090,101930,350,13.230543437034,,KEWR 300151Z 35013G20KT 10SM CLR 14/M14 A3010 RMK AO2 SLP193 T01391139,2022-04-30T01:51:00+00:00,,9,13.9,,,,-13.9,,,101930,24.12,Clear
,16090,102000,110,79.654510078888,,KEWR 040151Z 11008KT 10SM FEW011 BKN022 BKN150 OVC250 12/08 A3012 RMK AO2 SLP199 T01170083,2022-05-04T01:51:00+00:00,,9,11.7,,,,8.3,,,101990,14.76,Cloudy
,16090,102130,120,68.973277430726,,KJFK 031951Z 12013KT 10SM SCT034 BKN170 OVC250 14/08 A3016 RMK AO2 SLP214 T01390083,2022-05-03T19:51:00+00:00,,7,13.9,,,,8.3,,,102140,24.12,Cloudy
,16090,101660,290,10.100991591439,,KNYC 291951Z AUTO 29011G20KT 10SM CLR 17/M15 A3002 RMK AO2 SLP157 T01671150 $,2022-04-29T19:51:00+00:00,,27,16.7,,,,-15,,,101570,20.52,Clear
,4830,101760,50,89.22963410269,,KLGA 022334Z 05009KT 3SM -DZ BR OVC004 11/09 A3005 RMK AO2 DZB11 P0000 T01060089,2022-05-02T23:34:00+00:00,,9,10.6,,0,,8.9,,,,16.56,Light Drizzle and Fog/Mist
,16090,102130,50,57.596481693159,,KLGA 031851Z 05012KT 10SM SCT025 SCT170 BKN230 BKN260 15/07 A3016 RMK AO2 SLP213 T01500067 $,2022-05-03T18:51:00+00:00,,9,15,,,,6.7,,,102130,22.32,Mostly Cloudy
0,16090,101490,350,80.650223331602,,KJFK 041751Z 35006KT 10SM BKN011 BKN090 15/12 A2997 RMK AO2 RAB16E26 SLP147 P0000 60002 T01500117 10150 20106 58007,2022-05-04T17:51:00+00:00,,7,15,,0,,11.7,,,101470,11.16,Mostly Cloudy
,2010,101630,40,89.269748995158,,KLGA 021851Z 04014KT 1 1/4SM -DZ BR OVC004 11/09 A3001 RMK AO2 SFC VIS 2 RAE24DZB24 SLP163 P0000 T01110094,2022-05-02T18:51:00+00:00,,9,11.1,,0,,9.4,,,101630,25.92,Cloudy
,16090,101860,,89.181204957654,,KNYC 040651Z AUTO VRB04KT 10SM OVC008 10/08 A3008 RMK AO2 SLP177 T01000083 $,2022-05-04T06:51:00+00:00,,27,10,,,,8.3,,,101770,7.56,Cloudy
,16090,102130,,81.750052187031,,KNYC 030948Z AUTO VRB03KT 10SM SCT014 11/08 A3016 RMK AO2 $,2022-05-03T09:48:00+00:00,,27,11,,,,8,,,,5.4,Partly Cloudy
,16090,101800,30,86.531884394108,,KEWR 030051Z 03007KT 10SM BKN008 OVC020 13/11 A3006 RMK AO2 SLP180 T01330111 $,2022-05-03T00:51:00+00:00,,9,13.3,,,,11.1,,,101800,12.96,Cloudy
0,6440,101420,310,86.531884394108,,KTEB 041751Z 31003KT 4SM BR OVC009 13/11 A2995 RMK AO2 SLP142 60003 T01330111 10144 20106 58014,2022-05-04T17:51:00+00:00,,3,13.3,,,,11.1,,,101420,5.4,Fog/Mist
,11270,101830,90,86.202442841334,,KLGA 040751Z 09004KT 7SM RA OVC006 10/08 A3007 RMK AO2 DZE49RAB49 SLP182 P0001 T01000078 $,2022-05-04T07:51:00+00:00,,9,10,,0,,7.8,,,101820,7.56,Rain
,16090,101830,,54.250951590895,,KJFK 051751Z 19012KT 10SM FEW055 BKN250 18/09 A3007 RMK AO2 SLP183 T01830089 10211 20150 56012,2022-05-05T17:51:00+00:00,,7,18.3,,,,8.9,,,101830,,Mostly Cloudy
,16090,101970,20,83.015085466252,,KEWR 030751Z 02006KT 10SM OVC014 12/09 A3011 RMK AO2 SLP197 T01220094 $,2022-05-03T07:51:00+00:00,,9,12.2,,,,9.4,,,101970,11.16,Cloudy
,16090,101390,330,75.162754589756,,KJFK 041851Z 33006KT 10SM FEW012 BKN050 OVC110 16/12 A2994 RMK AO2 SLP140 T01610117,2022-05-04T18:51:00+00:00,,7,16.1,,,,11.7,,,101400,11.16,Cloudy
0,16090,101630,10,74.978033950497,,KTEB 050551Z 01003KT 10SM OVC044 15/11 A3001 RMK AO2 DZE46 SLP161 P0000 60000 T01500106 10178 20150 50007,2022-05-05T05:51:00+00:00,,3,15,,0,,10.6,,,101610,5.4,Cloudy
0.01,16090,101830,200,86.482711038053,,KJFK 021151Z 20007KT 10SM -RA BKN011 OVC023 13/11 A3007 RMK AO2 PK WND 13026/1053 WSHFT 1039 SLP182 P0010 60049 70049 T01280106 10128 20106 53011,2022-05-02T11:51:00+00:00,,7,12.8,,0,,10.6,,,101820,12.96,Light Rain
,16090,102070,330,25.500249969886,,KJFK 300451Z 33012KT 10SM CLR 10/M09 A3014 RMK AO2 SLP205 T01001089 401720056,2022-04-30T04:51:00+00:00,,7,10,,,,-8.9,,,102050,22.32,Clear
,2010,101690,30,89.22963410269,,KLGA 022051Z 03009KT 1 1/4SM -RA BR OVC004 11/09 A3003 RMK AO2 SFC VIS 2 DZB29E34RAB34 SLP169 P0000 60000 T01060089 53002,2022-05-02T20:51:00+00:00,,9,10.6,,0,0,8.9,,,101690,16.56,Light Rain and Fog/Mist
,8050,101660,,89.22963410269,,KTEB 021051Z 28012KT 5SM -RA BR BKN021 OVC100 11/09 A3002 RMK AO2 WSHFT 1001 LTG DSNT SE RAB0955 TSB0956E11B12E48 SLP166 P0010 T01060089,2022-05-02T10:51:00+00:00,,3,10.6,,0,,8.9,,,101660,,Light Rain and Fog/Mist
,16090,101760,,11.138628879865,,KNYC 292351Z AUTO VRB04KT 10SM CLR 14/M16 A3005 RMK AO2 SLP169 T01441156 10172 20144 53012 $,2022-04-29T23:51:00+00:00,,27,14.4,,,,-15.6,,,101690,7.56,Clear
,16090,101860,30,89.181204957654,,,2022-05-03T03:51:00+00:00,,9,10,,,,8.3,,,101860,7.56,Mostly Clear
,16090,101590,170,62.350547871685,,KEWR 060451Z 17005KT 10SM FEW150 BKN190 OVC250 16/09 A3000 RMK AO2 SLP159 T01610089 402390144,2022-05-06T04:51:00+00:00,,9,16.1,,,,8.9,,,101590,9.36,
,16090,101560,,11.024410947737,,KLGA 292051Z 32016G23KT 10SM CLR 16/M14 A2999 RMK AO2 SLP154 T01611144 55008,2022-04-29T20:51:00+00:00,,9,16.1,,,,-14.4,,42.48,101540,,Clear
,16090,101800,50,82.880385175758,,KLGA 021251Z 05008KT 10SM BKN012 OVC026 11/08 A3006 RMK AO2 RAE09 SLP179 P0000 T01110083,2022-05-02T12:51:00+00:00,,9,11.1,,0,,8.3,,,101790,14.76,Cloudy
,16090,102170,110,57.870774670853,,KJFK 031751Z 11006KT 10SM FEW028 BKN200 BKN250 16/08 A3017 RMK AO2 SLP215 T01610078 10167 20122 57004,2022-05-03T17:51:00+00:00,,7,16.1,,,,7.8,,,102150,11.16,Mostly Cloudy
,16090,101930,20,83.015085466252,,KEWR 030651Z 02009KT 10SM OVC016 12/09 A3010 RMK AO2 SLP192 T01220094 $,2022-05-03T06:51:00+00:00,,9,12.2,,,,9.4,,,101920,16.56,Cloudy
,16090,101970,10,65.581393779178,,KEWR 010751Z 01003KT 10SM FEW250 09/03 A3011 RMK AO2 SLP194 T00890028,2022-05-01T07:51:00+00:00,,9,8.9,,,,2.8,8.394346188881666,,101940,5.4,Mostly Clear
,16090,101360,180,,,KJFK 042351Z 18005KT 10SM BKN080 BKN120 14/12 A2993 RMK AO2 SLP136 T01390117 10189 20139 53002,2022-05-04T23:51:00+00:00,,7,,,,,11.7,,,101360,9.36,Mostly Cloudy
,2410,101730,40,87.476252351683,,KLGA 021548Z 04012KT 1 1/2SM -RA BR OVC010 11/09 A3004 RMK AO2 RAB00E07B47 P0000,2022-05-02T15:48:00+00:00,,9,11,,0,,9,,,,22.32,Light Rain and Fog/Mist
,16090,101660,160,50.353119617443,,KEWR 060051Z 16004KT 10SM FEW060 BKN180 BKN250 18/08 A3002 RMK AO2 SLP165 T01830078,2022-05-06T00:51:00+00:00,,9,18.3,,,,7.8,,,101650,7.56,Mostly Cloudy
,16090,,,,,KLGA 030629Z 04004KT 10SM BKN013 OVC017 11/08 A3010 RMK AO2 T01110083,2022-05-03T06:29:00+00:00,,9,,,,,,,,,,Cloudy
,16090,101900,60,33.642276077597,20.803992764248335,KNYC 051751Z AUTO 06007KT 10SM CLR 22/05 A3009 RMK AO2 SLP180 T02170050 10217 20144 58013 $,2022-05-05T17:51:00+00:00,,27,21.7,,,,5,,,101800,12.96,Clear
,16090,102030,330,32.223902792036,,KJFK 300751Z 33009KT 10SM CLR 08/M08 A3013 RMK AO2 SLP202 T00781078,2022-04-30T07:51:00+00:00,,7,7.8,,,,-7.8,5.012353846652778,,102020,16.56,Clear
,16090,,,,,KNYC 010651Z AUTO 00000KT 10SM CLR 10/03 A3013 RMK AO2 SLP192 T01000028 $,2022-05-01T06:51:00+00:00,,27,,,,,,,,,,Clear
0,4830,101690,80,92.993524010865,,KJFK 021751Z 08012KT 3SM -DZ BR OVC006 12/11 A3003 RMK AO2 SFC VIS 4 SLP167 P0001 60002 T01220111 10128 20117 58007,2022-05-02T17:51:00+00:00,,7,12.2,,0,,11.1,,,101670,22.32,Light Drizzle and Fog/Mist
,16090,101900,,14.445351477256,,KNYC 300051Z AUTO VRB03KT 10SM CLR 13/M13 A3009 RMK AO2 SLP182 T01331133 $,2022-04-30T00:51:00+00:00,,27,13.3,,,,-13.3,,,101820,5.4,Clear
,16090,102170,60,26.556775786591,,KNYC 011451Z AUTO 06006KT 10SM CLR 17/M02 A3017 RMK AO2 SLP207 T01721022 53002 $,2022-05-01T14:51:00+00:00,,27,17.2,,,,-2.2,,,102070,11.16,Clear
,16090,101730,,46.245115753983,,KNYC 060051Z AUTO VRB03KT 10SM CLR 18/06 A3004 RMK AO2 SLP164 T01780061 $,2022-05-06T00:51:00+00:00,,27,17.8,,,,6.1,,,101640,5.4,Clear
,9660,101690,330,93.025244755636,,KJFK 022051Z 33006KT 6SM -DZ BR OVC005 13/12 A3003 RMK AO2 DZB49 SLP167 P0000 60000 T01280117 55000,2022-05-02T20:51:00+00:00,,7,12.8,,0,0,11.7,,,101670,11.16,Light Drizzle and Fog/Mist
,9660,101630,90,92.966926628606,,KJFK 021109Z 09014G24KT 6SM RA BR FEW012 BKN040 OVC085 12/11 A3001 RMK AO2 PK WND 13026/1053 WSHFT 1039 LTG DSNT E AND S P0008 T01170106,2022-05-02T11:09:00+00:00,,7,11.7,,0,,10.6,,,,25.92,Rain and Fog/Mist
,16090,,,,,KNYC 030244Z AUTO VRB05KT 10SM OVC017 12/10 A3011 RMK AO2 T01220100 $,2022-05-03T02:44:00+00:00,,27,,,,,,,,,,Cloudy
,16090,101800,180,59.60087967417,,KTEB 020151Z 18009KT 10SM OVC100 13/06 A3006 RMK AO2 SLP180 T01330056,2022-05-02T01:51:00+00:00,,3,13.3,,,,5.6,,,101800,16.56,Cloudy
,16090,101690,80,29.904003131406,,KLGA 051951Z 08007KT 10SM FEW060 SCT180 BKN250 21/03 A3003 RMK AO2 SLP167 T02110028,2022-05-05T19:51:00+00:00,,9,21.1,,,,2.8,,,101670,12.96,Mostly Cloudy
,16090,102000,200,73.810201907473,,KJFK 010251Z 20006KT 10SM FEW250 08/04 A3012 RMK AO2 SLP198 T00830039 51013,2022-05-01T02:51:00+00:00,,7,8.3,,,,3.9,6.407665852161666,,101980,11.16,Mostly Clear
,16090,102100,80,55.982539923928,,KEWR 031651Z 08010KT 10SM FEW023 OVC250 18/09 A3015 RMK AO2 SLP209 T01780089,2022-05-03T16:51:00+00:00,,9,17.8,,,,8.9,,,102090,18.36,Cloudy
,3220,101490,50,85.795186713907,,KLGA 041651Z 05007KT 2SM BR BKN007 OVC013 12/09 A2997 RMK AO2 SFC VIS 5 SLP148 T01170094 $,2022-05-04T16:51:00+00:00,,9,11.7,,,,9.4,,,101480,12.96,Fog/Mist
,16090,101730,290,10.280348541097,,KNYC 291751Z AUTO 29013G21KT 10SM CLR 15/M16 A3004 RMK AO2 SLP165 T01501161 10156 20061 58024 $,2022-04-29T17:51:00+00:00,,27,15,,,,-16.1,,38.88,101650,24.12,Clear
,16090,101730,0,86.423356721086,,KJFK 060351Z 00000KT 10SM BKN180 BKN250 12/10 A3004 RMK AO2 SLP172 T01220100,2022-05-06T03:51:00+00:00,,7,12.2,,,,10,,,101720,0,Mostly Cloudy
,14480,101630,30,96.056307711081,,KJFK 041051Z 03007KT 9SM -RA OVC008 10/09 A3001 RMK AO2 RAB08 SLP160 P0000 T01000094,2022-05-04T10:51:00+00:00,,7,10,,0,,9.4,,,101600,12.96,Light Rain
,16090,102000,60,74.098802959788,,KLGA 032351Z 06010KT 10SM BKN024 BKN170 BKN250 13/08 A3012 RMK AO2 SLP199 T01280083 10161 20122 58011 $,2022-05-03T23:51:00+00:00,,9,12.8,,,,8.3,,,101990,18.36,Mostly Cloudy
,14480,101420,40,83.421885156152,,KEWR 061423Z 04005KT 9SM -RA SCT009 BKN039 OVC075 16/13 A2995 RMK AO2 P0000 T01560128,2022-05-06T14:23:00+00:00,,9,15.6,,0,,12.8,,,,9.36,Light Rain
,16090,101830,10,89.269748995158,,KJFK 030051Z 01007KT 10SM BKN008 OVC021 11/09 A3007 RMK AO2 CIG 007V010 SLP182 T01110094,2022-05-03T00:51:00+00:00,,7,11.1,,,,9.4,,,101820,12.96,Cloudy
,16090,102130,,,,KJFK 011451Z 19008KT 10SM BKN250 16/06 A3016 RMK AO2 SLP211 T01560061 53004,2022-05-01T14:51:00+00:00,,7,15.6,,,,,,,102110,,Mostly Cloudy
,16090,101970,360,60.014617549683,,KJFK 051251Z 36013KT 10SM FEW050 FEW085 FEW250 17/09 A3011 RMK AO2 SLP194 T01670089,2022-05-05T12:51:00+00:00,,7,16.7,,,,8.9,,,101940,24.12,Mostly Clear
,16090,102070,50,89.56964455156,,KJFK 011051Z 05005KT 10SM FEW250 07/06 A3014 RMK AO2 SLP205 T00720056,2022-05-01T10:51:00+00:00,,7,7.2,,,,5.6,5.430357626322222,,102050,9.36,Mostly Clear
,4020,,,,,KLGA 021528Z 04010KT 2 1/2SM BR OVC012 12/09 A3004 RMK AO2 SFC VIS 3 RAB00E07 P0000 T01170094,2022-05-02T15:28:00+00:00,,9,,,0,,,,,,,Fog/Mist
,16090,101800,210,54.823568602679,,KLGA 020151Z 21011KT 10SM BKN100 OVC140 13/04 A3006 RMK AO2 SLP180 T01330044 $,2022-05-02T01:51:00+00:00,,9,13.3,,,,4.4,,,101800,20.52,Cloudy
,16090,101590,,12.322895484972,,KTEB 292251Z 33013G23KT 10SM CLR 15/M14 A3000 RMK AO2 SLP158 T01501139,2022-04-29T22:51:00+00:00,,3,15,,,,-13.9,,42.48,101580,,Clear
,16090,101900,30,89.22963410269,,KJFK 030251Z 03007KT 10SM FEW008 SCT023 11/09 A3009 RMK AO2 SLP188 T01060089 51009,2022-05-03T02:51:00+00:00,,7,10.6,,,,8.9,,,101880,12.96,Partly Cloudy
,16090,102000,,15.541625558016,,KNYC 300151Z AUTO VRB03KT 10SM CLR 13/M13 A3012 RMK AO2 SLP192 T01281128 $,2022-04-30T01:51:00+00:00,,27,12.8,,,,-12.8,,,101920,5.4,Clear
,8050,101900,120,96.688464288609,,KJFK 040600Z 12007KT 5SM -DZ BR OVC005 09/09 A3009 RMK AO2 CIG 003V009 P0000 T00940089,2022-05-04T06:00:00+00:00,,7,9.4,,0,,8.9,7.46029139726,,,12.96,Light Drizzle and Fog/Mist
,16090,101760,10,89.269748995158,,KJFK 022342Z 01011KT 10SM BKN006 OVC012 11/09 A3005 RMK AO2 T01110094,2022-05-02T23:42:00+00:00,,7,11.1,,,,9.4,,,,20.52,Cloudy
,16090,102030,0,85.795186713907,,KNYC 030451Z AUTO 00000KT 10SM OVC010 12/09 A3013 RMK AO2 SLP195 T01170094 401330106 $,2022-05-03T04:51:00+00:00,,27,11.7,,,,9.4,,,101950,0,Cloudy
,16090,101900,0,53.491396545009,,KTEB 010451Z 00000KT 10SM CLR 08/M01 A3009 RMK AO2 SLP190 T00831006 401940044,2022-05-01T04:51:00+00:00,,3,8.3,,,,-0.6,,,101900,0,Clear
,16090,,,,,KNYC 052151Z AUTO 00000KT 10SM CLR 21/06 A3004 RMK AO2 SLP163 T02060061 $,2022-05-05T21:51:00+00:00,,27,,,,,,,,,,Clear
,16090,101560,230,57.352861203314,,KLGA 060751Z 23007KT 10SM BKN130 OVC250 16/07 A2999 RMK AO2 SLP155 T01560072,2022-05-06T07:51:00+00:00,,9,15.6,,,,7.2,,,101550,12.96,Cloudy
,16090,101560,0,83.087914090164,,KJFK 060651Z 00000KT 10SM OVC140 13/10 A2999 RMK AO2 SLP156 T01280100,2022-05-06T06:51:00+00:00,,7,12.8,,,,10,,,101560,0,Cloudy
,16090,101930,130,79.654510078888,,KJFK 020451Z 13004KT 10SM BKN060 OVC100 12/08 A3010 RMK AO2 RAE0354 SLP191 P0000 T01170083 401720056,2022-05-02T04:51:00+00:00,,7,11.7,,0,,8.3,,,101910,7.56,Cloudy
,16090,,,,,KNYC 012351Z AUTO 00000KT 10SM CLR 14/01 A3007 RMK AO2 SLP175 T01440006 10206 20144 58008 $,2022-05-01T23:51:00+00:00,,27,,,,,,,,,,Clear
,16090,101590,,7.6040428108027,,KEWR 292051Z 33021G31KT 10SM FEW250 18/M17 A3000 RMK AO2 PK WND 32031/2047 SLP159 T01831172 56012,2022-04-29T20:51:00+00:00,,9,18.3,,,,-17.2,,57.6,101590,,Mostly Clear
,16090,101630,0,59.749933900481,,KNYC 060551Z AUTO 00000KT 10SM CLR 16/08 A3001 RMK AO2 SLP151 T01560078 10178 20156 58017 $,2022-05-06T05:51:00+00:00,,27,15.6,,,,7.8,,,101510,0,Clear
,16090,101250,300,65.6345401749,,KTEB 042151Z 30005KT 10SM CLR 19/13 A2990 RMK AO2 SLP125 T01940128,2022-05-04T21:51:00+00:00,,3,19.4,,,,12.8,,,101250,9.36,Clear
,16090,102030,,85.680481185637,,KNYC 040351Z AUTO VRB05KT 10SM OVC010 11/08 A3013 RMK AO2 SLP194 T01060083 $,2022-05-04T03:51:00+00:00,,27,10.6,,,,8.3,,,101940,9.36,Cloudy
,16090,101860,70,86.313549377715,,KLGA 030251Z 07006KT 10SM SCT015 OVC021 11/09 A3008 RMK AO2 SLP186 60000 T01110089 51008,2022-05-03T02:51:00+00:00,,9,11.1,,,0,8.9,,,101860,11.16,Cloudy
,11270,101490,,83.831702542696,,KEWR 041651Z VRB03KT 7SM OVC008 14/12 A2997 RMK AO2 SLP150 T01440117,2022-05-04T16:51:00+00:00,,9,14.4,,,,11.7,,,101500,5.4,Cloudy
,16090,101660,350,71.923565721953,,KLGA 050751Z 35011KT 10SM BKN080 14/09 A3002 RMK AO2 SLP165 T01440094,2022-05-05T07:51:00+00:00,,9,14.4,,,,9.4,,,101650,20.52,Mostly Cloudy
,16090,101970,40,83.087914090164,,KEWR 030551Z 04007KT 10SM BKN012 OVC019 13/10 A3011 RMK AO2 SLP194 T01280100 10139 20128 50008 $,2022-05-03T05:51:00+00:00,,9,12.8,,,,10,,,101940,12.96,Cloudy
,16090,,,,,KEWR 030722Z 03005KT 10SM OVC014 13/09 A3011 RMK AO2 T01280094 $,2022-05-03T07:22:00+00:00,,9,,,,,,,,,,Cloudy
,16090,,,,,KLGA 030720Z 07004KT 10SM OVC014 11/08 A3010 RMK AO2 T01110083,2022-05-03T07:20:00+00:00,,9,,,,,,,,,,Cloudy
,16090,101560,,13.179526928078,,KTEB 292051Z 32016G27KT 10SM CLR 16/M12 A2999 RMK AO2 PK WND 31028/1957 SLP154 T01611122 55008,2022-04-29T20:51:00+00:00,,3,16.1,,,,-12.2,,50.04,101540,,Clear
,14480,,,,,KEWR 021257Z 06007KT 9SM OVC016 13/11 A3004 RMK AO2 CIG 014V019 T01330111 $,2022-05-02T12:57:00+00:00,,9,,,,,,,,,,Cloudy
,4830,,,,,KNYC 041351Z AUTO VRB03KT 3SM -RA BR BKN007 OVC011 11/11 A3001 RMK AO2 SLP154 P0001 T01110106 $,2022-05-04T13:51:00+00:00,,27,,,0,,,,,,,Light Rain and Fog/Mist
,4830,101830,60,92.966926628606,,KNYC 022323Z AUTO 06004KT 3SM BR OVC005 12/11 A3007 RMK AO2 T01170106 $,2022-05-02T23:23:00+00:00,,27,11.7,,,,10.6,,,,7.56,Fog/Mist
,16090,102130,330,25.986876973832,,KJFK 301251Z 33008KT 10SM CLR 12/M07 A3016 RMK AO2 SLP211 T01171072,2022-04-30T12:51:00+00:00,,7,11.7,,,,-7.2,,,102110,14.76,Clear
,16090,,,,,KEWR 030837Z 36004KT 10SM SCT014 12/09 A3012 RMK AO2 T01170089 $,2022-05-03T08:37:00+00:00,,9,,,,,,,,,,Partly Cloudy
,8050,,,,,KNYC 041951Z AUTO 00000KT 5SM HZ SCT055 17/12 A2995 RMK AO2 SLP132 T01720122 $,2022-05-04T19:51:00+00:00,,27,,,,,,,,,,Haze
,6440,101520,80,92.285708289197,,KTEB 041351Z 08004KT 4SM -RA BR OVC005 11/09 A2998 RMK AO2 SLP150 P0001 T01060094,2022-05-04T13:51:00+00:00,,3,10.6,,0,,9.4,,,101500,7.56,Light Rain and Fog/Mist
,16090,101930,120,74.499044679056,,KEWR 040051Z 12011G18KT 10SM BKN022 BKN150 OVC250 12/08 A3010 RMK AO2 SLP193 T01220078,2022-05-04T00:51:00+00:00,,9,12.2,,,,7.8,,33.48,101930,20.52,Cloudy
,14480,101730,,85.795186713907,,KTEB 021351Z VRB05KT 9SM BR OVC012 12/09 A3004 RMK AO2 SLP173 T01170094,2022-05-02T13:51:00+00:00,,3,11.7,,,,9.4,,,101730,9.36,Fog/Mist
,16090,102100,150,64.545340236686,,KEWR 032051Z 15010KT 10SM FEW025 SCT170 BKN200 OVC250 14/08 A3015 RMK AO2 SLP209 T01440078 58004,2022-05-03T20:51:00+00:00,,9,14.4,,,,7.8,,,102090,18.36,Cloudy
,16090,101660,,16.368856509565,,KTEB 301951Z VRB03KT 10SM CLR 19/M07 A3002 RMK AO2 SLP165 T01891072,2022-04-30T19:51:00+00:00,,3,18.9,,,,-7.2,,,101650,5.4,Clear
,16090,101730,,13.230543437034,,KLGA 291651Z 33019G29KT 10SM FEW250 14/M14 A3004 RMK AO2 PK WND 32031/1625 SLP172 T01391139,2022-04-29T16:51:00+00:00,,9,13.9,,,,-13.9,,53.64,101720,,Mostly Clear
,16090,101660,210,57.870774670853,,KTEB 060251Z 21004KT 10SM CLR 16/08 A3002 RMK AO2 SLP165 T01610078 53003,2022-05-06T02:51:00+00:00,,3,16.1,,,,7.8,,,101650,7.56,Clear
,16090,101860,40,35.0739087745,20.84137428466722,KNYC 051851Z AUTO 04005KT 10SM CLR 22/06 A3008 RMK AO2 SLP175 T02170056 $,2022-05-05T18:51:00+00:00,,27,21.7,,,,5.6,,,101750,9.36,Clear
,6440,101320,,75.345564108887,,KTEB 041951Z VRB04KT 4SM OVC011 17/13 A2992 RMK AO2 SLP130 T01720128,2022-05-04T19:51:00+00:00,,3,17.2,,,,12.8,,,101300,7.56,Cloudy
,16090,101630,170,55.702676684135,,KTEB 060151Z 17005KT 10SM CLR 17/08 A3001 RMK AO2 SLP162 T01670078,2022-05-06T01:51:00+00:00,,3,16.7,,,,7.8,,,101620,9.36,Clear
,12870,101830,70,92.966926628606,,KNYC 021351Z AUTO 07005KT 8SM FEW010 OVC022 12/11 A3007 RMK AO2 SLP175 T01170106 $,2022-05-02T13:51:00+00:00,,27,11.7,,,,10.6,,,101750,9.36,Cloudy
,2410,101900,0,100,,KJFK 040751Z 00000KT 1 1/2SM -RA BR OVC003 09/09 A3009 RMK AO2 SFC VIS 6 DZE13RAB44 SLP189 P0000 T00940094,2022-05-04T07:51:00+00:00,,7,9.4,,0,,9.4,,,101890,0,Light Rain and Fog/Mist
,16090,101460,220,59.749933900481,,KLGA 060851Z 22006KT 10SM BKN140 OVC250 16/08 A2996 RMK AO2 SLP146 T01560078 58005,2022-05-06T08:51:00+00:00,,9,15.6,,,,7.8,,,101460,11.16,Cloudy
0,16090,101800,10,89.269748995158,,KJFK 022351Z 01012KT 10SM BKN006 OVC012 11/09 A3006 RMK AO2 SLP179 60000 T01110094 10128 20106 53012,2022-05-02T23:51:00+00:00,,7,11.1,,,,9.4,,,101790,22.32,Cloudy
,16090,,,,,KNYC 032124Z AUTO 09006KT 10SM BKN026 14/08 A3017 RMK AO2 T01440078 $,2022-05-03T21:24:00+00:00,,27,,,,,,,,,,Mostly Cloudy
,16090,102130,20,66.902625351419,,KEWR 031251Z 02011KT 10SM FEW017 BKN250 15/09 A3016 RMK AO2 SLP213 T01500089,2022-05-03T12:51:00+00:00,,9,15,,,,8.9,,,102130,20.52,Mostly Cloudy
,16090,101560,40,77.679888272611,,,2022-05-05T02:51:00+00:00,,3,16.1,,,0,12.2,,,101540,5.4,Cloudy
,16090,101730,360,77.246795999401,,KJFK 050951Z 36006KT 10SM FEW080 SCT250 13/09 A3004 RMK AO2 SLP173 T01330094,2022-05-05T09:51:00+00:00,,7,13.3,,,,9.4,,,101730,11.16,Partly Cloudy
,16090,101830,130,32.519268082863,,KEWR 012151Z 13009KT 10SM SCT100 BKN180 OVC240 18/01 A3007 RMK AO2 SLP183 T01780011,2022-05-01T21:51:00+00:00,,9,17.8,,,,1.1,,,101830,16.56,Cloudy
,6440,101800,70,89.404510853386,,KNYC 021516Z AUTO 07005KT 4SM BR BKN009 OVC013 13/11 A3006 RMK AO2 CIG 007V012 T01280111 $,2022-05-02T15:16:00+00:00,,27,12.8,,,,11.1,,,,9.36,Fog/Mist
,16090,101690,,75.162754589756,,KNYC 050351Z AUTO VRB05KT 10SM OVC020 16/12 A3003 RMK AO2 SLP161 T01610117 $,2022-05-05T03:51:00+00:00,,27,16.1,,,,11.7,,,101610,9.36,Cloudy
,16090,102130,100,53.755806654503,,KEWR 031751Z 10007KT 10SM FEW025 SCT170 BKN250 18/08 A3016 RMK AO2 SLP213 T01780083 10183 20133 55001,2022-05-03T17:51:00+00:00,,9,17.8,,,,8.3,,,102130,12.96,Mostly Cloudy
,9660,101590,50,85.680481185637,,KLGA 041043Z 05007KT 6SM -RA BR SCT007 OVC010 11/08 A3000 RMK AO2 P0001 T01060083,2022-05-04T10:43:00+00:00,,9,10.6,,0,,8.3,,,,12.96,Light Rain and Fog/Mist
,2410,,270,82.880385175758,,KNYC 021001Z AUTO 27008KT 250V320 1 1/2SM +RA OVC016 11/08 A3011 RMK AO2 RAB0955 PRESRR P0001 T01110083 $,2022-05-02T10:01:00+00:00,,27,11.1,,0,,8.3,,,,14.76,Heavy Rain
,16090,101490,160,69.194009692531,,KEWR 060851Z 16003KT 10SM SCT060 OVC120 15/09 A2997 RMK AO2 RAB30E41 SLP150 P0000 60000 T01500094 58003,2022-05-06T08:51:00+00:00,,9,15,,0,0,9.4,,,101500,5.4,Cloudy
,6440,,,,,KLGA 041402Z 06011KT 4SM -RA BR OVC006 11/09 A2999 RMK AO2 P0000 T01060089 $,2022-05-04T14:02:00+00:00,,9,,,0,,,,,,,Light Rain and Fog/Mist
,9660,101490,,90.117153427448,,KJFK 041651Z VRB05KT 6SM BR BKN006 BKN026 BKN095 14/13 A2997 RMK AO2 SLP149 T01440128,2022-05-04T16:51:00+00:00,,7,14.4,,,,12.8,,,101490,9.36,Fog/Mist
,2010,101690,40,89.22963410269,,KLGA 022037Z 04010KT 1 1/4SM -RA BR OVC004 11/09 A3003 RMK AO2 SFC VIS 1 1/2 DZB29E34RAB34 P0000 T01060089,2022-05-02T20:37:00+00:00,,9,10.6,,0,,8.9,,,,18.36,Light Rain and Fog/Mist
,16090,101930,330,60.277058019152,,KTEB 051351Z 33005KT 10SM BKN030 18/10 A3010 RMK AO2 SLP192 T01780100,2022-05-05T13:51:00+00:00,,3,17.8,,,,10,,,101920,9.36,Mostly Cloudy
,16090,101970,140,74.499044679056,,KTEB 040151Z 14007KT 10SM OVC021 12/08 A3011 RMK AO2 SLP194 T01220078,2022-05-04T01:51:00+00:00,,3,12.2,,,,7.8,,,101940,12.96,Cloudy
,16090,101800,,13.795651708489,,KNYC 302051Z AUTO VRB03KT 10SM CLR 19/M09 A3006 RMK AO2 SLP169 T01891094 55012 $,2022-04-30T20:51:00+00:00,,27,18.9,,,,-9.4,,,101690,5.4,Clear
,16090,101730,,17.010082757969,,KTEB 301851Z 32011G16KT 10SM CLR 19/M07 A3004 RMK AO2 SLP171 T01891067,2022-04-30T18:51:00+00:00,,3,18.9,,,,-6.7,,,101710,,Clear
,16090,101970,10,92.285708289197,,KJFK 030651Z 01008KT 10SM OVC012 11/09 A3011 RMK AO2 SLP195 T01060094,2022-05-03T06:51:00+00:00,,7,10.6,,,,9.4,,,101950,14.76,Cloudy
,9660,101590,40,85.680481185637,,KLGA 041251Z 04005KT 6SM -DZ BR BKN007 OVC010 11/08 A3000 RMK AO2 RAE51DZB51 PRESRR SLP160 P0000 T01060083,2022-05-04T12:51:00+00:00,,9,10.6,,0,,8.3,,,101600,9.36,Light Drizzle and Fog/Mist
,16090,102070,50,34.040066337782,,KLGA 011351Z 05008KT 10SM FEW200 SCT250 14/M02 A3014 RMK AO2 SLP206 T01391017,2022-05-01T13:51:00+00:00,,9,13.9,,,,-1.7,,,102060,14.76,Partly Cloudy
,16090,102130,110,71.510261021778,,KJFK 032151Z 11010KT 10SM SCT023 BKN160 OVC250 12/07 A3016 RMK AO2 SLP214 T01220072,2022-05-03T21:51:00+00:00,,7,12.2,,,,7.2,,,102140,18.36,Cloudy
,16090,101830,200,63.745815259196,,KLGA 020251Z 20009KT 10SM -RA OVC100 13/06 A3007 RMK AO2 RAB36 SLP183 P0000 60000 T01280061 53008 $,2022-05-02T02:51:00+00:00,,9,12.8,,0,0,6.1,,,101830,16.56,Light Rain
,16090,101560,180,64.375172704717,,KEWR 060751Z 18005KT 10SM BKN130 OVC250 16/09 A2999 RMK AO2 SLP156 T01560089,2022-05-06T07:51:00+00:00,,9,15.6,,,,8.9,,,101560,9.36,Cloudy
,11270,101690,,92.875368778185,,KNYC 041043Z AUTO VRB03KT 7SM OVC009 10/09 A3003 RMK AO2 RAE43 CIG 006V012 P0001 T01000089 $,2022-05-04T10:43:00+00:00,,27,10,,0,,8.9,,,,5.4,Cloudy
,16090,102030,110,62.095793682011,,KTEB 032051Z 11009G14KT 10SM CLR 15/08 A3013 RMK AO2 SLP204 T01500078 56005,2022-05-03T20:51:00+00:00,,3,15,,,,7.8,,,102040,16.56,Clear
,16090,102070,90,62.095793682011,,KTEB 031951Z 09009KT 10SM CLR 15/08 A3014 RMK AO2 SLP205 T01500078,2022-05-03T19:51:00+00:00,,3,15,,,,7.8,,,102050,16.56,Clear
,16090,102030,,29.107679873061,,,2022-05-01T15:51:00+00:00,,3,18.3,,,,0,,,102010,11.16,
,16090,,,,,KNYC 050751Z AUTO 01007KT 10SM OVC075 14/10 A3005 RMK AO2 SLP168 T01440100 $,2022-05-05T07:51:00+00:00,,27,,,,,,,,,,Cloudy
,16090,101800,190,28.035097245323,,KTEB 011951Z 19008KT 10SM CLR 19/00 A3006 RMK AO2 SLP177 T01890000,2022-05-01T19:51:00+00:00,,3,18.9,,,,0,,,101770,14.76,Clear
,16090,101660,340,13.230543437034,,KTEB 292351Z 34009KT 10SM CLR 14/M14 A3002 RMK AO2 SLP166 T01391139 10167 20139 53012,2022-04-29T23:51:00+00:00,,3,13.9,,,,-13.9,,,101660,16.56,Clear
,16090,102070,30,34.539706012759,,KEWR 011351Z 03004KT 10SM BKN250 16/00 A3014 RMK AO2 SLP205 T01560000,2022-05-01T13:51:00+00:00,,9,15.6,,,,0,,,102050,7.56,Mostly Cloudy
,16090,101760,120,69.101022929,,KJFK 020751Z 12006KT 10SM OVC026 12/07 A3005 RMK AO2 SLP174 T01220067,2022-05-02T07:51:00+00:00,,7,12.2,,,,6.7,,,101740,11.16,Cloudy
,16090,102030,,68.750377788705,,KNYC 040051Z AUTO VRB04KT 10SM OVC022 13/07 A3013 RMK AO2 SLP193 T01280072 $,2022-05-04T00:51:00+00:00,,27,12.8,,,,7.2,,,101930,7.56,Cloudy
,16090,101560,,11.024410947737,,KTEB 292151Z 35013G28KT 10SM CLR 16/M14 A2999 RMK AO2 PK WND 32028/2120 SLP155 T01611144,2022-04-29T21:51:00+00:00,,3,16.1,,,,-14.4,,51.84,101550,,Clear
,8050,101690,50,89.22963410269,,KLGA 022139Z 05012KT 5SM -DZ BR BKN006 OVC011 11/09 A3003 RMK AO2 RAE2052DZB18 CIG 004V010 P0000 T01060089,2022-05-02T21:39:00+00:00,,9,10.6,,0,,8.9,,,,22.32,Light Drizzle and Fog/Mist
,16090,101930,,24.779161776987,,KNYC 011951Z AUTO VRB06G16KT 10SM CLR 18/M02 A3010 RMK AO2 SLP184 T01831022 $,2022-05-01T19:51:00+00:00,,27,18.3,,,,-2.2,,,101840,11.16,Clear
,16090,102030,310,20.799027694659,,,2022-04-30T14:51:00+00:00,,7,14.4,,,,-7.8,,,102010,24.12,
,16090,102100,50,59.604608806527,,KLGA 031951Z 05011KT 10SM SCT025 BKN160 BKN250 15/07 A3015 RMK AO2 SLP210 T01500072 $,2022-05-03T19:51:00+00:00,,9,15,,,,7.2,,,102100,20.52,Mostly Cloudy
,16090,101860,180,24.621632849407,,KLGA 010051Z 18006KT 10SM FEW250 14/M06 A3008 RMK AO2 SLP186 T01441056,2022-05-01T00:51:00+00:00,,9,14.4,,,,-5.6,,,101860,11.16,Mostly Clear
,16090,102240,,69.322490896102,,KNYC 031251Z AUTO VRB04KT 10SM FEW020 13/08 A3019 RMK AO2 SLP214 T01330078 $,2022-05-03T12:51:00+00:00,,27,13.3,,,,7.8,,,102140,7.56,Mostly Clear
,16090,101660,200,50.055164265978,,KLGA 060151Z 20004KT 10SM FEW150 BKN200 BKN250 17/07 A3002 RMK AO2 SLP165 T01720067,2022-05-06T01:51:00+00:00,,9,17.2,,,,6.7,,,101650,7.56,Mostly Cloudy
,16090,102100,360,80.266011265195,,KTEB 031151Z 36006KT 10SM SCT022 12/09 A3015 RMK AO2 SLP209 70001 T01220089 10122 20106 53010,2022-05-03T11:51:00+00:00,,3,12.2,,,,8.9,,,102090,11.16,Partly Cloudy
,16090,102000,340,36.206278559192,,KTEB 300851Z 34003KT 10SM CLR 06/M08 A3012 RMK AO2 SLP200 T00611078 56001,2022-04-30T08:51:00+00:00,,3,6.1,,,,-7.8,5.2013211024783335,,102000,5.4,Clear
,6440,101630,,92.934812010123,,KJFK 021051Z 13020G25KT 4SM R04R/6000VP6000FT TSRA BR BKN011CB OVC036 11/10 A3001 RMK AO2 LTG DSNT SW RAE14B16 TSB15 SLP163 OCNL LTGICCG NE-S TS NE-S MOV E P0037 T01110100,2022-05-02T10:51:00+00:00,,7,11.1,,0.01,,10,,,101630,,Thunderstorms and Rain and Fog/Mist
,16090,102170,50,61.955883433798,,KLGA 031551Z 05010KT 10SM SCT021 BKN250 14/07 A3017 RMK AO2 SLP217 T01440072 $,2022-05-03T15:51:00+00:00,,9,14.4,,,,7.2,,,102170,18.36,Mostly Cloudy
,16090,101930,130,28.440639819079,,KNYC 012151Z AUTO 13007KT 10SM CLR 17/M02 A3010 RMK AO2 SLP185 T01671017 $,2022-05-01T21:51:00+00:00,,27,16.7,,,,-1.7,,,101850,12.96,Clear
,16090,101630,10,77.511150721711,,KJFK 050551Z 01009KT 10SM OVC035 15/11 A3001 RMK AO2 SLP162 T01500111 10156 20128 50002,2022-05-05T05:51:00+00:00,,7,15,,,,11.1,,,101620,16.56,Cloudy
,16090,101560,170,61.814618307198,,KTEB 060451Z 17006KT 10SM CLR 16/08 A2999 RMK AO2 SLP154 T01560083 402780122,2022-05-06T04:51:00+00:00,,3,15.6,,,,8.3,,,101540,11.16,
,16090,101930,360,65.447630659771,,KTEB 010651Z 36004KT 10SM CLR 08/02 A3010 RMK AO2 SLP193 T00830022,2022-05-01T06:51:00+00:00,,3,8.3,,,,2.2,7.125212716236111,,101930,7.56,Clear
,16090,101900,20,83.703963952178,,KEWR 030338Z 02009KT 10SM FEW008 OVC014 13/11 A3009 RMK AO2 T01330106 $,2022-05-03T03:38:00+00:00,,9,13.3,,,,10.6,,,,16.56,Cloudy
,16090,102000,170,29.107679873061,,KLGA 011651Z 17009KT 10SM FEW170 SCT200 BKN250 18/00 A3012 RMK AO2 SLP197 T01830000,2022-05-01T16:51:00+00:00,,9,18.3,,,,0,,,101970,16.56,Mostly Cloudy
,16090,102070,20,,,KTEB 011151Z 02005KT 10SM CLR 10/01 A3014 RMK AO2 SLP205 T01000006 10100 20056 53009,2022-05-01T11:51:00+00:00,,3,,,,,0.6,,,102050,9.36,Clear
,16090,101420,0,67.486205867395,,KLGA 050051Z 00000KT 10SM FEW060 BKN100 18/12 A2995 RMK AO2 SLP142 T01780117,2022-05-05T00:51:00+00:00,,9,17.8,,,,11.7,,,101420,0,Mostly Cloudy
,16090,101970,120,74.098802959788,,,2022-05-02T03:51:00+00:00,,27,12.8,,0,,8.3,,,101860,5.4,
,16090,101930,170,43.703134417764,,KJFK 012051Z 17011KT 10SM FEW200 OVC240 14/02 A3010 RMK AO2 SLP192 T01440022 56012,2022-05-01T20:51:00+00:00,,7,14.4,,,,2.2,,,101920,20.52,Cloudy
,16090,101800,,44.825647460854,,KJFK 302151Z 19018KT 10SM CLR 13/01 A3006 RMK AO2 SLP180 T01280011,2022-04-30T21:51:00+00:00,,7,12.8,,,,1.1,,,101800,,
,16090,102000,330,26.721019607216,,KLGA 300551Z 33012KT 10SM CLR 10/M08 A3012 RMK AO2 SLP200 T01001083 10150 20100 50007,2022-04-30T05:51:00+00:00,,9,10,,,,-8.3,,,102000,22.32,Clear
,16090,101800,330,15.804678681764,,KLGA 300051Z 33012KT 10SM CLR 14/M12 A3006 RMK AO2 SLP178 T01391117,2022-04-30T00:51:00+00:00,,9,13.9,,,,-11.7,,,101780,22.32,Clear
,16090,101830,140,23.133966649475,,KEWR 011951Z 14009KT 10SM FEW120 BKN200 BKN250 19/M02 A3007 RMK AO2 SLP182 T01941022,2022-05-01T19:51:00+00:00,,9,19.4,,,,-2.2,,,101820,16.56,Mostly Cloudy
,16090,102100,40,35.719271573835,,KEWR 011251Z 04006KT 10SM SCT250 14/M01 A3015 RMK AO2 SLP207 T01441006,2022-05-01T12:51:00+00:00,,9,14.4,,,,-0.6,,,102070,11.16,Partly Cloudy
,16090,101970,220,62.844418715598,,KEWR 010651Z 22003KT 10SM FEW250 09/02 A3011 RMK AO2 SLP194 T00890022,2022-05-01T06:51:00+00:00,,9,8.9,,,,2.2,8.394346188881666,,101940,5.4,Mostly Clear
,16090,102070,330,23.390549263715,,KEWR 300551Z 33011KT 10SM CLR 10/M10 A3014 RMK AO2 SLP205 T01001100 10161 20100 50008,2022-04-30T05:51:00+00:00,,9,10,,,,-10,,,102050,20.52,Clear
,16090,101290,350,72.636050676412,,KTEB 042051Z 35005KT 10SM OVC013 18/13 A2991 RMK AO2 SLP127 T01830133 56015,2022-05-04T20:51:00+00:00,,3,18.3,,,,13.3,,,101270,9.36,Cloudy
,16090,101690,,9.9867950139417,,KNYC 291851Z AUTO 10SM CLR 16/M16 A3003 RMK AO2 SLP159 T01611156 $,2022-04-29T18:51:00+00:00,,27,16.1,,,,-15.6,,,101590,,Clear
,2010,101690,50,81.879846925107,,KLGA 021747Z 05013KT 1 1/4SM BR OVC003 12/09 A3003 RMK AO2 RAE19 P0001,2022-05-02T17:47:00+00:00,,9,12,,0,,9,,,,24.12,Fog/Mist
,16090,101930,190,62.844418715598,,KEWR 010551Z 19004KT 10SM FEW250 09/02 A3010 RMK AO2 SLP193 T00890022 10161 20089 50002,2022-05-01T05:51:00+00:00,,9,8.9,,,,2.2,7.826651795051111,,101930,7.56,Mostly Clear
,16090,101590,0,93.025244755636,,,2022-05-05T02:51:00+00:00,,7,12.8,,,,11.7,,,101600,0,Cloudy
,6440,101760,70,86.313549377715,,KTEB 021251Z 07006KT 4SM BR OVC012 11/09 A3005 RMK AO2 SLP176 T01110089,2022-05-02T12:51:00+00:00,,3,11.1,,,,8.9,,,101760,11.16,Fog/Mist
,16090,101930,70,82.880385175758,,KTEB 030751Z 07003KT 10SM OVC013 11/08 A3010 RMK AO2 SLP194 T01110083,2022-05-03T07:51:00+00:00,,3,11.1,,,,8.3,,,101940,5.4,Cloudy
0,6440,101560,30,74.8764630203,,,2022-05-06T11:51:00+00:00,,9,14.4,,0,,10,,,101540,7.56,Heavy Rain
,16090,102000,320,15.702910048146,,,2022-04-30T14:51:00+00:00,,9,16.1,,,,-10,,,102000,16.56,
,16090,102130,40,58.142820591561,,KEWR 031551Z 04005KT 10SM FEW023 SCT220 BKN250 17/09 A3016 RMK AO2 SLP214 T01720089,2022-05-03T15:51:00+00:00,,9,17.2,,,,8.9,,,102140,9.36,Mostly Cloudy
,12870,101800,40,89.317597936371,,KTEB 030051Z 04005KT 8SM OVC010 12/10 A3006 RMK AO2 CIG 007V011 SLP179 T01170100,2022-05-03T00:51:00+00:00,,3,11.7,,,,10,,,101790,9.36,Cloudy
,16090,101520,,81.879846925107,,KEWR 041145Z VRB04KT 10SM -RA BKN009 BKN025 OVC090 12/09 A2998 RMK AO2 P0001,2022-05-04T11:45:00+00:00,,9,12,,0,,9,,,,7.56,Light Rain
0,16090,101520,170,68.973277430726,,,2022-05-06T11:51:00+00:00,,9,13.9,,0,,8.3,,,101500,12.96,Light Rain
,16090,101730,40,89.22963410269,,KLGA 022235Z 04008KT 10SM OVC006 11/09 A3004 RMK AO2 DZE16 P0000 T01060089,2022-05-02T22:35:00+00:00,,9,10.6,,0,,8.9,,,,14.76,Cloudy
,16090,102130,60,71.717959085678,,KTEB 031251Z 06009G18KT 10SM FEW021 13/08 A3016 RMK AO2 SLP211 T01330083,2022-05-03T12:51:00+00:00,,3,13.3,,,,8.3,,,102110,16.56,Mostly Clear
,16090,101930,190,26.61507912443,,,2022-05-01T01:51:00+00:00,,9,13.9,,,,-5,,,101910,12.96,
,16090,102170,0,32.808572074644,,KNYC 011251Z AUTO 00000KT 10SM CLR 14/M02 A3017 RMK AO2 SLP206 T01391022 $,2022-05-01T12:51:00+00:00,,27,13.9,,,,-2.2,,,102060,0,Clear
,16090,101930,,86.423356721086,,KNYC 030324Z AUTO VRB04KT 10SM OVC014 12/10 A3010 RMK AO2 T01220100 $,2022-05-03T03:24:00+00:00,,27,12.2,,,,10,,,,7.56,Cloudy
,16090,,,,,KTEB 031031Z 03005KT 10SM OVC015 11/08 A3013 RMK AO2 T01110083,2022-05-03T10:31:00+00:00,,3,,,,,,,,,,Cloudy
,16090,102030,0,86.313549377715,,KNYC 030551Z AUTO 00000KT 10SM OVC014 11/09 A3013 RMK AO2 SLP195 T01110089 10122 20111 51006 $,2022-05-03T05:51:00+00:00,,27,11.1,,,,8.9,,,101950,0,Cloudy
,16090,101800,150,63.994810864366,,KEWR 020051Z 15008KT 10SM FEW070 BKN130 OVC180 14/07 A3006 RMK AO2 SLP178 T01390072,2022-05-02T00:51:00+00:00,,9,13.9,,,,7.2,,,101780,14.76,Cloudy
,16090,101970,20,83.703963952178,,KEWR 030451Z 02007KT 10SM OVC012 13/11 A3011 RMK AO2 SLP195 T01330106 401440117 $,2022-05-03T04:51:00+00:00,,9,13.3,,,,10.6,,,101950,12.96,Cloudy
,16090,101360,230,75.345564108887,,KJFK 042051Z 23008KT 10SM SCT055 17/13 A2993 RMK AO2 SLP134 T01720128 56013,2022-05-04T20:51:00+00:00,,7,17.2,,,,12.8,,,101340,14.76,Partly Cloudy
,16090,101830,280,71.62381165163,,KEWR 020943Z 28011KT 10SM -TSRA OVC014CB 13/08 A3007 RMK AO2 LTG DSNT SW RAB36 TSB42 PRESRR OCNL LTGIC VC W TS VS W MOV E P0000 T01280078,2022-05-02T09:43:00+00:00,,9,12.8,,0,,7.8,,,,20.52,Thunderstorms and Rain
,16090,102130,360,85.680481185637,,KNYC 030951Z AUTO 36006KT 10SM FEW014 11/08 A3016 RMK AO2 SLP203 T01060083 $,2022-05-03T09:51:00+00:00,,27,10.6,,,,8.3,,,102030,11.16,Mostly Clear
,16090,,,,,KEWR 050406Z 33006KT 10SM BKN023 BKN045 OVC070 18/12 A3002 RMK AO2 T01780122,2022-05-05T04:06:00+00:00,,9,,,,,,,,,,Cloudy
,16090,101630,,8.4982647495426,,KEWR 292251Z 35023KT 10SM CLR 17/M17 A3001 RMK AO2 PK WND 34026/2251 SLP162 T01721167,2022-04-29T22:51:00+00:00,,9,17.2,,,,-16.7,,,101620,,Clear
,16090,101690,60,96.056307711081,,KJFK 040951Z 06005KT 10SM OVC006 10/09 A3003 RMK AO2 SLP170 T01000094,2022-05-04T09:51:00+00:00,,7,10,,,,9.4,,,101700,9.36,Cloudy
,16090,101760,50,14.572139794963,,KNYC 301951Z AUTO 05005KT 10SM CLR 19/M08 A3005 RMK AO2 SLP168 T01941083 $,2022-04-30T19:51:00+00:00,,27,19.4,,,,-8.3,,,101680,9.36,Clear
,16090,101520,200,53.677597406478,,KLGA 060651Z 20005KT 10SM BKN140 OVC250 16/07 A2998 RMK AO2 SLP151 T01610067,2022-05-06T06:51:00+00:00,,9,16.1,,,,6.7,,,101510,9.36,Cloudy
,11270,101730,110,86.313549377715,,KJFK 020951Z 11009KT 7SM -RA OVC015 11/09 A3004 RMK AO2 LTG DSNT SW AND W RAE01B47 SLP171 P0000 T01110089,2022-05-02T09:51:00+00:00,,7,11.1,,0,,8.9,,,101710,16.56,Light Rain
,16090,101970,60,65.581393779178,,,2022-05-01T08:51:00+00:00,,9,8.9,,,,2.8,7.450127322571666,,101950,9.36,
,16090,101830,190,77.073390888716,,KTEB 020251Z 19005KT 10SM -RA OVC090 12/08 A3007 RMK AO2 RAB03 SLP183 P0000 60000 T01220083 53013,2022-05-02T02:51:00+00:00,,3,12.2,,0,0,8.3,,,101830,9.36,Light Rain
,8050,101860,120,96.688464288609,,KJFK 040651Z 12009KT 5SM -DZ BR OVC005 09/09 A3008 RMK AO2 SLP184 P0000 T00940089,2022-05-04T06:51:00+00:00,,7,9.4,,0,,8.9,6.999965789968333,,101840,16.56,Light Drizzle and Fog/Mist
,16090,101730,90,61.838774319798,,KEWR 020651Z 09005KT 10SM OVC028 14/07 A3004 RMK AO2 SLP173 T01390067,2022-05-02T06:51:00+00:00,,9,13.9,,,,6.7,,,101730,9.36,Cloudy
,16090,101860,20,83.703963952178,,KEWR 030251Z 02008KT 10SM SCT008 OVC015 13/11 A3008 RMK AO2 SLP186 T01330106 51010 $,2022-05-03T02:51:00+00:00,,9,13.3,,,,10.6,,,101860,14.76,Cloudy
,16090,101660,140,86.423356721086,,KJFK 060451Z 14004KT 10SM OVC180 12/10 A3002 RMK AO2 SLP166 T01220100 402110122,2022-05-06T04:51:00+00:00,,7,12.2,,,,10,,,101660,7.56,
,16090,101690,20,74.769652314474,,KEWR 050451Z 02009KT 10SM BKN019 OVC045 17/12 A3003 RMK AO2 SLP167 T01670122 402000106,2022-05-05T04:51:00+00:00,,9,16.7,,,,12.2,,,101670,16.56,Cloudy
,16090,101970,20,65.087507484788,,KEWR 010951Z 02007KT 10SM FEW180 07/01 A3011 RMK AO2 SLP197 T00670006,2022-05-01T09:51:00+00:00,,9,6.7,,,,0.6,4.170657713322222,,101970,12.96,Mostly Clear
,16090,102130,340,28.77083553879,,KEWR 301051Z 34006KT 10SM CLR 09/M08 A3016 RMK AO2 SLP211 T00891083,2022-04-30T10:51:00+00:00,,9,8.9,,,,-8.3,7.13022896455,,102110,11.16,Clear
,16090,101630,90,28.824864741658,20.67820480158778,KLGA 052051Z 09005KT 10SM FEW060 SCT180 BKN250 22/03 A3001 RMK AO2 SLP161 T02170028 58019,2022-05-05T20:51:00+00:00,,9,21.7,,,,2.8,,,101610,9.36,Mostly Cloudy
,16090,101900,0,65.087507484788,,KTEB 010751Z 00000KT 10SM CLR 07/01 A3009 RMK AO2 SLP191 T00670006,2022-05-01T07:51:00+00:00,,3,6.7,,,,0.6,,,101910,0,Clear
,16090,101320,270,70.302206007068,,KEWR 042051Z 27008KT 10SM FEW018 SCT065 BKN110 18/13 A2992 RMK AO2 SLP130 T01830128 56015,2022-05-04T20:51:00+00:00,,9,18.3,,,,12.8,,,101300,14.76,Mostly Cloudy
,16090,101560,50,77.935757394379,,,2022-05-05T02:51:00+00:00,,9,14.4,,,,10.6,,,101560,9.36,Cloudy
,16090,101970,0,24.48191577848,,KNYC 010051Z AUTO 00000KT 10SM CLR 14/M06 A3011 RMK AO2 SLP188 T01391061 $,2022-05-01T00:51:00+00:00,,27,13.9,,,,-6.1,,,101880,0,Clear
,6440,102000,120,92.842632704448,,KJFK 040351Z 12009KT 4SM -DZ BR OVC005 09/08 A3012 RMK AO2 DZB39 SLP200 P0000 T00940083,2022-05-04T03:51:00+00:00,,7,9.4,,0,,8.3,6.999965789968333,,102000,16.56,Light Drizzle and Fog/Mist
,16090,102170,110,69.322490896102,,KNYC 032251Z AUTO 11006KT 10SM OVC024 13/08 A3017 RMK AO2 SLP207 T01330078 $,2022-05-03T22:51:00+00:00,,27,13.3,,,,7.8,,,102070,11.16,Cloudy
,9660,101590,50,85.680481185637,,KLGA 041051Z 05007KT 6SM -RA BR SCT007 OVC010 11/08 A3000 RMK AO2 SLP159 P0001 T01060083,2022-05-04T10:51:00+00:00,,9,10.6,,0,,8.3,,,101590,12.96,Light Rain and Fog/Mist
,16090,102070,20,54.178265574709,,KNYC 010951Z AUTO 02003KT 10SM CLR 09/01 A3014 RMK AO2 SLP197 T00940006 $,2022-05-01T09:51:00+00:00,,27,9.4,,,,0.6,8.964529240025,,101970,5.4,Clear
,16090,102030,320,25.144800024474,,KLGA 301351Z 32009KT 10SM CLR 12/M07 A3013 RMK AO2 SLP203 T01221072,2022-04-30T13:51:00+00:00,,9,12.2,,,,-7.2,,,102030,16.56,Clear
,16090,102130,320,23.093202094656,,KEWR 301251Z 32007KT 10SM CLR 12/M08 A3016 RMK AO2 SLP212 T01221083,2022-04-30T12:51:00+00:00,,9,12.2,,,,-8.3,,,102120,12.96,Clear
,16090,101730,190,64.241540272317,,KJFK 052251Z 19012KT 10SM FEW060 BKN230 15/08 A3004 RMK AO2 SLP173 T01500083,2022-05-05T22:51:00+00:00,,7,15,,,,8.3,,,101730,22.32,Mostly Cloudy
,4020,101730,80,92.966926628606,,KJFK 021637Z 08013KT 2 1/2SM -DZ BR OVC007 12/11 A3004 RMK AO2 SFC VIS 3 P0000 T01170106,2022-05-02T16:37:00+00:00,,7,11.7,,0,,10.6,,,,24.12,Light Drizzle and Fog/Mist
,16090,101690,90,92.285708289197,,KEWR 040851Z 09003KT 10SM -RA BKN006 BKN010 OVC032 11/09 A3003 RMK AO2 SLP167 P0000 60007 T01060094 58019,2022-05-04T08:51:00+00:00,,9,10.6,,0,0,9.4,,,101670,5.4,Light Rain
,16090,102170,40,62.350547871685,,KEWR 031351Z 04008KT 10SM FEW020 BKN250 16/09 A3017 RMK AO2 SLP215 T01610089,2022-05-03T13:51:00+00:00,,9,16.1,,,,8.9,,,102150,14.76,Mostly Cloudy
,16090,102030,30,89.22963410269,,KJFK 030851Z 03005KT 10SM OVC011 11/09 A3013 RMK AO2 SLP202 T01060089 53006,2022-05-03T08:51:00+00:00,,7,10.6,,,,8.9,,,102020,9.36,Cloudy
,12870,101630,60,93.025244755636,,KJFK 021851Z 06008KT 8SM OVC005 13/12 A3001 RMK AO2 DZE48 SLP163 P0000 T01280117,2022-05-02T18:51:00+00:00,,7,12.8,,0,,11.7,,,101630,14.76,Cloudy
,16090,101520,180,66.775731951175,,KTEB 060751Z 18005KT 10SM CLR 14/08 A2998 RMK AO2 SLP152 T01440083,2022-05-06T07:51:00+00:00,,3,14.4,,,,8.3,,,101520,9.36,Clear
,6440,101730,80,92.966926628606,,KNYC 021834Z AUTO 08006KT 4SM BR OVC005 12/11 A3004 RMK AO2 T01170106 $,2022-05-02T18:34:00+00:00,,27,11.7,,,,10.6,,,,11.16,Fog/Mist
,1610,101800,50,92.993524010865,,KNYC 021634Z AUTO 05007KT 1SM -RA BR OVC004 12/11 A3006 RMK AO2 P0000 T01220111 $,2022-05-02T16:34:00+00:00,,27,12.2,,0,,11.1,,,,12.96,Light Rain and Fog/Mist
,16090,102030,40,25.402925555202,,KLGA 011551Z 04006KT 10SM FEW170 SCT200 BKN250 17/M03 A3013 RMK AO2 SLP203 T01721028,2022-05-01T15:51:00+00:00,,9,17.2,,,,-2.8,,,102030,11.16,Mostly Cloudy
,16090,101660,360,74.8764630203,,KJFK 050751Z 36014KT 10SM FEW045 BKN075 14/10 A3002 RMK AO2 SLP166 T01440100,2022-05-05T07:51:00+00:00,,7,14.4,,,,10,,,101660,25.92,Mostly Cloudy
,2410,101800,90,96.688464288609,,KJFK 040817Z 09005KT 1 1/2SM -RA BR OVC004 09/09 A3006 RMK AO2 SFC VIS 5 P0002 T00940089,2022-05-04T08:17:00+00:00,,7,9.4,,0,,8.9,8.044177233233333,,,9.36,Light Rain and Fog/Mist
,16090,102070,320,18.36906482899,,KEWR 301351Z 32009KT 10SM CLR 15/M09 A3014 RMK AO2 SLP206 T01501089,2022-04-30T13:51:00+00:00,,9,15,,,,-8.9,,,102060,16.56,Clear
,16090,101830,170,22.540584736594,,KLGA 012051Z 17009KT 10SM FEW140 SCT210 BKN250 17/M04 A3007 RMK AO2 SLP183 T01721044 56010 $,2022-05-01T20:51:00+00:00,,9,17.2,,,,-4.4,,,101830,16.56,Mostly Cloudy
,16090,101760,10,12.755888763308,,KEWR 301851Z 01007G19KT 10SM CLR 19/M10 A3005 RMK AO2 SLP175 T01941100,2022-04-30T18:51:00+00:00,,9,19.4,,,,-10,,35.28,101750,12.96,Clear
,16090,102070,0,86.313549377715,,KNYC 030751Z AUTO 00000KT 10SM OVC013 11/09 A3014 RMK AO2 SLP197 T01110089 $,2022-05-03T07:51:00+00:00,,27,11.1,,,,8.9,,,101970,0,Cloudy
,16090,,,,,KLGA 031258Z 07010KT 10SM BKN019 13/08 A3017 RMK AO2 T01330083,2022-05-03T12:58:00+00:00,,9,,,,,,,,,,Mostly Cloudy
,12870,101660,340,86.590548811883,,KEWR 021951Z 34006KT 8SM OVC007 14/12 A3002 RMK AO2 SLP166 T01390117 $,2022-05-02T19:51:00+00:00,,9,13.9,,,,11.7,,,101660,11.16,Cloudy
,16090,101290,,62.988932937374,,KLGA 042251Z VRB03KT 10SM FEW027 SCT140 19/12 A2991 RMK AO2 SLP128 T01890117,2022-05-04T22:51:00+00:00,,9,18.9,,,,11.7,,,101280,5.4,Partly Cloudy
,16090,101860,120,85.680481185637,,KTEB 040451Z 12006KT 10SM OVC011 11/08 A3008 RMK AO2 SLP187 T01060083 401720106,2022-05-04T04:51:00+00:00,,3,10.6,,,,8.3,,,101870,11.16,Cloudy
,16090,101460,180,89.404510853386,,KJFK 050051Z 18007KT 10SM FEW080 BKN110 13/11 A2996 RMK AO2 SLP144 T01280111,2022-05-05T00:51:00+00:00,,7,12.8,,,,11.1,,,101440,12.96,Mostly Cloudy
,16090,101660,310,,,KNYC 292151Z AUTO 31012G20KT 10SM CLR 16/M17 A3002 RMK AO2 SLP157 T01611167 $,2022-04-29T21:51:00+00:00,,27,16.1,,,,,,37.08,101570,22.32,Clear
,8050,101460,60,85.795186713907,,KLGA 041727Z 06007KT 5SM BR SCT007 OVC013 12/09 A2996 RMK AO2 T01170094 $,2022-05-04T17:27:00+00:00,,9,11.7,,,,9.4,,,,12.96,Fog/Mist
,16090,101930,80,77.073390888716,,KTEB 040051Z 08006KT 10SM OVC022 12/08 A3010 RMK AO2 SLP191 T01220083,2022-05-04T00:51:00+00:00,,3,12.2,,,,8.3,,,101910,11.16,Cloudy
0,11270,101630,0,86.590548811883,,,2022-05-06T11:51:00+00:00,,27,13.9,,0,,11.7,,,101520,0,Light Rain
,9660,101630,0,96.731932441167,,KJFK 041251Z 00000KT 6SM -DZ BR OVC004 11/11 A3001 RMK AO2 PRESRR SLP163 P0000 T01110106,2022-05-04T12:51:00+00:00,,7,11.1,,0,,10.6,,,101630,0,Light Drizzle and Fog/Mist
,16090,101970,360,48.333032223653,,KJFK 051451Z 36008KT 10SM FEW046 FEW085 SCT250 18/07 A3011 RMK AO2 SLP195 T01830072 51011,2022-05-05T14:51:00+00:00,,7,18.3,,,,7.2,,,101950,14.76,Partly Cloudy
0,16090,101760,20,92.966926628606,,KTEB 022351Z 02005KT 10SM BR OVC006 12/11 A3005 RMK AO2 SLP175 60000 T01170106 10128 20117 53010,2022-05-02T23:51:00+00:00,,3,11.7,,,,10.6,,,101750,9.36,Fog/Mist
,16090,102000,,27.343368294552,,KEWR 011651Z VRB04KT 10SM FEW160 SCT200 BKN250 20/01 A3012 RMK AO2 SLP199 T02000006,2022-05-01T16:51:00+00:00,,9,20,,,,0.6,,,101990,7.56,Mostly Cloudy
,8050,101630,0,89.954432820851,,KNYC 041551Z AUTO 00000KT 5SM BR OVC008 12/11 A3001 RMK AO2 SLP155 T01220106 $,2022-05-04T15:51:00+00:00,,27,12.2,,,,10.6,,,101550,0,Fog/Mist
,16090,102200,50,74.499044679056,,KNYC 031151Z AUTO 05008KT 020V080 10SM FEW018 12/08 A3018 RMK AO2 SLP212 70001 T01220078 10122 20106 53009 $,2022-05-03T11:51:00+00:00,,27,12.2,,,,7.8,,,102120,14.76,Mostly Clear
,12870,,,,,KJFK 021011Z 10008KT 8SM -RA BKN012 OVC026 11/09 A3005 RMK AO2 LTG DSNT SW-NW OCNL LTGIC DSNT SW-DSNT NW CB DSNT SW-DSNT NW MOV E P0000 T01060094,2022-05-02T10:11:00+00:00,,7,,,0,,,,,,,Light Rain
,16090,,,,,KNYC 050051Z AUTO 30003KT 10SM BKN036 OVC110 17/13 A2998 RMK AO2 SLP144 T01720128 $,2022-05-05T00:51:00+00:00,,27,,,,,,,,,,Cloudy
,16090,101390,0,77.679888272611,,KEWR 041851Z 00000KT 10SM BKN012 OVC050 16/12 A2994 RMK AO2 SLP138 T01610122,2022-05-04T18:51:00+00:00,,9,16.1,,,,12.2,,,101380,0,Cloudy
,16090,101590,,11.857360169356,,KLGA 292251Z 32018G24KT 10SM CLR 16/M14 A3000 RMK AO2 SLP157 T01561139,2022-04-29T22:51:00+00:00,,9,15.6,,,,-13.9,,44.64,101570,,Clear
0,8050,101900,120,96.688464288609,,KJFK 040551Z 12007KT 5SM -DZ BR OVC004 09/09 A3009 RMK AO2 SLP189 P0000 60000 T00940089 10106 20094 58013,2022-05-04T05:51:00+00:00,,7,9.4,,0,,8.9,7.46029139726,,101890,12.96,Light Drizzle and Fog/Mist
,16090,101630,10,80.202281999569,,KJFK 050351Z 01008KT 10SM SCT027 BKN070 16/12 A3001 RMK AO2 SLP160 T01560122,2022-05-05T03:51:00+00:00,,7,15.6,,,,12.2,,,101600,14.76,Mostly Cloudy
,16090,101900,30,92.285708289197,,KJFK 030151Z 03009KT 10SM BKN008 11/09 A3009 RMK AO2 SLP188 BKN V SCT T01060094,2022-05-03T01:51:00+00:00,,7,10.6,,,,9.4,,,101880,16.56,Mostly Cloudy
,16090,101930,290,12.988092535345,,KNYC 291551Z AUTO 29008G16KT 260V330 10SM CLR 13/M15 A3010 RMK AO2 SLP184 T01281150 $,2022-04-29T15:51:00+00:00,,27,12.8,,,,-15,,29.52,101840,14.76,Clear
,16090,101900,180,45.99379467218,,KTEB 010351Z 18004KT 10SM CLR 10/M01 A3009 RMK AO2 SLP190 T01001011,2022-05-01T03:51:00+00:00,,3,10,,,,-1.1,,,101900,7.56,Clear
,16090,,,,,KEWR 030633Z 02006KT 10SM OVC015 13/10 A3011 RMK AO2 T01280100 $,2022-05-03T06:33:00+00:00,,9,,,,,,,,,,Cloudy
,16090,101730,30,35.0739087745,20.84137428466722,KTEB 051851Z 03005KT 10SM CLR 22/06 A3004 RMK AO2 SLP171 T02170056,2022-05-05T18:51:00+00:00,,3,21.7,,,,5.6,,,101710,9.36,Clear
,16090,101730,50,89.22963410269,,KLGA 022251Z 05009KT 10SM OVC005 11/09 A3004 RMK AO2 DZE16 SLP172 P0000 T01060089,2022-05-02T22:51:00+00:00,,9,10.6,,0,,8.9,,,101720,16.56,Cloudy
,16090,,,,,KLGA 030107Z 05007KT 10SM OVC010 11/09 A3007 RMK AO2 CIG 007V013 T01110094,2022-05-03T01:07:00+00:00,,9,,,,,,,,,,Cloudy
,16090,101590,0,93.025244755636,,,2022-05-05T02:58:00+00:00,,7,12.8,,,,11.7,,,,0,Cloudy
,16090,102100,320,32.954291853183,,KLGA 301151Z 32008KT 10SM CLR 09/M06 A3015 RMK AO2 SLP209 T00941061 10100 20083 51010,2022-04-30T11:51:00+00:00,,9,9.4,,,,-6.1,7.2183083629522224,,102090,14.76,Clear
,16090,101690,130,36.071885398896,,KTEB 012351Z 13008KT 10SM CLR 16/01 A3003 RMK AO2 SLP170 T01560006 10217 20156 58005,2022-05-01T23:51:00+00:00,,3,15.6,,,,0.6,,,101700,14.76,Clear
,12870,101490,50,80.650223331602,,KEWR 061351Z 05004KT 8SM -RA FEW015 SCT039 BKN050 15/12 A2997 RMK AO2 SLP146 P0002 T01500117,2022-05-06T13:51:00+00:00,,9,15,,0,,11.7,,,101460,7.56,Light Rain
,16090,101290,260,65.335081827887,,KEWR 042151Z 26008KT 10SM FEW020 SCT095 BKN120 20/13 A2991 RMK AO2 SLP128 T02000133,2022-05-04T21:51:00+00:00,,9,20,,,,13.3,,,101280,14.76,Mostly Cloudy
0,8050,101520,0,83.220266513554,,KNYC 041751Z AUTO 00000KT 5SM HZ BKN012 OVC043 14/11 A2998 RMK AO2 SLP145 60003 T01390111 10139 20100 58013 $,2022-05-04T17:51:00+00:00,,27,13.9,,,,11.1,,,101450,0,Haze
,16090,101660,,71.62381165163,,KEWR 020851Z VRB04KT 10SM BKN023 OVC060 13/08 A3002 RMK AO2 RAE28 SLP165 P0002 60002 T01280078 58013,2022-05-02T08:51:00+00:00,,9,12.8,,0,0,7.8,,,101650,7.56,Cloudy
,16090,102000,30,82.880385175758,,KLGA 030851Z 03003KT 10SM OVC012 11/08 A3012 RMK AO2 SLP199 T01110083 53006,2022-05-03T08:51:00+00:00,,9,11.1,,,,8.3,,,101990,5.4,Cloudy
,11270,101760,50,89.317597936371,,KNYC 021951Z AUTO 05005KT 7SM OVC005 12/10 A3005 RMK AO2 SLP165 T01170100 $,2022-05-02T19:51:00+00:00,,27,11.7,,,,10,,,101650,9.36,Cloudy
,16090,101420,290,77.155040268598,,KJFK 041846Z 29004KT 10SM FEW012 BKN050 OVC110 16/12 A2995 RMK AO2,2022-05-04T18:46:00+00:00,,7,16,,,,12,,,,7.56,Cloudy
,16090,101690,350,80.418244090481,,KTEB 050851Z 35003KT 10SM FEW075 13/10 A3003 RMK AO2 SLP167 T01330100 53006,2022-05-05T08:51:00+00:00,,3,13.3,,,,10,,,101670,5.4,Mostly Clear
,16090,101970,340,19.147748033475,,KJFK 300251Z 34015KT 10SM CLR 12/M11 A3011 RMK AO2 SLP194 T01171111 51027,2022-04-30T02:51:00+00:00,,7,11.7,,,,-11.1,,,101940,27.72,Clear
,16090,101590,190,51.666594589758,,KLGA 060451Z 19009KT 10SM BKN180 OVC250 17/07 A3000 RMK AO2 SLP159 T01670067 402170133,2022-05-06T04:51:00+00:00,,9,16.7,,,,6.7,,,101590,16.56,
,16090,102070,330,28.77083553879,,KTEB 300451Z 33007KT 10SM CLR 09/M08 A3014 RMK AO2 SLP204 T00891083 401670033,2022-04-30T04:51:00+00:00,,3,8.9,,,,-8.3,6.851099974308333,,102040,12.96,Clear
,16090,,,,,KNYC 060151Z AUTO 20003KT 10SM CLR 18/06 A3005 RMK AO2 SLP166 T01780061 $,2022-05-06T01:51:00+00:00,,27,,,,,,,,,,Clear
,16090,102070,70,64.545340236686,,KTEB 032151Z 07007KT 10SM FEW028 14/08 A3014 RMK AO2 SLP204 T01440078,2022-05-03T21:51:00+00:00,,3,14.4,,,,7.8,,,102040,12.96,Mostly Clear
,16090,101930,120,25.082426326383,,KEWR 011751Z 12011KT 10SM FEW150 SCT200 BKN250 19/M01 A3010 RMK AO2 SLP193 T01941011 10200 20117 58015,2022-05-01T17:51:00+00:00,,9,19.4,,,,-1.1,,,101930,20.52,Mostly Cloudy
,16090,101900,0,37.394400145295,,KNYC 012251Z AUTO 00000KT 10SM CLR 16/01 A3009 RMK AO2 SLP179 T01560011 $,2022-05-01T22:51:00+00:00,,27,15.6,,,,1.1,,,101790,0,Clear
,16090,102030,,24.174355909253,,KTEB 301351Z 31011KT 10SM CLR 13/M07 A3013 RMK AO2 SLP201 T01281072,2022-04-30T13:51:00+00:00,,3,12.8,,,,-7.2,,,102010,,Clear
,16090,101490,170,64.241540272317,,KTEB 060551Z 17004KT 10SM CLR 15/08 A2997 RMK AO2 SLP148 T01500083 10183 20150 58017,2022-05-06T05:51:00+00:00,,3,15,,,,8.3,,,101480,7.56,Clear
,16090,102030,100,81.750052187031,,KJFK 040145Z 10012KT 10SM BKN011 OVC023 11/08 A3013 RMK AO2,2022-05-04T01:45:00+00:00,,7,11,,,,8,,,,22.32,Cloudy
,14480,101360,210,86.697136399328,,KJFK 041951Z 21005KT 9SM FEW012 BKN045 BKN060 15/13 A2993 RMK AO2 SLP135 T01500128,2022-05-04T19:51:00+00:00,,7,15,,,,12.8,,,101350,9.36,Mostly Cloudy
,16090,101660,190,50.055164265978,,KLGA 060251Z 19006KT 10SM BKN200 BKN250 17/07 A3002 RMK AO2 SLP165 T01720067 55000,2022-05-06T02:51:00+00:00,,9,17.2,,,,6.7,,,101650,11.16,Mostly Cloudy
,16090,101760,0,32.944736131239,22.545779221204445,KNYC 051951Z AUTO 00000KT 10SM CLR 23/06 A3005 RMK AO2 SLP167 T02330061 $,2022-05-05T19:51:00+00:00,,27,23.3,,,,6.1,,,101670,0,Clear
,16090,,,,,KNYC 301851Z AUTO 07003KT 10SM CLR 19/M08 A3007 RMK AO2 SLP175 T01891083 $,2022-04-30T18:51:00+00:00,,27,,,,,,,,,,Clear
0,16090,101460,70,83.015085466252,,KLGA 041751Z 07006KT 10SM BKN015 OVC055 12/09 A2996 RMK AO2 SLP145 60003 T01220094 10122 20106 56007 $,2022-05-04T17:51:00+00:00,,9,12.2,,,,9.4,,,101450,11.16,Cloudy
,16090,,,,,KNYC 042251Z AUTO 00000KT 10SM CLR 18/12 A2994 RMK AO2 SLP130 T01780122 $,2022-05-04T22:51:00+00:00,,27,,,,,,,,,,Clear
,16090,102000,340,23.558600967765,,KJFK 300351Z 34013KT 10SM CLR 11/M09 A3012 RMK AO2 SLP198 T01061094,2022-04-30T03:51:00+00:00,,7,10.6,,,,-9.4,,,101980,24.12,Clear
,16090,101630,320,69.746258773174,,KEWR 050351Z 32005KT 10SM FEW025 BKN045 BKN070 18/12 A3001 RMK AO2 SLP160 T01780122,2022-05-05T03:51:00+00:00,,9,17.8,,,,12.2,,,101600,9.36,Mostly Cloudy
,16090,101900,170,35.068672073998,,,2022-05-01T01:51:00+00:00,,3,12.2,,,,-2.8,,,101900,11.16,
,16090,102200,100,61.955883433798,,KNYC 032051Z AUTO 10006KT 10SM FEW025 14/07 A3018 RMK AO2 SLP209 T01440072 56005 $,2022-05-03T20:51:00+00:00,,27,14.4,,,,7.2,,,102090,11.16,Mostly Clear
,11270,101900,40,89.954432820851,,KNYC 030051Z AUTO 04005KT 7SM BKN011 OVC017 12/11 A3009 RMK AO2 SLP182 T01220106 $,2022-05-03T00:51:00+00:00,,27,12.2,,,,10.6,,,101820,9.36,Cloudy
,16090,101590,30,86.531884394108,,KJFK 061251Z 03003KT 10SM -RA SCT038 SCT060 OVC070 13/11 A3000 RMK AO2 SLP157 P0002 T01330111,2022-05-06T12:51:00+00:00,,7,13.3,,0,,11.1,,,101570,5.4,Light Rain
,16090,102200,30,64.241540272317,,KJFK 031451Z 03011KT 10SM SCT021 SCT095 BKN250 15/08 A3018 RMK AO2 SLP219 T01500083 51009,2022-05-03T14:51:00+00:00,,7,15,,,,8.3,,,102190,20.52,Mostly Cloudy
,16090,,,,,KNYC 301151Z AUTO VRB03KT 10SM CLR 08/M07 A3018 RMK AO2 SLP211 T00831072 10094 20067 51009 $,2022-04-30T11:51:00+00:00,,27,,,,,,,,,,Clear
,16090,101760,320,17.808984609848,,KJFK 301951Z 32012G20KT 290V360 10SM CLR 19/M06 A3005 RMK AO2 SLP175 T01891061,2022-04-30T19:51:00+00:00,,7,18.9,,,,-6.1,,37.08,101750,22.32,Clear
,16090,101900,,20.297608107758,,KLGA 301651Z VRB05KT 10SM CLR 16/M07 A3009 RMK AO2 SLP188 T01611067,2022-04-30T16:51:00+00:00,,9,16.1,,,,-6.7,,,101880,9.36,Clear
,16090,101860,,19.532452565383,,KJFK 301751Z VRB04G18KT 10SM CLR 16/M07 A3008 RMK AO2 SLP185 T01611072 10172 20100 58016,2022-04-30T17:51:00+00:00,,7,16.1,,,,-7.2,,33.48,101850,7.56,Clear
,16090,101800,0,76.993951308353,,KTEB 020951Z 00000KT 10SM OVC020 12/08 A3006 RMK AO2 LTG DSNT S AND SW RAB21E32 PRESRR SLP178 P0000 T01170078,2022-05-02T09:51:00+00:00,,3,11.7,,0,,7.8,,,101780,0,Cloudy
,16090,102030,30,58.088232736586,,KEWR 011051Z 03008KT 10SM FEW180 SCT250 09/01 A3013 RMK AO2 SLP203 T00890011,2022-05-01T10:51:00+00:00,,9,8.9,,,,1.1,6.6028417593711115,,102030,14.76,Partly Cloudy
,16090,102070,,21.031799952838,,,2022-05-01T15:51:00+00:00,,9,18.3,,,,-4.4,,,102060,9.36,
,16090,101970,310,86.028130972357,,KJFK 010751Z 31003KT 10SM CLR 08/06 A3011 RMK AO2 SLP196 T00830061,2022-05-01T07:51:00+00:00,,7,8.3,,,,6.1,7.710126527509445,,101960,5.4,Clear
,16090,102270,90,64.545340236686,,KNYC 031521Z AUTO 09008G15KT 10SM FEW021 14/08 A3020 RMK AO2 T01440078 $,2022-05-03T15:21:00+00:00,,27,14.4,,,,7.8,,,,14.76,Mostly Clear
,16090,101730,190,71.717959085678,,KJFK 060051Z 19008KT 10SM FEW060 SCT210 BKN240 13/08 A3004 RMK AO2 SLP170 T01330083,2022-05-06T00:51:00+00:00,,7,13.3,,,,8.3,,,101700,14.76,Mostly Cloudy
,16090,101690,330,11.293782340094,,KEWR 301951Z 33012G21KT 10SM CLR 21/M11 A3003 RMK AO2 SLP168 T02061106,2022-04-30T19:51:00+00:00,,9,20.6,,,,-10.6,,38.88,101680,22.32,Clear
,16090,,,,,KNYC 3007851Z AUTO 30005KT 10SM CLR 07/M08 A3015 RMK AO2 SLP202 T00721083 56002 $,2022-04-30T09:02:00+00:00,,27,,,,,,,,,,Clear
,16090,101760,,41.893107651205,,KTEB 051751Z VRB03KT 10SM SCT060 21/07 A3005 RMK AO2 SLP175 T02060072 10211 20144 58012,2022-05-05T17:51:00+00:00,,3,20.6,,,,7.2,,,101750,5.4,Partly Cloudy
,16090,,,,,KNYC 301351Z AUTO 00000KT 10SM CLR 12/M09 A3016 RMK AO2 SLP203 T01221089 $,2022-04-30T13:51:00+00:00,,27,,,,,,,,,,Clear
,8050,101590,70,89.181204957654,,KTEB 041017Z 07003KT 5SM -RA BR BKN008 BKN014 OVC020 10/08 A3000 RMK AO2 PRESFR P0000 T01000083,2022-05-04T10:17:00+00:00,,3,10,,0,,8.3,,,,5.4,Light Rain and Fog/Mist
,16090,101900,130,22.288499267921,,KEWR 011851Z 13008KT 10SM FEW130 BKN200 BKN250 20/M02 A3009 RMK AO2 SLP187 T02001022,2022-05-01T18:51:00+00:00,,9,20,,,,-2.2,,,101870,14.76,Mostly Cloudy
,3220,101660,50,92.993524010865,,KTEB 022051Z 05004KT 2SM -RA BR OVC009 12/11 A3002 RMK AO2 DZB26E29RAB29 SLP165 P0000 60000 T01220111 53002,2022-05-02T20:51:00+00:00,,3,12.2,,0,0,11.1,,,101650,7.56,Light Rain and Fog/Mist
,16090,101560,330,11.245248892042,,KJFK 292051Z 33015G24KT 10SM FEW250 17/M13 A2999 RMK AO2 PK WND 33028/2007 SLP154 T01721133 55009,2022-04-29T20:51:00+00:00,,7,17.2,,,,-13.3,,44.64,101540,27.72,Mostly Clear
,2410,,,,,KLGA 021558Z 04012KT 1 1/2SM -RA BR OVC007 12/09 A3004 RMK AO2 CIG 005V011 P0000 T01170094,2022-05-02T15:58:00+00:00,,9,,,0,,,,,,,Light Rain and Fog/Mist
,3220,101690,80,89.490389141325,,KEWR 021651Z 08005KT 2SM -DZ BR OVC004 14/12 A3003 RMK AO2 SLP167 P0000 T01390122 $,2022-05-02T16:51:00+00:00,,9,13.9,,0,,12.2,,,101670,9.36,Light Drizzle and Fog/Mist
,16090,101520,310,14.975239999969,,KTEB 291951Z 31013G24KT 10SM CLR 16/M11 A2998 RMK AO2 PK WND 29032/1902 SLP153 T01611106,2022-04-29T19:51:00+00:00,,3,16.1,,,,-10.6,,44.64,101530,24.12,Clear
0,16090,101860,100,76.993951308353,,KJFK 020551Z 10004KT 10SM OVC055 12/08 A3008 RMK AO2 SLP185 60000 T01170078 10133 20111 58007,2022-05-02T05:51:00+00:00,,7,11.7,,,,7.8,,,101850,7.56,Cloudy
,4830,101660,30,92.993524010865,,KTEB 022120Z 03006KT 3SM BR OVC007 12/11 A3002 RMK AO2 RAE15 P0000 T01220111,2022-05-02T21:20:00+00:00,,3,12.2,,0,,11.1,,,,11.16,Fog/Mist
,16090,101930,340,46.397398303251,,KLGA 051451Z 34009KT 10SM FEW040 SCT250 17/06 A3010 RMK AO2 SLP192 T01720056 50010,2022-05-05T14:51:00+00:00,,9,17.2,,,,5.6,,,101920,16.56,Partly Cloudy
,9660,101690,0,96.056307711081,,KNYC 041051Z AUTO 00000KT 6SM -RA BR OVC009 10/09 A3003 RMK AO2 RAE43B51 CIG 006V011 SLP159 P0001 T01000094 $,2022-05-04T10:51:00+00:00,,27,10,,0,,9.4,,,101590,0,Light Rain and Fog/Mist
,6440,101830,100,89.181204957654,,KTEB 040551Z 10006KT 4SM BR OVC009 10/08 A3007 RMK AO2 CIG 008V012 SLP183 T01000083 10122 20100 56008,2022-05-04T05:51:00+00:00,,3,10,,,,8.3,,,101830,11.16,Fog/Mist
,16090,101970,340,16.311652292943,,KEWR 300251Z 34016KT 10SM CLR 13/M12 A3011 RMK AO2 PK WND 33026/0238 SLP197 T01281122 51027,2022-04-30T02:51:00+00:00,,9,12.8,,,,-12.2,,,101970,29.52,Clear
,16090,102030,340,19.923750907887,,KEWR 300351Z 34015KT 10SM CLR 12/M11 A3013 RMK AO2 SLP200 T01171106,2022-04-30T03:51:00+00:00,,9,11.7,,,,-10.6,,,102000,27.72,Clear
,16090,102270,100,64.241540272317,,KNYC 031451Z AUTO 10008G15KT 10SM BKN022 15/08 A3020 RMK AO2 SLP216 T01500083 51005 $,2022-05-03T14:51:00+00:00,,27,15,,,,8.3,,,102160,14.76,Mostly Cloudy
,16090,101930,350,51.666594589758,,KLGA 051351Z 35010KT 10SM FEW030 SCT250 17/07 A3010 RMK AO2 SLP193 T01670067,2022-05-05T13:51:00+00:00,,9,16.7,,,,6.7,,,101930,18.36,Partly Cloudy
,16090,101830,,47.248268299697,,KNYC 020051Z AUTO VRB03KT 10SM OVC100 14/03 A3007 RMK AO2 SLP175 T01440033 $,2022-05-02T00:51:00+00:00,,27,14.4,,,,3.3,,,101750,5.4,Cloudy
,16090,101560,140,32.631634326764,21.32760378519889,KTEB 052151Z 14007KT 10SM CLR 22/05 A2999 RMK AO2 SLP157 T02220050,2022-05-05T21:51:00+00:00,,3,22.2,,,,5,,,101570,12.96,Clear
,16090,101460,170,74.290523029752,,KTEB 061051Z 17003KT 10SM BKN065 OVC085 14/09 A2996 RMK AO2 SLP145 T01390094,2022-05-06T10:51:00+00:00,,3,13.9,,,,9.4,,,101450,5.4,Cloudy
,16090,101630,240,83.087914090164,,KJFK 060751Z 24006KT 10SM OVC130 13/10 A3001 RMK AO2 SLP161 T01280100,2022-05-06T07:51:00+00:00,,7,12.8,,,,10,,,101610,11.16,Cloudy
,16090,102070,100,82.818647556175,,KJFK 040051Z 10011KT 10SM SCT023 BKN170 BKN250 11/08 A3014 RMK AO2 SLP204 T01060078,2022-05-04T00:51:00+00:00,,7,10.6,,,,7.8,,,102040,20.52,Mostly Cloudy
,16090,101690,170,51.960296485397,,KEWR 060151Z 17006KT 10SM FEW150 BKN200 BKN260 18/08 A3003 RMK AO2 SLP167 T01780078,2022-05-06T01:51:00+00:00,,9,17.8,,,,7.8,,,101670,11.16,Mostly Cloudy
,16090,102030,350,65.087507484788,,KTEB 011051Z 35003KT 10SM CLR 07/01 A3013 RMK AO2 SLP202 T00670006,2022-05-01T10:51:00+00:00,,3,6.7,,,,0.6,5.885540763850556,,102020,5.4,Clear
,16090,101630,320,16.068549603243,,KTEB 291751Z 32011G26KT 10SM CLR 15/M11 A3001 RMK AO2 PK WND 33027/1739 SLP163 T01501106 10150 20061 58026,2022-04-29T17:51:00+00:00,,3,15,,,,-10.6,,48.24,101630,20.52,Clear
,16090,101900,,15.963936171065,,KNYC 301751Z AUTO VRB05KT 10SM CLR 17/M09 A3009 RMK AO2 SLP180 T01721089 10183 20083 58017 $,2022-04-30T17:51:00+00:00,,27,17.2,,,,-8.9,,,101800,9.36,Clear
,16090,102070,330,22.472375396397,,KNYC 300351Z AUTO 33004KT 10SM CLR 11/M10 A3014 RMK AO2 SLP200 T01061100 $,2022-04-30T03:51:00+00:00,,27,10.6,,,,-10,,,102000,7.56,Clear
,16090,101830,350,74.8764630203,,KTEB 051151Z 35009KT 10SM SCT021 14/10 A3007 RMK AO2 SLP184 70003 T01440100 10150 20122 53016,2022-05-05T11:51:00+00:00,,3,14.4,,,,10,,,101840,16.56,Partly Cloudy
,8050,101730,80,79.654510078888,,KLGA 021041Z 08009KT 5SM VCTS -RA SCT020CB BKN036 OVC095 12/08 A3004 RMK AO2 WSHFT 1019 LTG DSNT SE RAB08 TSB13E41 PRESRR OCNL LTGICCG N-E TS N-E MOV E P0027 T01170083,2022-05-02T10:41:00+00:00,,9,11.7,,0.01,,8.3,,,,16.56,Light Rain
,16090,101730,110,66.434122377317,,KLGA 020651Z 11005KT 10SM SCT025 OVC033 13/07 A3004 RMK AO2 SLP173 T01280067 $,2022-05-02T06:51:00+00:00,,9,12.8,,,,6.7,,,101730,9.36,Cloudy
,16090,102030,0,36.206278559192,,KTEB 300751Z 00000KT 10SM CLR 06/M08 A3013 RMK AO2 SLP201 T00611078,2022-04-30T07:51:00+00:00,,3,6.1,,,,-7.8,,,102010,0,Clear
,9660,101900,120,89.22963410269,,KEWR 040451Z 12007KT 6SM -DZ BR OVC007 11/09 A3009 RMK AO2 DZB14 SLP189 P0000 T01060089 401830106,2022-05-04T04:51:00+00:00,,9,10.6,,0,,8.9,,,101890,12.96,Light Drizzle and Fog/Mist
,16090,102000,130,74.499044679056,,KEWR 040017Z 13007KT 10SM BKN024 BKN150 OVC250 12/08 A3012 RMK AO2 T01220078,2022-05-04T00:17:00+00:00,,9,12.2,,,,7.8,,,,12.96,Cloudy
,16090,101970,30,64.951166789497,,,2022-05-01T08:51:00+00:00,,3,6.1,,,,0,5.2013211024783335,,101950,5.4,
,16090,,,,,KNYC 050551Z AUTO VRB06KT 10SM OVC041 15/11 A3004 RMK AO2 SLP163 T01500106 10178 20150 50006 $,2022-05-05T05:51:00+00:00,,27,,,,,,,,,,Cloudy
,16090,101970,280,14.643199023267,,KEWR 301551Z 28010G19KT 10SM CLR 17/M10 A3011 RMK AO2 SLP195 T01721100,2022-04-30T15:51:00+00:00,,9,17.2,,,,-10,,35.28,101950,18.36,Clear
,16090,101900,130,28.163115333353,,KEWR 010051Z 13003KT 10SM SCT250 15/M03 A3009 RMK AO2 SLP188 T01501033,2022-05-01T00:51:00+00:00,,9,15,,,,-3.3,,,101880,5.4,Partly Cloudy
,2010,101900,120,96.688464288609,,KJFK 040521Z 12008KT 1 1/4SM -DZ BR OVC004 09/09 A3009 RMK AO2 SFC VIS 4 P0000 T00940089,2022-05-04T05:21:00+00:00,,7,9.4,,0,,8.9,7.2183083629522224,,,14.76,Light Drizzle and Fog/Mist
,16090,102100,60,45.141375866801,,KJFK 011251Z 06006KT 10SM SCT250 14/02 A3015 RMK AO2 SLP208 T01390022,2022-05-01T12:51:00+00:00,,7,13.9,,,,2.2,,,102080,11.16,Partly Cloudy
,16090,102100,310,44.36836716407,,KTEB 301051Z 31005KT 10SM CLR 06/M06 A3015 RMK AO2 SLP208 T00561056,2022-04-30T10:51:00+00:00,,3,5.6,,,,-5.6,3.529397912205,,102080,9.36,Clear
,9660,101800,120,92.875368778185,,KNYC 040951Z AUTO 12003KT 6SM -RA BR BKN007 OVC012 10/09 A3006 RMK AO2 RAB12 CIG 006V010 SLP171 P0001 T01000089 $,2022-05-04T09:51:00+00:00,,27,10,,0,,8.9,,,101710,5.4,Light Rain and Fog/Mist
,11270,101900,110,86.202442841334,,KLGA 040433Z 11010KT 7SM -DZ OVC006 10/08 A3009 RMK AO2 P0000 T01000078 $,2022-05-04T04:33:00+00:00,,9,10,,0,,7.8,,,,18.36,Light Drizzle
,16090,101930,350,55.54909086517,,KLGA 051251Z 35014KT 10SM FEW025 SCT250 16/07 A3010 RMK AO2 SLP194 T01610072,2022-05-05T12:51:00+00:00,,9,16.1,,,,7.2,,,101940,25.92,Partly Cloudy
,16090,102070,360,17.938604493706,,,2022-04-30T14:51:00+00:00,,27,13.3,,,,-10.6,,,101970,12.96,
,16090,101360,200,77.679888272611,,KEWR 041908Z 20003KT 10SM SCT014 BKN040 BKN110 16/12 A2993 RMK AO2 T01610122,2022-05-04T19:08:00+00:00,,9,16.1,,,,12.2,,,,5.4,Mostly Cloudy
,16090,101590,,33.956528453416,22.022198242950555,KEWR 052051Z VRB06KT 10SM FEW060 FEW200 BKN250 23/06 A3000 RMK AO2 SLP159 T02280061 58020,2022-05-05T20:51:00+00:00,,9,22.8,,,,6.1,,,101590,11.16,Mostly Cloudy
,16090,101900,0,60.223161125853,,KTEB 010551Z 00000KT 10SM CLR 07/00 A3009 RMK AO2 SLP190 T00720000 10139 20072 50002,2022-05-01T05:51:00+00:00,,3,7.2,,,,0,,,101900,0,Clear
,1210,101690,90,89.22963410269,,KNYC 021011Z AUTO 09008G15KT 060V150 3/4SM +RA BR BKN018 OVC037 11/09 A3003 RMK AO2 RAB0955 PRESFR P0017 T01060089 $,2022-05-02T10:11:00+00:00,,27,10.6,,0,,8.9,,,,14.76,Heavy Rain and Fog/Mist
,11270,,,,,KEWR 021032Z 04010KT 7SM -RA BKN013 BKN043 OVC090 12/09 A3001 RMK AO2 LTG DSNT E-S TSE31 P0015 T01220094,2022-05-02T10:32:00+00:00,,9,,,0,,,,,,,Light Rain
,9660,101520,70,89.954432820851,,KEWR 041351Z 07005KT 6SM -RA BR OVC007 12/11 A2998 RMK AO2 RAB1252 SLP152 P0003 T01220106,2022-05-04T13:51:00+00:00,,9,12.2,,0,,10.6,,,101520,9.36,Light Rain and Fog/Mist
,9660,101560,110,74.290523029752,,KLGA 061251Z 11004KT 6SM -RA FEW020 OVC070 14/09 A2999 RMK AO2 SLP155 P0003 T01390094,2022-05-06T12:51:00+00:00,,9,13.9,,0,,9.4,,,101550,7.56,Light Rain
,16090,101660,180,57.870774670853,,KTEB 060351Z 18005KT 10SM CLR 16/08 A3002 RMK AO2 SLP164 T01610078,2022-05-06T03:51:00+00:00,,3,16.1,,,,7.8,,,101640,9.36,Clear
,16090,101830,,18.534118046565,,KTEB 291551Z 32017G25KT 10SM CLR 13/M11 A3007 RMK AO2 SLP181 T01281106,2022-04-29T15:51:00+00:00,,3,12.8,,,,-10.6,,46.44,101810,,Clear
,16090,101520,200,53.677597406478,,KLGA 060551Z 20005KT 10SM BKN150 OVC250 16/07 A2998 RMK AO2 SLP151 T01610067 10178 20161 58015,2022-05-06T05:51:00+00:00,,9,16.1,,,,6.7,,,101510,9.36,Cloudy
,16090,101970,310,20.6661964197,,,2022-04-30T14:51:00+00:00,,9,13.9,,,,-8.3,,,101960,16.56,
,16090,102000,120,85.680481185637,,KNYC 040451Z AUTO 12004KT 10SM OVC008 11/08 A3012 RMK AO2 CIG 006V010 SLP189 T01060083 401670106 $,2022-05-04T04:51:00+00:00,,27,10.6,,,,8.3,,,101890,7.56,Cloudy
,16090,102000,170,36.393693984635,,KJFK 011851Z 17012KT 10SM FEW200 BKN240 17/02 A3012 RMK AO2 SLP198 T01670017,2022-05-01T18:51:00+00:00,,7,16.7,,,,1.7,,,101980,22.32,Mostly Cloudy
,16090,101930,30,83.703963952178,,,2022-05-03T03:51:00+00:00,,9,13.3,,,,10.6,,,101900,12.96,Cloudy
,6440,101690,60,92.285708289197,,KNYC 041251Z AUTO 06003KT 4SM -RA BR OVC007 11/09 A3003 RMK AO2 RAB03E08B31 SLP161 P0001 T01060094 $,2022-05-04T12:51:00+00:00,,27,10.6,,0,,9.4,,,101610,5.4,Light Rain and Fog/Mist
,16090,101860,330,22.237027143923,,KTEB 301651Z 33010KT 10SM CLR 17/M05 A3008 RMK AO2 SLP186 T01671050,2022-04-30T16:51:00+00:00,,3,16.7,,,,-5,,,101860,18.36,Clear
,9660,,,,,KJFK 041203Z 09008KT 6SM -DZ BR OVC004 11/10 A2998 RMK AO2 P0000 T01060100,2022-05-04T12:03:00+00:00,,7,,,0,,,,,,,Light Drizzle and Fog/Mist
,16090,101360,40,80.568800216805,,KLGA 041951Z 04004KT 10SM FEW049 BKN060 14/11 A2993 RMK AO2 SLP134 T01440111,2022-05-04T19:51:00+00:00,,9,14.4,,,,11.1,,,101340,7.56,Mostly Cloudy
0,16090,101800,120,63.994810864366,,KEWR 020551Z 12005KT 10SM BKN035 BKN055 OVC090 14/07 A3006 RMK AO2 SLP178 60000 T01390072 10150 20133 58007,2022-05-02T05:51:00+00:00,,9,13.9,,,,7.2,,,101780,9.36,Cloudy
,16090,102170,60,71.62381165163,,KLGA 031351Z 06011KT 10SM BKN019 BKN250 13/08 A3017 RMK AO2 SLP218 T01280078,2022-05-03T13:51:00+00:00,,9,12.8,,,,7.8,,,102180,20.52,Mostly Cloudy
,12870,101800,100,89.22963410269,,KEWR 040751Z 10004KT 8SM -RA BKN006 OVC010 11/09 A3006 RMK AO2 RAB18 SLP178 P0007 T01060089,2022-05-04T07:51:00+00:00,,9,10.6,,0,,8.9,,,101780,7.56,Light Rain
,16090,102000,360,64.951166789497,,KTEB 010951Z 36003KT 10SM CLR 06/00 A3012 RMK AO2 SLP197 T00610000,2022-05-01T09:51:00+00:00,,3,6.1,,,,0,5.2013211024783335,,101970,5.4,Clear
,16090,102070,40,82.880385175758,,KTEB 031058Z 04004KT 10SM SCT015 11/08 A3014 RMK AO2 T01110083,2022-05-03T10:58:00+00:00,,3,11.1,,,,8.3,,,,7.56,Partly Cloudy
,16090,102030,60,60.641382833951,,KLGA 011051Z 06005KT 10SM FEW180 FEW250 09/02 A3013 RMK AO2 SLP203 T00890017,2022-05-01T10:51:00+00:00,,9,8.9,,,,1.7,7.450127322571666,,102030,9.36,Mostly Clear
,16090,101900,190,42.608309852282,,KLGA 010351Z 19007KT 10SM FEW250 12/M01 A3009 RMK AO2 SLP190 T01171006,2022-05-01T03:51:00+00:00,,9,11.7,,,,-0.6,,,101900,12.96,Mostly Clear
,16090,,,,,KNYC 011151Z AUTO 07005KT 10SM CLR 12/M02 A3016 RMK AO2 SLP205 T01221022 10122 20083 53010 $,2022-05-01T11:51:00+00:00,,27,,,,,,,,,,Clear
,16090,101290,,67.588946723231,,KLGA 042151Z VRB03KT 10SM FEW023 BKN120 18/12 A2991 RMK AO2 SLP127 T01830122,2022-05-04T21:51:00+00:00,,9,18.3,,,,12.2,,,101270,5.4,Mostly Cloudy
0.01,4830,,,,,KNYC 021151Z AUTO 00000KT 3SM -RA BR OVC011 11/11 A3008 RMK AO2 SLP178 P0001 60022 70022 T01110106 10133 20106 53008 $,2022-05-02T11:51:00+00:00,,27,,,0,,,,,,,Light Rain and Fog/Mist
,16090,102000,0,29.581818251743,,KTEB 300651Z 00000KT 10SM CLR 08/M09 A3012 RMK AO2 SLP200 T00781089,2022-04-30T06:51:00+00:00,,3,7.8,,,,-8.9,,,102000,0,Clear
,16090,101860,190,49.998796124422,,KJFK 302351Z 19013KT 10SM FEW250 11/01 A3008 RMK AO2 SLP185 T01060006 10189 20106 53008,2022-04-30T23:51:00+00:00,,7,10.6,,,,0.6,,,101850,24.12,Mostly Clear
,16090,101900,340,16.311652292943,,KJFK 300151Z 34015G20KT 10SM CLR 13/M12 A3009 RMK AO2 SLP189 T01281122,2022-04-30T01:51:00+00:00,,7,12.8,,,,-12.2,,,101890,27.72,Clear
0,12870,101520,0,77.340598238695,,,2022-05-06T11:51:00+00:00,,3,13.9,,0,,10,,,101510,0,Light Rain
,16090,101630,360,72.034842210106,,KLGA 050651Z 36009KT 10SM BKN050 BKN080 15/10 A3001 RMK AO2 SLP161 T01500100,2022-05-05T06:51:00+00:00,,9,15,,,,10,,,101610,16.56,Mostly Cloudy
,16090,102100,50,71.204369375173,,KJFK 011151Z 05005KT 10SM SCT250 11/06 A3015 RMK AO2 SLP207 T01060056 10106 20056 53009,2022-05-01T11:51:00+00:00,,7,10.6,,,,5.6,,,102070,9.36,Partly Cloudy
,16090,101970,330,24.833129339154,,KLGA 300351Z 33013G20KT 10SM CLR 11/M08 A3011 RMK AO2 SLP196 T01111083,2022-04-30T03:51:00+00:00,,9,11.1,,,,-8.3,,37.08,101960,24.12,Clear
,16090,101930,150,80.112078202727,,KTEB 040351Z 15009KT 10SM OVC014 11/08 A3010 RMK AO2 SLP191 T01110078,2022-05-04T03:51:00+00:00,,3,11.1,,,,7.8,,,101910,16.56,Cloudy
,16090,102170,,82.880385175758,,KNYC 031051Z AUTO VRB03KT 10SM FEW013 11/08 A3017 RMK AO2 SLP207 T01110083 $,2022-05-03T10:51:00+00:00,,27,11.1,,,,8.3,,,102070,5.4,Mostly Clear
,12870,101290,0,72.346821714672,,KLGA 042051Z 00000KT 8SM FEW022 SCT085 17/12 A2991 RMK AO2 SLP129 T01670117 56016,2022-05-04T20:51:00+00:00,,9,16.7,,,,11.7,,,101290,0,Partly Cloudy
,16090,101730,350,74.978033950497,,KNYC 050651Z AUTO 35004KT 10SM BKN049 OVC080 15/11 A3004 RMK AO2 SLP164 T01500106 $,2022-05-05T06:51:00+00:00,,27,15,,,,10.6,,,101640,7.56,Cloudy
,16090,101460,260,70.302206007068,,KEWR 050051Z 26007KT 10SM FEW060 BKN100 BKN120 18/13 A2996 RMK AO2 SLP143 T01830128,2022-05-05T00:51:00+00:00,,9,18.3,,,,12.8,,,101430,12.96,Mostly Cloudy
,4020,101660,70,80.112078202727,,KLGA 021030Z 07012G17KT 2 1/2SM R04/5000VP6000FT +TSRA BR SCT020CB BKN036 OVC070 11/08 A3002 RMK AO2 RAB08 TSB13 OCNL LTGICCG OHD-E TS OHD-E MOV E P0027 T01110078 $,2022-05-02T10:30:00+00:00,,9,11.1,,0.01,,7.8,,,,22.32,Heavy Thunderstorms and Heavy Rain and Fog/Mist
,4830,101860,,89.181204957654,,KNYC 040751Z AUTO VRB04KT 3SM -RA BR OVC008 10/08 A3008 RMK AO2 RAB39 PRESFR SLP176 P0002 T01000083 $,2022-05-04T07:51:00+00:00,,27,10,,0,,8.3,,,101760,7.56,Light Rain and Fog/Mist
,16090,101860,20,86.423356721086,,,2022-05-03T03:51:00+00:00,,3,12.2,,,,10,,,101850,9.36,Cloudy
0,11270,101460,,77.603412846276,,KEWR 041751Z VRB03KT 7SM BKN009 BKN014 OVC050 16/12 A2996 RMK AO2 SLP145 BKN009 V SCT 60003 T01560117 10156 20117 58013,2022-05-04T17:51:00+00:00,,9,15.6,,,,11.7,,,101450,5.4,Cloudy
,16090,102030,330,32.293550274726,,KTEB 300551Z 33006KT 10SM CLR 07/M08 A3013 RMK AO2 SLP201 T00721083 10139 20072 50006,2022-04-30T05:51:00+00:00,,3,7.2,,,,-8.3,5.082966812782222,,102010,11.16,Clear
,4830,101800,20,92.966926628606,,KNYC 022251Z AUTO 02003KT 3SM BR OVC005 12/11 A3006 RMK AO2 SLP172 T01170106 $,2022-05-02T22:51:00+00:00,,27,11.7,,,,10.6,,,101720,5.4,Fog/Mist
,16090,101690,190,23.402613340052,,KLGA 302151Z 19006KT 10SM FEW250 17/M04 A3003 RMK AO2 SLP169 T01721039,2022-04-30T21:51:00+00:00,,9,17.2,,,,-3.9,,,101690,11.16,
,2410,101830,90,96.688464288609,,KJFK 040802Z 09004KT 1 1/2SM VCTS -RA BR OVC003 09/09 A3007 RMK AO2 SFC VIS 4 P0002 T00940089,2022-05-04T08:02:00+00:00,,7,9.4,,0,,8.9,8.41118436073,,,7.56,Light Rain and Fog/Mist
,9660,101630,40,89.181204957654,,KLGA 041016Z 04005KT 6SM -RA BR OVC007 10/08 A3001 RMK AO2 P0000 T01000083,2022-05-04T10:16:00+00:00,,9,10,,0,,8.3,,,,9.36,Light Rain and Fog/Mist
,16090,101690,50,89.181204957654,,KLGA 040951Z 05003KT 10SM -RA BKN006 OVC010 10/08 A3003 RMK AO2 RAE0855B21 SLP167 P0001 T01000083 $,2022-05-04T09:51:00+00:00,,9,10,,0,,8.3,,,101670,5.4,Light Rain
,12870,101660,40,80.112078202727,,KLGA 021101Z 04010KT 8SM -RA BKN012 OVC110 11/08 A3002 RMK AO2 LTG DSNT SE CB DSNT SE MOV E P0001 T01110078,2022-05-02T11:01:00+00:00,,9,11.1,,0,,7.8,,,,18.36,Light Rain
,16090,101420,,86.482711038053,,KLGA 061451Z VRB05KT 10SM -RA FEW010 SCT025 OVC070 13/11 A2995 RMK AO2 SLP142 P0000 60004 T01280106 58008,2022-05-06T14:51:00+00:00,,9,12.8,,0,0,10.6,,,101420,9.36,Light Rain
,16090,102000,360,79.654510078888,,KEWR 030851Z 36006KT 10SM FEW013 12/08 A3012 RMK AO2 SLP200 T01170083 53006 $,2022-05-03T08:51:00+00:00,,9,11.7,,,,8.3,,,102000,11.16,Mostly Clear
,16090,102070,20,76.681069549305,,KLGA 031049Z 02007KT 10SM FEW015 FEW150 13/09 A3014 RMK AO2,2022-05-03T10:49:00+00:00,,9,13,,,,9,,,,12.96,Mostly Clear
,16090,,,,,KNYC 060351Z AUTO VRB03KT 10SM CLR 16/08 A3005 RMK AO2 SLP168 T01610083 $,2022-05-06T03:51:00+00:00,,27,,,,,,,,,,Clear
,3220,,,,,KLGA 021014Z 29013KT 2SM -TSRA SCT012CB OVC021 14/09 A3007 RMK AO2 LTG DSNT SW RAB08 TSB13 OCNL LTGICCG OHD-W TS OHD-W MOV E P0002 T01390089 $,2022-05-02T10:14:00+00:00,,9,,,0,,,,,,,Thunderstorms and Rain
,14480,101460,70,86.191267982613,,KEWR 061451Z 07003KT 9SM -RA SCT009 BKN035 OVC080 16/13 A2996 RMK AO2 SLP144 SCT V BKN P0000 60014 T01560133 58010,2022-05-06T14:51:00+00:00,,9,15.6,,0,0,13.3,,,101440,5.4,Light Rain
,12870,101800,20,87.56826823315,,KTEB 030049Z 02005KT 8SM OVC010 12/10 A3006 RMK AO2 CIG 007V011,2022-05-03T00:49:00+00:00,,3,12,,,,10,,,,9.36,Cloudy
,16090,101590,20,74.582928368531,,KLGA 050351Z 02007KT 10SM OVC022 16/11 A3000 RMK AO2 SLP158 T01560111,2022-05-05T03:51:00+00:00,,9,15.6,,,,11.1,,,101580,12.96,Cloudy
,16090,101800,350,29.551029109524,,KLGA 051751Z 35004KT 10SM FEW045 BKN250 21/02 A3006 RMK AO2 SLP180 T02060022 10206 20150 56012,2022-05-05T17:51:00+00:00,,9,20.6,,,,2.2,,,101800,7.56,Mostly Cloudy
,16090,101630,180,46.245115753983,,KTEB 052351Z 18007KT 10SM CLR 18/06 A3001 RMK AO2 SLP162 T01780061 10278 20178 53005,2022-05-05T23:51:00+00:00,,3,17.8,,,,6.1,,,101620,12.96,Clear
,16090,101900,,82.954048467221,,KTEB 030651Z VRB04KT 10SM OVC013 12/09 A3009 RMK AO2 SLP190 T01170089,2022-05-03T06:51:00+00:00,,3,11.7,,,,8.9,,,101900,7.56,Cloudy
,16090,101520,190,77.246795999401,,KJFK 060851Z 19003KT 10SM OVC140 13/09 A2998 RMK AO2 SLP150 T01330094 58005,2022-05-06T08:51:00+00:00,,7,13.3,,,,9.4,,,101500,5.4,Cloudy
,16090,102030,150,30.825757964466,,KTEB 011451Z 15004KT 10SM CLR 17/M01 A3013 RMK AO2 SLP204 T01671006 55001,2022-05-01T14:51:00+00:00,,3,16.7,,,,-0.6,,,102040,7.56,Clear
,16090,101420,0,77.603412846276,,KEWR 041821Z 00000KT 10SM OVC010 16/12 A2995 RMK AO2 T01560117,2022-05-04T18:21:00+00:00,,9,15.6,,,,11.7,,,,0,Cloudy
,11270,101660,60,83.015085466252,,KEWR 021051Z 06011KT 7SM -RA BKN013 OVC046 12/09 A3002 RMK AO2 LTG DSNT E TSE31 SLP165 P0016 T01220094,2022-05-02T10:51:00+00:00,,9,12.2,,0,,9.4,,,101650,20.52,Light Rain
,16090,101930,0,38.215284604027,,KEWR 010251Z 00000KT 10SM FEW250 13/M01 A3010 RMK AO2 SLP191 T01281011 50014,2022-05-01T02:51:00+00:00,,9,12.8,,,,-1.1,,,101910,0,Mostly Clear
0,16090,101930,340,82.880385175758,,KLGA 030551Z 34004KT 10SM SCT016 BKN022 11/08 A3010 RMK AO2 SLP193 60000 T01110083 10117 20100 51007,2022-05-03T05:51:00+00:00,,9,11.1,,,,8.3,,,101930,7.56,Mostly Cloudy
,16090,,,,,KNYC 051251Z AUTO 05008G16KT 010V080 10SM CLR 16/08 A3014 RMK AO2 SLP196 T01560078 $,2022-05-05T12:51:00+00:00,,27,,,,,,,,,,Clear
,16090,,,,,KNYC 050851Z AUTO 36007KT 10SM SCT080 1410 A3006 RMK AO2 SLP170 T01390100 53006 $,2022-05-05T08:51:00+00:00,,27,,,,,,,,,,Partly Cloudy
,16090,102030,330,31.147584739118,,KJFK 300651Z 33009KT 10SM CLR 08/M08 A3013 RMK AO2 SLP202 T00831078,2022-04-30T06:51:00+00:00,,7,8.3,,,,-7.8,5.633482578938889,,102020,16.56,Clear
,16090,101970,220,85.976252301,,KJFK 010551Z 22005KT 10SM CLR 08/06 A3011 RMK AO2 SLP196 T00780056 10111 20067 58002,2022-05-01T05:51:00+00:00,,7,7.8,,,,5.6,6.143217519116111,,101960,9.36,Clear
,16090,101690,0,79.811182429167,,KTEB 050951Z 00000KT 10SM CLR 13/09 A3003 RMK AO2 SLP169 T01280094,2022-05-05T09:51:00+00:00,,3,12.8,,,,9.4,,,101690,0,Clear
,16090,101320,360,69.746258773174,,KTEB 042351Z 36003KT 10SM OVC090 18/12 A2992 RMK AO2 SLP130 T01780122 10206 20133 53004,2022-05-04T23:51:00+00:00,,3,17.8,,,,12.2,,,101300,5.4,Cloudy
,4830,101760,80,96.688464288609,,KJFK 040851Z 08004KT 3SM BR OVC006 09/09 A3005 RMK AO2 SFC VIS 6 RAE25 SLP174 P0002 60002 T00940089 58016,2022-05-04T08:51:00+00:00,,7,9.4,,0,0,8.9,8.41118436073,,101740,7.56,Fog/Mist
,16090,102030,330,33.570706350888,,KJFK 300851Z 33010KT 10SM CLR 07/M08 A3013 RMK AO2 SLP202 T00721078 55001,2022-04-30T08:51:00+00:00,,7,7.2,,,,-7.8,4.0450269938694445,,102020,18.36,Clear
,16090,102000,120,79.654510078888,,KEWR 040215Z 12008KT 10SM BKN011 OVC020 12/08 A3012 RMK AO2 T01170083,2022-05-04T02:15:00+00:00,,9,11.7,,,,8.3,,,,14.76,Cloudy
,16090,101970,20,68.066342482018,,,2022-05-01T08:51:00+00:00,,9,7.2,,,,1.7,5.082966812782222,,101960,11.16,
,16090,101520,180,77.246795999401,,KJFK 060951Z 18003KT 10SM OVC120 13/09 A2998 RMK AO2 SLP151 T01330094,2022-05-06T09:51:00+00:00,,7,13.3,,,,9.4,,,101510,5.4,Cloudy
,16090,,,,,KLGA 041802Z 08005KT 10SM SCT015 SCT045 OVC055 12/10 A2996 RMK AO2 T01220100 $,2022-05-04T18:02:00+00:00,,9,,,,,,,,,,Cloudy
,4830,101760,60,92.966926628606,,KNYC 022114Z AUTO 06007KT 3SM BR OVC006 12/11 A3005 RMK AO2 RAE03 P0000 T01170106 $,2022-05-02T21:14:00+00:00,,27,11.7,,0,,10.6,,,,12.96,Fog/Mist
,16090,,,,,KTEB 031215Z VRB05KT 10SM BKN021 13/08 A3016 RMK AO2 T01280083,2022-05-03T12:15:00+00:00,,3,,,,,,,,,,Mostly Cloudy
,16090,101900,340,13.663036523935,,KEWR 301651Z 34012KT 10SM CLR 18/M10 A3009 RMK AO2 SLP190 T01831100,2022-04-30T16:51:00+00:00,,9,18.3,,,,-10,,,101900,22.32,Clear
,16090,101730,350,93.553471551667,,KJFK 022246Z 35012KT 10SM SCT006 BKN012 OVC020 11/10 A3004 RMK AO2,2022-05-02T22:46:00+00:00,,7,11,,,,10,,,,22.32,Cloudy
,16090,101830,140,25.09623283727,,KNYC 302251Z AUTO 14003KT 10SM CLR 16/M04 A3007 RMK AO2 SLP174 T01611039 $,2022-04-30T22:51:00+00:00,,27,16.1,,,,-3.9,,,101740,5.4,Clear
,16090,102030,100,85.680481185637,,KJFK 040151Z 10010KT 10SM BKN011 OVC023 11/08 A3013 RMK AO2 SLP202 T01060083,2022-05-04T01:51:00+00:00,,7,10.6,,,,8.3,,,102020,18.36,Cloudy
,6440,101560,0,89.317597936371,,KTEB 041551Z 00000KT 4SM BR OVC007 12/10 A2999 RMK AO2 SLP154 T01170100,2022-05-04T15:51:00+00:00,,3,11.7,,,,10,,,101540,0,Fog/Mist
,16090,102000,50,89.56964455156,,,2022-05-01T08:51:00+00:00,,7,7.2,,,,5.6,5.839241071742222,,101980,7.56,
,16090,101970,220,92.692530298592,,KJFK 010651Z 22006KT 10SM FEW250 07/06 A3011 RMK AO2 SLP196 T00670056,2022-05-01T06:51:00+00:00,,7,6.7,,,,5.6,4.480830885792222,,101960,11.16,Mostly Clear
,16090,,,,,KNYC 050451Z AUTO VRB03KT 10SM SCT024 OVC035 16/11 A3005 RMK AO2 SLP165 T01560111 401830100 $,2022-05-05T04:51:00+00:00,,27,,,,,,,,,,Cloudy
,16090,101490,50,67.362333041274,,KLGA 050151Z 05005KT 10SM SCT032 BKN039 BKN070 17/11 A2997 RMK AO2 SLP147 T01720111,2022-05-05T01:51:00+00:00,,9,17.2,,,,11.1,,,101470,9.36,Mostly Cloudy
,16090,102000,50,82.818647556175,,KLGA 030926Z 05003KT 10SM SCT015 11/08 A3012 RMK AO2 T01060078,2022-05-03T09:26:00+00:00,,9,10.6,,,,7.8,,,,5.4,Partly Cloudy
,16090,101900,340,17.938604493706,,KLGA 300151Z 34015G22KT 10SM CLR 13/M11 A3009 RMK AO2 SLP188 T01331106,2022-04-30T01:51:00+00:00,,9,13.3,,,,-10.6,,,101880,27.72,Clear
,16090,,,,,KNYC 301051Z AUTO VRB04KT 10SM CLR 07/M07 A3018 RMK AO2 SLP210 T00721067 $,2022-04-30T10:51:00+00:00,,27,,,,,,,,,,Clear
,16090,101930,20,48.634408597762,,KEWR 051451Z 02005KT 10SM FEW032 SCT250 19/08 A3010 RMK AO2 SLP192 T01940083 50009,2022-05-05T14:51:00+00:00,,9,19.4,,,,8.3,,,101920,9.36,Partly Cloudy
,16090,101930,180,48.364801688473,,KEWR 010351Z 18003KT 10SM CLR 11/01 A3010 RMK AO2 SLP191 T01110006,2022-05-01T03:51:00+00:00,,9,11.1,,,,0.6,,,101910,5.4,Clear
,16090,101420,340,75.345564108887,,KTEB 050051Z 34005KT 10SM OVC036 17/13 A2995 RMK AO2 RAB21E22 SLP140 P0000 T01720128,2022-05-05T00:51:00+00:00,,3,17.2,,0,,12.8,,,101400,9.36,Cloudy
,16090,101250,,67.711655156444,,KTEB 042251Z VRB03KT 10SM CLR 19/13 A2990 RMK AO2 SLP126 T01890128,2022-05-04T22:51:00+00:00,,3,18.9,,,,12.8,,,101260,5.4,Clear
,16090,102000,60,91.984495702735,,KJFK 010951Z 06003KT 10SM CLR 06/04 A3012 RMK AO2 SLP199 T00560044,2022-05-01T09:51:00+00:00,,7,5.6,,,,4.4,4.631138051335,,101990,5.4,Clear
,16090,101690,190,59.870523930267,,KJFK 052151Z 19011KT 10SM FEW060 FEW160 BKN230 16/08 A3003 RMK AO2 SLP170 T01610083,2022-05-05T21:51:00+00:00,,7,16.1,,,,8.3,,,101700,20.52,Mostly Cloudy
,16090,101660,0,74.769652314474,,,2022-05-05T02:51:00+00:00,,27,16.7,,,,12.2,,,101570,0,Cloudy
,16090,101630,190,42.010163472526,,KLGA 052151Z 19010KT 10SM FEW050 FEW180 SCT230 BKN260 20/07 A3001 RMK AO2 SLP161 T02000067,2022-05-05T21:51:00+00:00,,9,20,,,,6.7,,,101610,18.36,Mostly Cloudy
,16090,101520,140,90.036281705393,,KJFK 050151Z 14004KT 10SM FEW020 BKN031 BKN110 13/12 A2998 RMK AO2 SLP151 T01330117,2022-05-05T01:51:00+00:00,,7,13.3,,,,11.7,,,101510,7.56,Mostly Cloudy
,16090,102030,100,71.62381165163,,KTEB 032251Z 10008KT 10SM CLR 13/08 A3013 RMK AO2 SLP202 T01280078,2022-05-03T22:51:00+00:00,,3,12.8,,,,7.8,,,102020,14.76,Clear
,16090,101490,50,86.639151568653,,KJFK 061351Z 05006KT 10SM -RA FEW028 BKN075 OVC090 14/12 A2997 RMK AO2 SLP148 P0001 T01440122,2022-05-06T13:51:00+00:00,,7,14.4,,0,,12.2,,,101480,11.16,Light Rain
,16090,101860,10,89.317597936371,,KTEB 030251Z 01006KT 10SM OVC013 12/10 A3008 RMK AO2 SLP187 T01170100 53007,2022-05-03T02:51:00+00:00,,3,11.7,,,,10,,,101870,11.16,Cloudy
,2010,101800,60,92.993524010865,,KNYC 021651Z AUTO 06004KT 1 1/4SM BR OVC004 12/11 A3006 RMK AO2 RAE50 SLP170 P0000 T01220111 $,2022-05-02T16:51:00+00:00,,27,12.2,,0,,11.1,,,101700,7.56,Fog/Mist
,16090,101800,150,29.547626010826,,KEWR 302351Z 15007KT 10SM SCT250 16/M02 A3006 RMK AO2 SLP178 T01611017 10211 20161 53011,2022-04-30T23:51:00+00:00,,9,16.1,,,,-1.7,,,101780,12.96,Partly Cloudy
,16090,102030,20,85.680481185637,,KEWR 030951Z 02008KT 10SM FEW014 FEW160 11/08 A3013 RMK AO2 SLP201 T01060083 $,2022-05-03T09:51:00+00:00,,9,10.6,,,,8.3,,,102010,14.76,Mostly Clear
,16090,,,,,KNYC 052051Z AUTO VRB03KT 10SM CLR 22/03 A3003 RMK AO2 SLP161 T02170033 58019 $,2022-05-05T20:51:00+00:00,,27,,,,,,,,,,Clear
,16090,101590,20,80.202281999569,,KTEB 050351Z 02004KT 10SM -DZ OVC023 16/12 A3000 RMK AO2 DZB20 SLP158 P0000 T01560122,2022-05-05T03:51:00+00:00,,3,15.6,,0,,12.2,,,101580,7.56,Light Drizzle
,16090,101800,120,37.810234433934,,KEWR 012251Z 12006KT 10SM SCT100 OVC180 16/02 A3006 RMK AO2 SLP177 T01610017,2022-05-01T22:51:00+00:00,,9,16.1,,,,1.7,,,101770,11.16,Cloudy
,16090,101860,0,50.173525935185,,KTEB 051551Z 00000KT 10SM CLR 19/08 A3008 RMK AO2 SLP184 T01890083,2022-05-05T15:51:00+00:00,,3,18.9,,,,8.3,,,101840,0,Clear
,16090,101930,340,22.038171996243,,KLGA 300251Z 34011G19KT 10SM CLR 12/M09 A3010 RMK AO2 SLP193 T01221089 51026,2022-04-30T02:51:00+00:00,,9,12.2,,,,-8.9,,35.28,101930,20.52,Clear
,16090,102000,0,29.916273112003,,KNYC 010251Z AUTO 00000KT 10SM CLR 13/M04 A3012 RMK AO2 SLP191 T01281044 50011 $,2022-05-01T02:51:00+00:00,,27,12.8,,,,-4.4,,,101910,0,Clear
,8050,101560,,89.22963410269,,KTEB 041251Z 5SM -RA BR OVC005 11/09 A2999 RMK AO2 RAE23B48 SLP157 P0001 T01060089,2022-05-04T12:51:00+00:00,,3,10.6,,0,,8.9,,,101570,,Light Rain and Fog/Mist
,16090,102000,330,30.289434604866,,KLGA 300651Z 33009KT 10SM CLR 09/M07 A3012 RMK AO2 SLP198 T00941072,2022-04-30T06:51:00+00:00,,9,9.4,,,,-7.2,6.999965789968333,,101980,16.56,Clear
,8050,101730,150,89.181204957654,,KTEB 040816Z 15004KT 5SM BR FEW009 OVC014 10/08 A3004 RMK AO2 RAE06 P0002 T01000083,2022-05-04T08:16:00+00:00,,3,10,,0,,8.3,,,,7.56,Fog/Mist
,16090,101900,,22.306635386769,,KLGA 291451Z 31019G26KT 10SM FEW250 10/M11 A3009 RMK AO2 PK WND 32026/1443 SLP188 T01001106 58011,2022-04-29T14:51:00+00:00,,9,10,,,,-10.6,,,101880,,Mostly Clear
,6440,101860,110,87.383237448204,,KTEB 040548Z 11003KT 4SM BR OVC009 10/08 A3008 RMK AO2 CIG 008V012,2022-05-04T05:48:00+00:00,,3,10,,,,8,,,,5.4,Fog/Mist
,16090,101830,150,80.266011265195,,KTEB 020351Z 15003KT 10SM -RA SCT055 OVC070 12/09 A3007 RMK AO2 SLP183 P0000 T01220089,2022-05-02T03:51:00+00:00,,3,12.2,,0,,8.9,,,101830,5.4,Light Rain
,16090,102030,360,89.181204957654,,KJFK 030941Z 36004KT 10SM SCT009 10/08 A3013 RMK AO2 T01000083,2022-05-03T09:41:00+00:00,,7,10,,,,8.3,,,,7.56,Partly Cloudy
,16090,102030,350,85.795186713907,,,2022-05-03T04:26:00+00:00,,27,11.7,,,,9.4,,,,5.4,Mostly Cloudy
,16090,102170,90,66.669484989857,,KNYC 032151Z AUTO 09009KT 070V170 10SM OVC025 14/08 A3017 RMK AO2 SLP208 T01390078 $,2022-05-03T21:51:00+00:00,,27,13.9,,,,7.8,,,102080,16.56,Cloudy
,16090,102170,,24.521155721217,,KNYC 300451Z AUTO VRB03KT 10SM CLR 10/M09 A3017 RMK AO2 SLP206 T01001094 401720050 $,2022-04-30T04:51:00+00:00,,27,10,,,,-9.4,,,102060,5.4,Clear
,16090,101590,20,86.639151568653,,,2022-05-05T03:38:00+00:00,,7,14.4,,,,12.2,,,,12.96,Mostly Cloudy
,16090,102070,170,36.393693984635,,KJFK 011751Z 17010KT 10SM FEW200 BKN250 17/02 A3014 RMK AO2 SLP204 T01670017 10167 20106 58007,2022-05-01T17:51:00+00:00,,7,16.7,,,,1.7,,,102040,18.36,Mostly Cloudy
,16090,101460,80,81.879846925107,,KLGA 041749Z 08006KT 10SM BKN015 OVC050 12/09 A2996 RMK AO2 $,2022-05-04T17:49:00+00:00,,9,12,,,,9,,,,11.16,Cloudy
,16090,101460,0,68.973277430726,,KTEB 060851Z 00000KT 10SM BKN120 14/08 A2996 RMK AO2 SLP146 T01390083 58002,2022-05-06T08:51:00+00:00,,3,13.9,,,,8.3,,,101460,0,Mostly Cloudy
,16090,101830,,54.250951590895,,KJFK 051851Z 20011KT 10SM FEW055 BKN250 18/09 A3007 RMK AO2 SLP182 T01830089,2022-05-05T18:51:00+00:00,,7,18.3,,,,8.9,,,101820,,Mostly Cloudy
,8050,101690,280,86.313549377715,,KTEB 021039Z 28012KT 5SM TSRA BR BKN023 BKN033 OVC100 11/09 A3003 RMK AO2 WSHFT 1001 LTG DSNT SE RAB0955 TSB0956E11B12 TS FRQ LTG CGICCCCA P0010 T01110089,2022-05-02T10:39:00+00:00,,3,11.1,,0,,8.9,,,,22.32,Thunderstorms and Rain and Fog/Mist
,16090,102000,0,22.288499267921,,KNYC 011751Z AUTO 00000KT 10SM CLR 20/M02 A3012 RMK AO2 SLP191 T02001022 10206 20122 58016 $,2022-05-01T17:51:00+00:00,,27,20,,,,-2.2,,,101910,0,Clear
,16090,101800,150,37.810234433934,,KLGA 012251Z 15010KT 10SM SCT100 BKN170 OVC250 16/02 A3006 RMK AO2 SLP179 T01610017 $,2022-05-01T22:51:00+00:00,,9,16.1,,,,1.7,,,101790,18.36,Cloudy
,16090,101800,0,89.954432820851,,KNYC 020651Z AUTO 00000KT 10SM OVC027 13/06 A3006 RMK AO2 SLP172 T01 NO CARRIER RING CONNECT 57600 PHLMTRACY ALL TTAA00 KACY 020654 METAR KACY 020654Z 11005KT 10SM -RA OVC028 12/11 A3000 RMK AO2 RAB37 SLP159 P0002 T01220106,2022-05-02T06:51:00+00:00,,27,12.2,,0,,10.6,,,101720,0,Cloudy
,16090,101730,20,74.978033950497,,KEWR 050951Z 02006KT 10SM BKN033 BKN075 BKN250 15/11 A3004 RMK AO2 SLP171 T01500106,2022-05-05T09:51:00+00:00,,9,15,,,,10.6,,,101710,11.16,Mostly Cloudy
,16090,102030,30,82.880385175758,,KTEB 031051Z 03005KT 10SM BKN013 11/08 A3013 RMK AO2 SLP204 T01110083,2022-05-03T10:51:00+00:00,,3,11.1,,,,8.3,,,102040,9.36,Mostly Cloudy
,16090,102070,,19.923750907887,,KNYC 300251Z AUTO VRB05KT 10SM CLR 12/M11 A3014 RMK AO2 SLP197 T01171106 51028 $,2022-04-30T02:51:00+00:00,,27,11.7,,,,-10.6,,,101970,9.36,Clear
,16090,,,,,KTEB 031158Z 36006KT 10SM BKN021 13/09 A3015 RMK AO2 T01280089,2022-05-03T11:58:00+00:00,,3,,,,,,,,,,Mostly Cloudy
,16090,102070,0,82.880385175758,,KNYC 030806Z AUTO 00000KT 10SM SCT012 SCT023 11/08 A3014 RMK AO2 T01110083 $,2022-05-03T08:06:00+00:00,,27,11.1,,,,8.3,,,,0,Partly Cloudy
,8050,101690,,96.731932441167,,KJFK 021056Z 13020G26KT 5SM TSRA BR BKN011CB BKN038 OVC070 11/11 A3003 RMK AO2 PK WND 13026/1053 WSHFT 1039 OCNL LTGICCG NE-S TS NE-S MOV E P0001 T01110106,2022-05-02T10:56:00+00:00,,7,11.1,,0,,10.6,,,,,Thunderstorms and Rain and Fog/Mist
,14480,102000,130,85.680481185637,,KNYC 040406Z AUTO 13009KT 9SM OVC009 11/08 A3012 RMK AO2 CIG 007V012 T01060083 $,2022-05-04T04:06:00+00:00,,27,10.6,,,,8.3,,,,16.56,Cloudy
,16090,101970,200,24.761910914694,,KTEB 011651Z 20008KT 10SM CLR 19/M02 A3011 RMK AO2 SLP195 T01891017,2022-05-01T16:51:00+00:00,,3,18.9,,,,-1.7,,,101950,14.76,Clear
,16090,101860,160,30.507086022337,,KLGA 012151Z 16012KT 10SM SCT110 BKN180 BKN250 16/M02 A3008 RMK AO2 SLP186 T01561017 $,2022-05-01T21:51:00+00:00,,9,15.6,,,,-1.7,,,101860,22.32,Mostly Cloudy
,4830,101730,80,89.181204957654,,KTEB 040751Z 08005KT 3SM -RA BR OVC009 10/08 A3004 RMK AO2 RAB34 PRESFR SLP171 P0003 T01000083,2022-05-04T07:51:00+00:00,,3,10,,0,,8.3,,,101710,9.36,Light Rain and Fog/Mist
,16090,101630,360,77.935757394379,,KTEB 050651Z 36005KT 10SM OVC080 14/11 A3001 RMK AO2 SLP162 T01440106,2022-05-05T06:51:00+00:00,,3,14.4,,,,10.6,,,101620,9.36,Cloudy
,16090,102070,10,44.507972969151,,KEWR 011151Z 01008KT 10SM FEW250 12/00 A3014 RMK AO2 SLP205 T01170000 10117 20061 53010,2022-05-01T11:51:00+00:00,,9,11.7,,,,0,,,102050,14.76,Mostly Clear
,8050,101660,0,89.954432820851,,KTEB 021951Z 00000KT 5SM BR OVC009 12/11 A3002 RMK AO2 SLP164 T01220106,2022-05-02T19:51:00+00:00,,3,12.2,,,,10.6,,,101640,0,Fog/Mist
,16090,102100,20,77.073390888716,,KJFK 031151Z 02013KT 10SM SCT015 SCT250 12/08 A3015 RMK AO2 SLP210 70002 T01220083 10122 20100 53008,2022-05-03T11:51:00+00:00,,7,12.2,,,,8.3,,,102100,24.12,Partly Cloudy
,16090,102070,20,82.954048467221,,KEWR 031051Z 02010KT 10SM FEW015 SCT200 12/09 A3014 RMK AO2 SLP204 T01170089,2022-05-03T10:51:00+00:00,,9,11.7,,,,8.9,,,102040,18.36,Partly Cloudy
,16090,101590,,10.61138721829,,KJFK 291851Z 30021G27KT 10SM FEW250 17/M14 A3000 RMK AO2 PK WND 33032/1829 SLP158 T01671144,2022-04-29T18:51:00+00:00,,7,16.7,,,,-14.4,,50.04,101580,,Mostly Clear
,16090,101930,10,86.313549377715,,,2022-05-03T04:26:00+00:00,,9,11.1,,,,8.9,,,,7.56,Mostly Cloudy
,16090,101930,30,81.750052187031,,KLGA 030648Z 03003KT 10SM OVC015 11/08 A3010 RMK AO2,2022-05-03T06:48:00+00:00,,9,11,,,,8,,,,5.4,Cloudy
,16090,101660,190,43.16334660497,,KLGA 052251Z 19012KT 10SM FEW060 FEW160 BKN220 BKN260 19/06 A3002 RMK AO2 SLP166 T01890061,2022-05-05T22:51:00+00:00,,9,18.9,,,,6.1,,,101660,22.32,Mostly Cloudy
,4830,101690,30,92.993524010865,,KTEB 022251Z 03004KT 3SM BR OVC009 12/11 A3003 RMK AO2 SLP168 T01220111,2022-05-02T22:51:00+00:00,,3,12.2,,,,11.1,,,101680,7.56,Fog/Mist
,14480,101730,50,83.703963952178,,KEWR 021251Z 05006KT 9SM BKN014 OVC020 13/11 A3004 RMK AO2 SLP173 T01330106,2022-05-02T12:51:00+00:00,,9,13.3,,,,10.6,,,101730,11.16,Cloudy
,16090,102000,140,71.62381165163,,KEWR 032351Z 14010G16KT 10SM SCT023 BKN150 OVC250 13/08 A3012 RMK AO2 SLP199 T01280078 10183 20128 58010,2022-05-03T23:51:00+00:00,,9,12.8,,,,7.8,,,101990,18.36,Cloudy
,12870,,,,,KEWR 041025Z 05003KT 8SM -RA SCT007 BKN028 OVC120 11/09 A3000 RMK AO2 P0000 T01110094,2022-05-04T10:25:00+00:00,,9,,,0,,,,,,,Light Rain
,2410,101730,,89.954432820851,,KTEB 021556Z VRB04KT 1 1/2SM R06/3500VP6000FT -RA BR OVC004 12/11 A3004 RMK AO2 RAB52 P0000 T01220106,2022-05-02T15:56:00+00:00,,3,12.2,,0,,10.6,,,,7.56,Light Rain and Fog/Mist
,16090,,,,,KLGA 031534Z 06010KT 10SM SCT021 BKN250 14/07 A3018 RMK AO2 T01390072 $,2022-05-03T15:34:00+00:00,,9,,,,,,,,,,Mostly Cloudy
,16090,101660,90,20.101434156632,,KTEB 302151Z 09006KT 10SM CLR 18/M05 A3002 RMK AO2 SLP165 T01831050,2022-04-30T21:51:00+00:00,,3,18.3,,,,-5,,,101650,11.16,
,16090,,,,,KLGA 021001Z 11009KT 10SM VCTS OVC021 12/07 A3003 RMK AO2 LTG DSNT SW CB DSNT SW T01170072 $,2022-05-02T10:01:00+00:00,,9,,,,,,,,,,Cloudy
,12870,101860,,89.954432820851,,KNYC 021419Z AUTO VRB04KT 8SM FEW009 OVC020 12/11 A3008 RMK AO2 T01220106 $,2022-05-02T14:19:00+00:00,,27,12.2,,,,10.6,,,,7.56,Cloudy
,16090,101760,180,25.263561584627,,KJFK 302029Z 18011KT 10SM CLR 17/M03 A3005 RMK AO2 WSHFT 2009 T01671033,2022-04-30T20:29:00+00:00,,7,16.7,,,,-3.3,,,,20.52,Clear
,16090,,,,,KNYC 040258Z AUTO 13009G14KT 10SM OVC014 12/08 A3014 RMK AO2 T01170078 $,2022-05-04T02:58:00+00:00,,27,,,,,,,,,,Cloudy
0,16090,101760,90,77.168206621341,,KTEB 020551Z 09003KT 10SM BKN045 OVC050 13/09 A3005 RMK AO2 RAE46 SLP176 P0000 60000 T01280089 10161 20117 58006,2022-05-02T05:51:00+00:00,,3,12.8,,0,,8.9,,,101760,5.4,Cloudy
,16090,101930,140,48.364801688473,,KLGA 010451Z 14004KT 10SM CLR 11/01 A3010 RMK AO2 SLP193 T01110006 401940083,2022-05-01T04:51:00+00:00,,9,11.1,,,,0.6,,,101930,7.56,Clear
,16090,101660,360,74.582928368531,,KJFK 050535Z 36009KT 10SM OVC032 16/11 A3002 RMK AO2 T01560111,2022-05-05T05:35:00+00:00,,7,15.6,,,,11.1,,,,16.56,Cloudy
,16090,101760,0,46.245115753983,,KNYC 052351Z AUTO 00000KT 10SM CLR 18/06 A3005 RMK AO2 SLP167 T01780061 10233 20178 51006 $,2022-05-05T23:51:00+00:00,,27,17.8,,,,6.1,,,101670,0,Clear
,4020,101630,100,96.731932441167,,KJFK 041305Z 10003KT 2 1/2SM BR OVC004 11/11 A3001 RMK AO2 SFC VIS 6 DZE05 P0000 T01110106,2022-05-04T13:05:00+00:00,,7,11.1,,0,,10.6,,,,5.4,Fog/Mist
,16090,101460,80,86.531884394108,,KTEB 061351Z 08006KT 10SM -RA OVC060 13/11 A2996 RMK AO2 SLP145 P0002 T01330111,2022-05-06T13:51:00+00:00,,3,13.3,,0,,11.1,,,101450,11.16,Light Rain
,16090,101760,160,42.044566007574,,KLGA 012351Z 16012KT 10SM SCT090 BKN180 BKN220 15/02 A3005 RMK AO2 SLP175 T01500022 10194 20144 58008 $,2022-05-01T23:51:00+00:00,,9,15,,,,2.2,,,101750,22.32,Mostly Cloudy
,16090,102100,0,82.880385175758,,KNYC 030912Z AUTO 00000KT 10SM OVC015 11/08 A3015 RMK AO2 T01110083 $,2022-05-03T09:12:00+00:00,,27,11.1,,,,8.3,,,,0,Cloudy
,16090,102100,0,86.313549377715,,KNYC 030851Z AUTO 00000KT 10SM OVC013 11/09 A3015 RMK AO2 SLP202 T01110089 53006 $,2022-05-03T08:51:00+00:00,,27,11.1,,,,8.9,,,102020,0,Cloudy
,4020,101590,70,96.731932441167,,KJFK 041351Z 07005KT 2 1/2SM -RA BR OVC004 11/11 A3000 RMK AO2 SFC VIS 6 DZE05RAB20 SLP158 P0001 T01110106,2022-05-04T13:51:00+00:00,,7,11.1,,0,,10.6,,,101580,9.36,Light Rain and Fog/Mist
,16090,101760,60,29.904003131406,,KLGA 051851Z 06006KT 10SM FEW050 BKN250 21/03 A3005 RMK AO2 SLP176 T02110028,2022-05-05T18:51:00+00:00,,9,21.1,,,,2.8,,,101760,11.16,Mostly Cloudy
,16090,101760,60,85.795186713907,,KTEB 021358Z 06004KT 10SM BR SCT014 OVC023 12/09 A3005 RMK AO2 T01170094,2022-05-02T13:58:00+00:00,,3,11.7,,,,9.4,,,,7.56,Fog/Mist
,16090,101970,180,56.07584487389,,KEWR 010451Z 18004KT 10SM CLR 11/02 A3011 RMK AO2 SLP194 T01060022 402110072,2022-05-01T04:51:00+00:00,,9,10.6,,,,2.2,,,101940,7.56,Clear
,16090,102100,10,28.098527750934,,KTEB 301251Z 01005KT 10SM CLR 11/M07 A3015 RMK AO2 SLP208 T01111067,2022-04-30T12:51:00+00:00,,3,11.1,,,,-6.7,,,102080,9.36,Clear
,16090,101660,300,9.6126450170453,,KNYC 292051Z AUTO 30007G20KT 10SM CLR 17/M16 A3002 RMK AO2 SLP157 T01671156 56009 $,2022-04-29T20:51:00+00:00,,27,16.7,,,,-15.6,,37.08,101570,12.96,Clear
,3220,,,,,KNYC 021527Z AUTO VRB03KT 2SM BR OVC009 12/11 A3007 RMK AO2 VIS 1 1/4V2 1/2 CIG 005V011 T01220111 $,2022-05-02T15:27:00+00:00,,27,,,,,,,,,,Fog/Mist
,16090,102100,320,30.412101648399,,KLGA 301251Z 32008KT 10SM CLR 11/M06 A3015 RMK AO2 SLP208 T01061061,2022-04-30T12:51:00+00:00,,9,10.6,,,,-6.1,,,102080,14.76,Clear
,16090,101690,360,71.923565721953,,KJFK 050851Z 36011KT 10SM BKN075 14/09 A3003 RMK AO2 SLP168 T01440094 53006,2022-05-05T08:51:00+00:00,,7,14.4,,,,9.4,,,101680,20.52,Mostly Cloudy
,16090,101660,360,74.290523029752,,KLGA 050851Z 36011KT 10SM BKN080 14/09 A3002 RMK AO2 SLP167 T01390094 53005,2022-05-05T08:51:00+00:00,,9,13.9,,,,9.4,,,101670,20.52,Mostly Cloudy
,16090,101660,150,41.893107651205,,KEWR 052251Z 15008KT 10SM FEW060 BKN210 OVC250 21/07 A3002 RMK AO2 SLP166 T02060072,2022-05-05T22:51:00+00:00,,9,20.6,,,,7.2,,,101660,14.76,Cloudy
,6440,101360,200,77.603412846276,,KTEB 041851Z 20005G18KT 4SM BR OVC009 16/12 A2993 RMK AO2 SLP135 T01560117,2022-05-04T18:51:00+00:00,,3,15.6,,,,11.7,,,101350,9.36,Fog/Mist
,16090,,,,,KNYC 042351Z AUTO 00000KT 10SM OVC090 18/13 A2995 RMK AO2 SLP134 T01780128 10183 20139 53005 $,2022-05-04T23:51:00+00:00,,27,,,,,,,,,,Cloudy
,16090,,,,,KLGA 040959Z 05003KT 10SM -RA OVC008 10/08 A3003 RMK AO2 P0000 T01000083 $,2022-05-04T09:59:00+00:00,,9,,,0,,,,,,,Light Rain
,16090,101560,330,12.059054277702,,KLGA 292151Z 33015G24KT 10SM CLR 16/M13 A2999 RMK AO2 SLP153 T01611133,2022-04-29T21:51:00+00:00,,9,16.1,,,,-13.3,,44.64,101530,27.72,Clear
,16090,102100,0,82.880385175758,,KNYC 030927Z AUTO 00000KT 10SM OVC014 11/08 A3015 RMK AO2 T01110083 $,2022-05-03T09:27:00+00:00,,27,11.1,,,,8.3,,,,0,Cloudy
,16090,101930,200,56.07584487389,,KJFK 010051Z 20010KT 10SM FEW250 11/02 A3010 RMK AO2 SLP193 T01060022,2022-05-01T00:51:00+00:00,,7,10.6,,,,2.2,,,101930,18.36,Mostly Clear
,16090,102070,50,41.227633150968,,KLGA 011251Z 05005KT 10SM FEW200 SCT280 12/M01 A3014 RMK AO2 SLP207 T01221006,2022-05-01T12:51:00+00:00,,9,12.2,,,,-0.6,,,102070,9.36,Partly Cloudy
,16090,102000,0,82.880385175758,,KTEB 030851Z 00000KT 10SM OVC014 11/08 A3012 RMK AO2 SLP199 T01110083 53007,2022-05-03T08:51:00+00:00,,3,11.1,,,,8.3,,,101990,0,Cloudy
,16090,101830,,9.7786143997002,,KEWR 300051Z 33015KT 10SM CLR 15/M17 A3007 RMK AO2 SLP181 T01501167,2022-04-30T00:51:00+00:00,,9,15,,,,-16.7,,,101810,,Clear
,16090,101860,0,40.310190364502,,,2022-05-05T16:51:00+00:00,,7,20,,,,6.1,,,101850,0,
,16090,,,,,KLGA 032129Z 05013KT 10SM BKN027 BKN170 BKN250 13/07 A3015 RMK AO2 T01330072 $,2022-05-03T21:29:00+00:00,,9,,,,,,,,,,Mostly Cloudy
,16090,101730,150,22.533095613594,,KEWR 302251Z 15008KT 10SM SCT250 18/M04 A3004 RMK AO2 SLP170 T01781039,2022-04-30T22:51:00+00:00,,9,17.8,,,,-3.9,,,101700,14.76,Partly Cloudy
,16090,102030,100,82.818647556175,,KJFK 032351Z 10010KT 10SM SCT023 BKN170 BKN250 11/08 A3013 RMK AO2 SLP203 T01060078 10167 20106 58008,2022-05-03T23:51:00+00:00,,7,10.6,,,,7.8,,,102030,18.36,Mostly Cloudy
,16090,101590,340,11.382391702298,,KJFK 292251Z 34016KT 10SM CLR 16/M14 A3000 RMK AO2 PK WND 33027/2216 SLP159 T01561144,2022-04-29T22:51:00+00:00,,7,15.6,,,,-14.4,,,101590,29.52,Clear
,16090,102100,360,74.098802959788,,KTEB 031206Z 36006KT 10SM SCT021 13/08 A3015 RMK AO2 T01280083,2022-05-03T12:06:00+00:00,,3,12.8,,,,8.3,,,,11.16,Partly Cloudy
,16090,101690,180,53.965364925207,,KEWR 060251Z 18006KT 10SM FEW150 BKN200 BKN260 17/08 A3003 RMK AO2 SLP168 T01720078 53003,2022-05-06T02:51:00+00:00,,9,17.2,,,,7.8,,,101680,11.16,Mostly Cloudy
,4830,,,,,KJFK 040844Z 09004KT 3SM BR OVC006 09/09 A3005 RMK AO2 SFC VIS 10 RAE25 CIG 004V010 P0002 T00940089,2022-05-04T08:44:00+00:00,,7,,,0,,,,,,,Fog/Mist
,16090,101690,20,17.660864137571,,KLGA 302051Z 02003KT 10SM FEW250 18/M07 A3003 RMK AO2 SLP168 T01831067 56014,2022-04-30T20:51:00+00:00,,9,18.3,,,,-6.7,,,101680,5.4,Mostly Clear
,16090,101630,320,9.4223572210699,,KEWR 291851Z 32015G27KT 10SM FEW250 18/M15 A3001 RMK AO2 PK WND 32030/1817 SLP163 T01781150,2022-04-29T18:51:00+00:00,,9,17.8,,,,-15,,50.04,101630,27.72,Mostly Clear
,16090,101560,310,11.245248892042,,KJFK 291951Z 31015G28KT 10SM FEW250 17/M13 A2999 RMK AO2 PK WND 35031/1904 SLP153 T01721133,2022-04-29T19:51:00+00:00,,7,17.2,,,,-13.3,,51.84,101530,27.72,Mostly Clear
,16090,101760,320,18.224565702154,,KLGA 301851Z 32003KT 10SM CLR 18/M07 A3005 RMK AO2 SLP176 T01781067,2022-04-30T18:51:00+00:00,,9,17.8,,,,-6.7,,,101760,5.4,Clear
,16090,101760,90,89.954432820851,,KJFK 021408Z 09013KT 10SM OVC014 12/11 A3005 RMK AO2 T01220106,2022-05-02T14:08:00+00:00,,7,12.2,,,,10.6,,,,24.12,Cloudy
,3220,101520,60,89.269748995158,,KLGA 041551Z 06009KT 2SM BR OVC006 11/09 A2998 RMK AO2 SFC VIS 3 SLP152 T01110094 $,2022-05-04T15:51:00+00:00,,9,11.1,,,,9.4,,,101520,16.56,Fog/Mist
,4830,,,,,KNYC 021022Z AUTO 00000KT 3SM -RA BR SCT018 BKN042 OVC080 11/09 A3006 RMK AO2 RAB0955 P0020 T01060094 $,2022-05-02T10:22:00+00:00,,27,,,0.01,,,,,,,Light Rain and Fog/Mist
,16090,,,,,KNYC 031022Z AUTO 01006KT 10SM BKN014 11/08 A3016 RMK AO2 T01110083 $,2022-05-03T10:22:00+00:00,,27,,,,,,,,,,Mostly Cloudy
,16090,102100,,62.350547871685,,KTEB 031651Z VRB06KT 10SM SCT031 16/09 A3015 RMK AO2 SLP208 T01610089,2022-05-03T16:51:00+00:00,,3,16.1,,,,8.9,,,102080,11.16,Partly Cloudy
,16090,,,,,KNYC 020637Z AUTO VRB03KT 10SM BKN025 OVC031 13/06 A3007 RMK AO2 T01330061 $,2022-05-02T06:37:00+00:00,,27,,,,,,,,,,Cloudy
,16090,101830,340,11.260304301039,,KNYC 291651Z AUTO 34011G17KT 280V360 10SM CLR 15/M15 A3007 RMK AO2 SLP173 T01501150 $,2022-04-29T16:51:00+00:00,,27,15,,,,-15,,31.68,101730,20.52,Clear
,16090,102030,,32.025579369114,,KTEB 011351Z VRB05KT 10SM CLR 16/M01 A3013 RMK AO2 SLP201 T01611006,2022-05-01T13:51:00+00:00,,3,16.1,,,,-0.6,,,102010,9.36,Clear
,16090,101660,90,76.993951308353,,KTEB 020851Z 09003KT 10SM SCT026 OVC032 12/08 A3002 RMK AO2 RAB0758E47 SLP165 P0003 60003 T01170078 56011,2022-05-02T08:51:00+00:00,,3,11.7,,0,0,7.8,,,101650,5.4,Cloudy
,16090,,,,,KNYC 052251Z AUTO VRB05KT 10SM CLR 19/06 A3005 RMK AO2 SLP167 T01890061 $,2022-05-05T22:51:00+00:00,,27,,,,,,,,,,Clear
,16090,102100,310,35.074021772135,,KJFK 301051Z 31010KT 10SM CLR 08/M07 A3015 RMK AO2 SLP211 T00781067,2022-04-30T10:51:00+00:00,,7,7.8,,,,-6.7,4.796581540677778,,102110,18.36,Clear
,16090,102100,80,59.870523930267,,KTEB 031751Z 08007KT 10SM CLR 16/08 A3015 RMK AO2 SLP209 T01610083 10172 20122 55004,2022-05-03T17:51:00+00:00,,3,16.1,,,,8.3,,,102090,12.96,Clear
,16090,,,,,KNYC 042151Z AUTO VRB03KT 10SM FEW021 FEW100 BKN120 18/13 A2994 RMK AO2 SLP129 T01830128 $,2022-05-04T21:51:00+00:00,,27,,,,,,,,,,Mostly Cloudy
,16090,101590,70,89.954432820851,,KTEB 021851Z 07005KT 10SM OVC006 12/11 A3000 RMK AO2 SLP159 T01220106,2022-05-02T18:51:00+00:00,,3,12.2,,,,10.6,,,101590,9.36,Cloudy
,16090,101590,,14.859305957182,,KTEB 291851Z 33017G27KT 10SM CLR 16/M11 A3000 RMK AO2 PK WND 30027/1841 SLP159 T01561111,2022-04-29T18:51:00+00:00,,3,15.6,,,,-11.1,,50.04,101590,,Clear
,16090,102200,80,57.870774670853,,KNYC 031951Z AUTO 08009KT 10SM FEW031 16/08 A3018 RMK AO2 SLP209 T01610078 $,2022-05-03T19:51:00+00:00,,27,16.1,,,,7.8,,,102090,16.56,Mostly Clear
,16090,102030,60,80.112078202727,,KTEB 030951Z 06003KT 10SM OVC013 11/08 A3013 RMK AO2 SLP201 T01110078,2022-05-03T09:51:00+00:00,,3,11.1,,,,7.8,,,102010,5.4,Cloudy
,16090,,,,,KJFK 050422Z 36010KT 10SM BKN023 OVC070 16/12 A3003 RMK AO2 T01560122,2022-05-05T04:22:00+00:00,,7,,,,,,,,,,Cloudy
0,16090,101860,120,86.202442841334,,KLGA 040551Z 12009KT 10SM -DZ BKN006 OVC010 10/08 A3008 RMK AO2 SLP186 P0000 60000 T01000078 10139 20100 58012 $,2022-05-04T05:51:00+00:00,,9,10,,0,,7.8,,,101860,16.56,Light Drizzle
,16090,,,,,KNYC 040251Z AUTO 10004KT 10SM OVC015 12/08 A3014 RMK AO2 SLP196 T01170078 56002 $,2022-05-04T02:51:00+00:00,,27,,,,,,,,,,Cloudy
,16090,,,,,KTEB 030108Z 02004KT 10SM OVC007 12/10 A3006 RMK AO2 T01170100,2022-05-03T01:08:00+00:00,,3,,,,,,,,,,Cloudy
,3220,101730,280,82.880385175758,,KTEB 021015Z 28012KT 2SM TSRA BKN023 OVC037 11/08 A3004 RMK AO2 WSHFT 1001 LTG DSNT S RAB0955 TSB0956E11B12 TS FRQ LTG CGICCCCA P0009 T01110083,2022-05-02T10:15:00+00:00,,3,11.1,,0,,8.3,,,,22.32,Thunderstorms and Rain
,12870,,,,,KNYC 041002Z AUTO 07003KT 8SM -RA OVC012 10/09 A3005 RMK AO2 P0000 T01000089 $,2022-05-04T10:02:00+00:00,,27,,,0,,,,,,,Light Rain
,16090,101800,130,69.101022929,,KNYC 020851Z AUTO 13006KT 10SM OVC023 12/07 A3006 RMK AO2 RAB06E47 SLP169 P0000 60000 T01220067 56011 $,2022-05-02T08:51:00+00:00,,27,12.2,,0,0,6.7,,,101690,11.16,Cloudy
,16090,101900,350,19.147748033475,,KTEB 300151Z 35009KT 10SM CLR 12/M11 A3009 RMK AO2 SLP189 T01171111,2022-04-30T01:51:00+00:00,,3,11.7,,,,-11.1,,,101890,16.56,Clear
0,6440,101760,60,86.313549377715,,KTEB 021151Z 06003KT 4SM BR OVC011 11/09 A3005 RMK AO2 RAE13 SLP177 P0000 60013 70013 T01110089 10128 20106 51012,2022-05-02T11:51:00+00:00,,3,11.1,,0,,8.9,,,101770,5.4,Fog/Mist
,16090,,,,,KNYC 030600Z AUTO 00000KT 10SM OVC016 11/09 A3013 RMK AO2 T01110089 $,2022-05-03T06:00:00+00:00,,27,,,,,,,,,,Cloudy
,16090,101490,280,72.546120189925,,KEWR 050151Z 28005KT 10SM FEW040 SCT065 BKN110 18/13 A2997 RMK AO2 SLP148 T01780128,2022-05-05T01:51:00+00:00,,9,17.8,,,,12.8,,,101480,9.36,Mostly Cloudy
,16090,102000,120,76.898108532185,,KLGA 040325Z 12010KT 10SM OVC012 11/07 A3012 RMK AO2 T01110072 $,2022-05-04T03:25:00+00:00,,9,11.1,,,,7.2,,,,18.36,Cloudy
,12870,101800,50,81.879846925107,,KLGA 021347Z 05009KT 8SM FEW013 OVC023 12/09 A3006 RMK AO2,2022-05-02T13:47:00+00:00,,9,12,,,,9,,,,16.56,Cloudy
,16090,101970,110,76.993951308353,,KEWR 040124Z 11007G17KT 10SM SCT022 BKN150 BKN250 12/08 A3011 RMK AO2 T01170078,2022-05-04T01:24:00+00:00,,9,11.7,,,,7.8,,,,12.96,Mostly Cloudy
,16090,102130,,21.836127495952,,,2022-05-01T15:51:00+00:00,,27,18.3,,,,-3.9,,,102040,5.4,
,16090,101660,360,80.500571981251,,KTEB 050751Z 36007KT 10SM OVC080 14/11 A3002 RMK AO2 SLP164 T01390106,2022-05-05T07:51:00+00:00,,3,13.9,,,,10.6,,,101640,12.96,Cloudy
,16090,101630,350,72.145507882091,,KLGA 050451Z 35007KT 10SM OVC037 16/11 A3001 RMK AO2 SLP163 T01560106 401940100,2022-05-05T04:51:00+00:00,,9,15.6,,,,10.6,,,101630,12.96,Cloudy
,16090,102130,320,29.094912507997,,KJFK 301151Z 32011KT 10SM CLR 10/M07 A3016 RMK AO2 SLP213 T01001072 10100 20067 51011,2022-04-30T11:51:00+00:00,,7,10,,,,-7.2,,,102130,20.52,Clear
,16090,102070,320,34.741164053448,,KJFK 300951Z 32009KT 10SM CLR 07/M08 A3014 RMK AO2 SLP207 T00671078,2022-04-30T09:51:00+00:00,,7,6.7,,,,-7.8,3.6458706356233335,,102070,16.56,Clear
,16090,101830,,85.680481185637,,KEWR 040651Z VRB06KT 10SM BKN006 OVC012 11/08 A3007 RMK AO2 DZE39 SLP181 P0000 T01060083,2022-05-04T06:51:00+00:00,,9,10.6,,0,,8.3,,,101810,11.16,Cloudy
,1610,,,,,KLGA 021627Z 04008KT 1SM R04/5000VP6000FT -RA BR OVC007 11/09 A3004 RMK AO2 CIG 004V010 P0001 T01110094,2022-05-02T16:27:00+00:00,,9,,,0,,,,,,,Light Rain and Fog/Mist
,4020,101660,60,92.934812010123,,KNYC 041337Z AUTO 06005KT 2 1/2SM -RA BR OVC007 11/10 A3002 RMK AO2 P0001 T01110100 $,2022-05-04T13:37:00+00:00,,27,11.1,,0,,10,,,,9.36,Light Rain and Fog/Mist
,16090,102070,70,32.025579369114,,KJFK 011351Z COR 07005KT 10SM SCT250 16/M01 A3014 RMK AO2 SLP207 T01611006,2022-05-01T13:51:00+00:00,,7,16.1,,,,-0.6,,,102070,9.36,Partly Cloudy
,2010,101690,,89.22963410269,,KLGA 022129Z 05014KT 1 1/4SM -DZ BR OVC005 11/09 A3003 RMK AO2 SFC VIS 3 RAE2052DZB18 CIG 004V010 P0000 T01060089,2022-05-02T21:29:00+00:00,,9,10.6,,0,,8.9,,,,,Light Drizzle and Fog/Mist
,8050,101560,0,83.220266513554,,KNYC 041740Z AUTO 00000KT 5SM HZ OVC010 14/11 A2999 RMK AO2 CIG 008V014 T01390111 $,2022-05-04T17:40:00+00:00,,27,13.9,,,,11.1,,,,0,Haze
,16090,102070,360,40.073323923865,,KTEB 011251Z 36006KT 10SM CLR 13/00 A3014 RMK AO2 SLP204 T01330000,2022-05-01T12:51:00+00:00,,3,13.3,,,,0,,,102040,11.16,Clear
,16090,101560,0,66.902625351419,,KNYC 060951Z AUTO 00000KT 10SM BKN120 15/09 A2999 RMK AO2 SLP146 T01500089 $,2022-05-06T09:51:00+00:00,,27,15,,,,8.9,,,101460,0,Mostly Cloudy
,16090,101460,210,61.814618307198,,KLGA 060951Z 21005KT 10SM OVC120 16/08 A2996 RMK AO2 SLP145 T01560083,2022-05-06T09:51:00+00:00,,9,15.6,,,,8.3,,,101450,9.36,Cloudy
,16090,101730,,8.9343050097668,,KEWR 291751Z 31022G29KT 10SM FEW250 17/M16 A3004 RMK AO2 PK WND 30032/1710 SLP171 T01721161 10178 20078 58022,2022-04-29T17:51:00+00:00,,9,17.2,,,,-16.1,,53.64,101710,,Mostly Clear
,8050,101900,110,100,,KJFK 040547Z 11007KT 5SM -DZ BR OVC004 09/09 A3009 RMK AO2 P0000,2022-05-04T05:47:00+00:00,,7,9,,0,,9,6.972938258898889,,,12.96,Light Drizzle and Fog/Mist
,16090,102130,60,59.604608806527,,KLGA 031651Z 06011KT 10SM FEW021 BKN210 15/07 A3016 RMK AO2 SLP214 T01500072 $,2022-05-03T16:51:00+00:00,,9,15,,,,7.2,,,102140,20.52,Mostly Cloudy
,16090,101800,,36.702266607464,21.43389251697278,KEWR 051751Z VRB03KT 10SM FEW050 BKN250 22/07 A3006 RMK AO2 SLP179 T02220067 10228 20167 56014,2022-05-05T17:51:00+00:00,,9,22.2,,,,6.7,,,101790,5.4,Mostly Cloudy
,16090,102000,320,32.554017247018,,KLGA 300751Z 32008KT 10SM CLR 09/M07 A3012 RMK AO2 SLP199 T00891067,2022-04-30T07:51:00+00:00,,9,8.9,,,,-6.7,6.6028417593711115,,101990,14.76,Clear
,16090,101730,360,89.269748995158,,KJFK 022251Z 36010KT 10SM SCT006 BKN012 OVC020 11/09 A3004 RMK AO2 SLP171 T01110094,2022-05-02T22:51:00+00:00,,7,11.1,,,,9.4,,,101710,18.36,Cloudy
,9660,101800,60,93.553471551667,,KNYC 021048Z AUTO 06007KT 6SM -RA BR OVC013 11/10 A3006 RMK AO2 RAB0955 P0021 $,2022-05-02T10:48:00+00:00,,27,11,,0.01,,10,,,,12.96,Light Rain and Fog/Mist
,16090,102000,,16.477864578057,,KNYC 301651Z AUTO VRB03KT 10SM CLR 17/M09 A3012 RMK AO2 SLP189 T01671089 $,2022-04-30T16:51:00+00:00,,27,16.7,,,,-8.9,,,101890,5.4,Clear
,4020,101560,100,96.107794274811,,KJFK 041451Z 10003KT 2 1/2SM OVC004 12/11 A2999 RMK AO2 SFC VIS 7 RAE41 SLP154 P0000 60001 T01170111 50001,2022-05-04T14:51:00+00:00,,7,11.7,,0,0,11.1,,,101540,5.4,Cloudy
0,11270,101660,90,86.639151568653,,KEWR 021751Z 09007KT 7SM BKN006 OVC010 14/12 A3002 RMK AO2 DZE49 SLP164 CIG 005V008 P0001 60002 T01440122 10144 20122 58006 $,2022-05-02T17:51:00+00:00,,9,14.4,,0,,12.2,,,101640,12.96,Cloudy
,16090,,,,,KNYC 011351Z AUTO 11007KT 10SM CLR 15/M02 A3016 RMK AO2 SLP205 T01501017 $,2022-05-01T13:51:00+00:00,,27,,,,,,,,,,Clear
,16090,101900,210,40.755700571029,,KTEB 010251Z 21004KT 10SM CLR 11/M02 A3009 RMK AO2 SLP188 T01061022 50013,2022-05-01T02:51:00+00:00,,3,10.6,,,,-2.2,,,101880,7.56,Clear
,8050,101730,90,89.954432820851,,KJFK 021551Z 09012KT 5SM -DZ BR OVC008 12/11 A3004 RMK AO2 DZB11 SLP172 P0000 T01220106,2022-05-02T15:51:00+00:00,,7,12.2,,0,,10.6,,,101720,22.32,Light Drizzle and Fog/Mist
,16090,102000,340,24.521155721217,,KTEB 300351Z 34008KT 10SM CLR 10/M09 A3012 RMK AO2 SLP198 T01001094,2022-04-30T03:51:00+00:00,,3,10,,,,-9.4,,,101980,14.76,Clear
,12870,101590,300,86.482711038053,,KEWR 041451Z 30003KT 8SM OVC007 13/11 A3000 RMK AO2 RAE32 SLP158 P0000 60003 T01280106 51007,2022-05-04T14:51:00+00:00,,9,12.8,,0,0,10.6,,,101580,5.4,Cloudy
,16090,101690,330,16.702419596447,,KTEB 291651Z 33012G24KT 10SM CLR 14/M11 A3003 RMK AO2 PK WND 32029/1617 SLP170 T01441106,2022-04-29T16:51:00+00:00,,3,14.4,,,,-10.6,,44.64,101700,22.32,Clear
,16090,101970,130,82.880385175758,,KLGA 030751Z 13003KT 10SM BKN013 OVC019 11/08 A3011 RMK AO2 SLP195 T01110083,2022-05-03T07:51:00+00:00,,9,11.1,,,,8.3,,,101950,5.4,Cloudy
,16090,102030,360,89.181204957654,,KJFK 030951Z 36007KT 10SM FEW009 10/08 A3013 RMK AO2 SLP204 T01000083,2022-05-03T09:51:00+00:00,,7,10,,,,8.3,,,102040,12.96,Mostly Clear
,16090,101830,10,64.241540272317,,KLGA 051151Z 01007KT 10SM FEW025 SCT250 15/08 A3007 RMK AO2 SLP182 70003 T01500083 10150 20133 53015,2022-05-05T11:51:00+00:00,,9,15,,,,8.3,,,101820,12.96,Partly Cloudy
,16090,101970,130,73.905075949333,,KLGA 040151Z 13009KT 10SM FEW010 BKN021 OVC170 12/07 A3011 RMK AO2 SLP197 T01170072 $,2022-05-04T01:51:00+00:00,,9,11.7,,,,7.2,,,101970,16.56,Cloudy
,11270,101660,30,86.639151568653,,KEWR 022051Z 03006KT 7SM BKN007 BKN012 OVC200 14/12 A3002 RMK AO2 DZB00E48 SLP164 P0000 60000 T01440122 53001 $,2022-05-02T20:51:00+00:00,,9,14.4,,0,0,12.2,,,101640,11.16,Cloudy
,16090,101690,340,19.207831572298,,KLGA 301951Z AUTO 34007KT 10SM CLR 18/M06 A3003 RMK AO2 SLP170 T01831056,2022-04-30T19:51:00+00:00,,9,18.3,,,,-5.6,,,101700,12.96,Clear
,6440,101490,240,89.954432820851,,KTEB 041651Z 24003KT 4SM BR OVC006 12/11 A2997 RMK AO2 SLP147 T01220106,2022-05-04T16:51:00+00:00,,3,12.2,,,,10.6,,,101470,5.4,Fog/Mist
,16090,,,,,KLGA 031004Z 04007KT 10SM BKN015 BKN250 11/08 A3013 RMK AO2 T01060083,2022-05-03T10:04:00+00:00,,9,,,,,,,,,,Mostly Cloudy
,1610,101690,40,89.269748995158,,KLGA 021700Z 04011KT 1SM R04/4000V5500FT -RA BR OVC005 11/09 A3003 RMK AO2 CIG 003V008 P0000 T01110094,2022-05-02T17:00:00+00:00,,9,11.1,,0,,9.4,,,,20.52,Light Rain and Fog/Mist
,16090,101320,270,70.302206007068,,KJFK 042251Z 27005KT 10SM FEW045 BKN120 BKN250 18/13 A2992 RMK AO2 SLP131 T01830128,2022-05-04T22:51:00+00:00,,7,18.3,,,,12.8,,,101310,9.36,Mostly Cloudy
0,4830,101800,50,89.269748995158,,KLGA 022351Z 05008KT 3SM -DZ BR OVC006 11/09 A3006 RMK AO2 DZB11 CIG 003V008 SLP178 P0000 60000 T01110094 10117 20106 53008,2022-05-02T23:51:00+00:00,,9,11.1,,0,,9.4,,,101780,14.76,Light Drizzle and Fog/Mist
,16090,,,,,KEWR 020936Z VRB03KT 10SM -RA OVC014 13/08 A3003 RMK AO2 LTG DSNT S-W RAB36 P0000 T01280078,2022-05-02T09:36:00+00:00,,9,,,0,,,,,,,Light Rain
,16090,,,,,KNYC 020951Z AUTO VRB04KT 10SM OVC016 12/08 A3006 RMK AO2 RAB05E18 SLP170 P0000 T01170078 $,2022-05-02T09:51:00+00:00,,27,,,0,,,,,,,Cloudy
,16090,101730,,12.939459523176,,KJFK 291651Z 31021G27KT 10SM FEW250 15/M13 A3004 RMK AO2 PK WND 32029/1607 SLP173 T01501133,2022-04-29T16:51:00+00:00,,7,15,,,,-13.3,,50.04,101730,,Mostly Clear
,16090,101800,340,16.966459686226,,KLGA 291551Z 34017G24KT 10SM FEW250 12/M12 A3006 RMK AO2 PK WND 30027/1533 SLP180 T01221122,2022-04-29T15:51:00+00:00,,9,12.2,,,,-12.2,,44.64,101800,31.68,Mostly Clear and Windy
,4020,101830,60,92.966926628606,,KNYC 022304Z AUTO 06004KT 2 1/2SM BR OVC005 12/11 A3007 RMK AO2 T01170106 $,2022-05-02T23:04:00+00:00,,27,11.7,,,,10.6,,,,7.56,Fog/Mist
,6440,101730,60,92.993524010865,,KNYC 021851Z AUTO 06005KT 4SM BR OVC005 12/11 A3004 RMK AO2 SLP162 T01220111 $,2022-05-02T18:51:00+00:00,,27,12.2,,,,11.1,,,101620,9.36,Cloudy
,12870,101800,50,82.954048467221,,KLGA 021351Z 05009KT 8SM FEW013 OVC023 12/09 A3006 RMK AO2 SLP177 T01170089,2022-05-02T13:51:00+00:00,,9,11.7,,,,8.9,,,101770,16.56,Cloudy
,16090,101690,190,59.870523930267,,KEWR 060351Z 19006KT 10SM FEW150 BKN190 OVC250 16/08 A3003 RMK AO2 SLP169 T01610083,2022-05-06T03:51:00+00:00,,9,16.1,,,,8.3,,,101690,11.16,Cloudy
,16090,102030,40,86.202442841334,,KLGA 030951Z 04004KT 10SM FEW013 FEW250 10/08 A3013 RMK AO2 SLP201 T01000078,2022-05-03T09:51:00+00:00,,9,10,,,,7.8,,,102010,7.56,Mostly Clear
